,code,name,address,주차장 종류명,운영구분명,telephone,총 주자면,유무료구분명,평일 운영 시작시각(HHMM),평일 운영 종료시각(HHMM),주말 운영 시작시각(HHMM),주말 운영 종료시각(HHMM),공휴일 운영 시작시각(HHMM),공휴일 운영 종료시각(HHMM),"토요일 유,무료 구분명","공휴일 유,무료 구분명",월 정기권 금액,기본 주차 요금,기본 주차 시간(분 단위),추가 단위 요금,추가 단위 시간(분 단위),일 최대 요금,latitude,longitude
0,1010089,초안산근린공원주차장(구),도봉구 창동 24-0,노외 주차장,시간제 주차장,,71,유료,900,1900,900,1900,900,1900,무료,무료,0,0,,300,10,0,37.64927895,127.0404744
1,1012254,마들스타디움(근린공원)(구),노원구 상계동 770-2,노외 주차장,시간제 주차장,02-2289-6735,177,유료,0,2400,0,2400,0,2400,무료,무료,100000,150,5,150,5,11000,37.64391748,127.0585674
2,1013181,마장동(건물) 공영주차장(구),성동구 마장동 463-2,노외 주차장,시간제 주차장,02-2204-7970,54,유료,0,2400,0,2400,0,2400,무료,무료,50000,50,5,50,5,,37.56993875,127.0351452
3,1025695,영등포여고 공영(구),영등포구 신길동 184-3,노외 주차장,시간제 주차장,02-2677-1401,98,유료,0,2400,0,2400,0,2400,무료,무료,65000,50,5,50,5,0,37.51520496,126.915116
4,1025696,당산근린공원 공영(구),영등포구 당산동3가 385-0,노외 주차장,시간제 주차장,02-2677-1401,190,유료,0,2400,0,2400,0,2400,무료,무료,100000,150,5,150,5,0,37.52552609,126.8957941
5,1025697,대림운동장(구),영등포구 대림동 780-0,노외 주차장,시간제 주차장,02-2677-1401,192,유료,0,2400,0,2400,0,2400,무료,무료,65000,50,5,50,5,,37.49965667,126.8948384
6,1027845,휘경마을 공영주차장(구),동대문구 휘경동 308-32,노외 주차장,시간제 + 거주자 주차장,02-2247-9664~6,78,유료,900,1900,900,1900,900,1900,무료,무료,,1000,60,0,0,10000,37.5880691,127.0580933
7,1028036,중산공영주차장(구),동대문구 답십리동 23-3,노외 주차장,시간제 + 거주자 주차장,02-2247-9664~6,58,유료,900,1900,900,1900,900,1900,무료,무료,,1000,60,0,0,10000,37.56867158,127.0589207
8,1028245,방학동 도깨비시장 공영주차장(구),도봉구 방학동 632-1,노외 주차장,시간제 + 거주자 주차장,02-901-5100,81,유료,900,2200,900,2200,900,2200,무료,무료,0,100,5,100,5,0,37.6645806,127.0339057
9,1032247,은평평화공원(구),은평구 녹번동 153-1,노외 주차장,시간제 주차장,02-350-5183,143,유료,0,2400,0,2400,0,2400,무료,무료,120000,150,5,150,5,0,37.60573659,126.9231083
10,1033125,압구정 428 공영주차장(구),강남구 압구정동 428-0,노외 주차장,시간제 주차장,02-2176-0971,344,유료,900,2100,900,2100,900,2100,무료,무료,200000,400,5,400,5,,37.52701729,127.0264712
11,1033590,신림동공영주차장(구),관악구 신림동 1456-3,노외 주차장,시간제 + 거주자 주차장,02-2081-2675,191,유료,0,2400,0,2400,0,2400,무료,무료,0,250,5,250,5,0,37.48736246,126.9234342
12,1033754,포이초교 공영주차장(구),강남구 개포동 1273-0,노외 주차장,시간제 주차장,02-2176-0925,194,유료,0,2400,0,2400,0,2400,무료,무료,120000,200,5,200,5,,37.47564571,127.052365
13,1034344,수유2동 공영주차장(구),강북구 수유동 660-30,노외 주차장,시간제 주차장,02-900-7443,62,유료,0,2400,0,2400,0,2400,무료,무료,60000,150,5,150,5,10000,37.64603214,127.0219081
14,1034345,송중동(임시)공영주차장(구),강북구 미아동 860-123,노외 주차장,시간제 주차장,02-988-1283,6,유료,0,2400,0,2400,0,2400,무료,무료,100000,200,5,200,5,10000,37.61105539,127.0334978
15,1037569,바람개비주차장(구),양천구 목동 919-8,노외 주차장,시간제 주차장,02-2644-1386,186,유료,900,1900,0,0,0,0,유료,유료,70000,150,5,150,5,9000,37.53033824,126.8742749
16,1037932,구로디지털단지역 공영주차장(시),구로구 구로동 810-3,노외 주차장,시간제 주차장,02-2290-6034,93,유료,0,2400,0,2400,0,2400,무료,무료,140000,260,5,260,5,0,37.48543179,126.9012433
17,1040011,상계2동 공영주차장(구),노원구 상계동 373-13,노외 주차장,시간제 주차장,02-931-2758,108,유료,0,2400,0,2400,0,2400,무료,무료,100000,150,5,150,5,11000,37.6567376,127.067531
18,1040225,논현로22길(시),강남구 개포동 1266-0,노외 주차장,시간제 주차장,02-2176-0907,97,유료,0,2400,0,2400,0,2400,무료,무료,120000,200,5,200,5,,37.48150119,127.0478133
19,1041839,신당동 공영주차장(구),중구 신당동 300-6,노외 주차장,시간제 주차장,02-2280-8368,76,유료,0,2400,0,2400,0,2400,무료,무료,175000,200,5,200,5,0,37.56204618,127.0144272
20,1041840,남산동 공영주차장(구),중구 남산동2가 30-4,노외 주차장,시간제 주차장,02-2280-8368,48,유료,0,2400,0,0,0,0,유료,유료,240000,250,5,250,5,0,37.55923691,126.985624
21,1041948,충현어린이공원 공영주차장(구),중구 신당동 432-524,노외 주차장,시간제 주차장,02-2231-1444,22,무료,0,2400,0,2400,0,2400,무료,무료,140000,0,0,0,0,0,37.55208362,127.0051946
22,1041991,불암산 공영주차장(구),노원구 중계동 26-0,노외 주차장,시간제 주차장,,39,유료,0,0,0,0,0,0,유료,유료,100000,150,5,150,5,,37.66192599,127.0793403
23,1042402,역삼1문화센터 공영주차장(구),강남구 역삼동 829-20,노외 주차장,시간제 주차장,02-2176-0922,118,유료,0,2400,0,2400,0,2400,무료,무료,280000,400,5,400,5,,37.49534845,127.0332376
24,1042405,언북초교 공영주차장(구),강남구 청담동 27-0,노외 주차장,시간제 주차장,02-2176-0908,225,유료,0,2400,0,2400,0,2400,무료,무료,180000,300,5,300,5,,37.51999434,127.0456589
25,1042406,삼성1문화센터 공영주차장(구),강남구 삼성동 161-2,노외 주차장,시간제 주차장,02-2176-0910,70,유료,0,2400,0,2400,0,2400,무료,무료,280000,400,5,400,5,,37.51434435,127.0626519
26,1042410,논현초교 공영주차장(구),강남구 논현동 168-0,노외 주차장,시간제 주차장,02-2176-0943,192,유료,0,2400,0,2400,0,2400,무료,무료,180000,300,5,300,5,,37.50822463,127.0262625
27,1042421,언주초 공영주차장(구),강남구 도곡동 922-0,노외 주차장,시간제 주차장,02-2176-0929,191,유료,0,2400,0,2400,0,2400,무료,무료,120000,200,5,200,5,,37.48664435,127.0370504
28,1051018,연광초교지하공동주차장(구),은평구 불광동 400-6,노외 주차장,시간제 주차장,,152,유료,0,2400,0,2400,0,2400,무료,무료,70000,100,5,100,5,0,37.62387156,126.9242215
29,1051043,구파발역 공영주차장(시),은평구 진관동 66-30,노외 주차장,시간제 주차장,02-2290-6088,399,유료,0,2400,0,2400,0,2400,무료,무료,91000,170,5,170,5,,37.63800702,126.9193218
30,1052723,살곶이(평면) 공영주차장(구),성동구 사근동 104-0,노외 주차장,시간제 주차장,02-2204-7970,102,유료,0,2400,0,2400,0,2400,무료,무료,,50,5,50,5,,37.55384954,127.0482917
31,1052737,응봉역공영주차장(구),성동구 응봉동 3-11,노외 주차장,시간제 주차장,,64,무료,0,0,0,0,0,0,유료,유료,,,,,,,37.55039155,127.0344811
32,1052741,마장축산물시장(건물) 공영주차장(구),성동구 마장동 525-1,노외 주차장,시간제 주차장,02-2204-7970,117,유료,0,2400,0,2400,0,2400,무료,무료,120000,250,5,250,5,,37.571538,127.039926
33,1053712,볏골공원 지하공영주차장(구),강서구 화곡동 98-99,노외 주차장,시간제 주차장,02-2065-1575,231,유료,0,0,0,0,0,0,유료,유료,60000,1200,60,100,5,,37.54149243,126.844396
34,1056832,한누리(구),동작구 사당동 1046-1,노외 주차장,시간제 주차장,,45,유료,0,2400,0,2400,0,2400,무료,무료,100000,150,5,150,5,35000,37.47743578,126.9770784
35,1056834,동작주차공원(구),동작구 동작동 326-0,노외 주차장,시간제 주차장,,147,유료,0,2400,0,2400,0,2400,무료,무료,70000,100,5,100,5,,37.50309257,126.9782686
36,1059009,신사동 제1공영주차장(구),관악구 신림동 511-1,노외 주차장,시간제 + 거주자 주차장,02-2081-2675,41,유료,900,1900,900,1600,0,0,무료,무료,0,50,5,50,5,0,37.48444431,126.915461
37,1079122,길음역환승주차장(구),성북구 하월곡동 104-112,노외 주차장,시간제 주차장,02-6923-0023,147,유료,0,2400,0,2400,0,2400,무료,무료,120000,150,5,150,5,10000,37.60423761,127.0258183
38,1140909,잠원동방음언덕형공영주차장(구),서초구 잠원동 10-33,노외 주차장,시간제 + 거주자 주차장,02-511-3015,94,유료,0,2400,0,2400,0,2400,무료,무료,120000,300,10,300,10,0,37.51638775,127.0163891
39,1140910,반포2동 공영주차장(구),서초구 반포동 5-1,노외 주차장,시간제 주차장,02-534-2772,134,유료,0,2400,0,2400,0,2400,무료,무료,120000,300,10,300,10,0,37.50421414,126.9954231
40,1140911,반포서래공영주차장[서래마을 3호점](구),서초구 반포동 95-13,노외 주차장,시간제 주차장,,7,유료,0,2400,0,2400,0,2400,무료,무료,120000,150,5,150,5,0,37.49814931,126.9978319
41,1140956,청계산 청룡주차장(구),서초구 신원동 224-3,노외 주차장,시간제 주차장,,41,유료,0,0,500,1900,500,1900,무료,무료,0,200,10,200,10,3000,37.44657405,127.0598862
42,1163833,봉천복개3 공영주차장(시),관악구 봉천동 1467-3,노상 주차장,시간제 주차장,,1,유료,900,1900,900,1500,0,0,무료,유료,,220,5,220,5,,37.48879434,126.9298008
43,1167546,독산동 금천교 공영주차장(시),금천구 독산동 181-4,노상 주차장,시간제 주차장,,1,유료,900,1900,900,1500,0,0,무료,유료,0,400,5,400,5,0,37.48704645,126.9327587
44,1189778,신답고가 주변(구),동대문구 답십리동 530-6,노상 주차장,시간제 주차장,,1,유료,900,1900,900,1500,0,0,무료,유료,120000,500,10,500,10,36000,37.48758782,126.9315441
45,1193467,동대문소방서노상(구),동대문구 장안동 434-0,노상 주차장,시간제 주차장,02-456-2591,1,유료,900,1900,900,1500,0,0,무료,유료,120000,500,10,500,10,36000,37.48895446,126.9294606
46,119824,여의도공원앞1 노상주차장(구),영등포구 여의도동 2-11,노상 주차장,시간제 주차장,02-2650-1436,1,유료,900,1900,900,1500,0,0,무료,유료,200000,500,5,1000,10,20000,37.48773442,126.9312163
47,1208601,청계2(북2) 공영주차장(시),종로구 관수동 91-4,노상 주차장,시간제 주차장,,1,유료,900,1900,900,1500,0,0,무료,유료,0,750,5,750,5,0,37.48804535,126.9314412
48,1210657,청계3(북1) 공영주차장(시),종로구 예지동 140-1,노상 주차장,시간제 주차장,,1,유료,900,1900,900,1500,0,0,무료,유료,0,750,5,750,5,0,37.4884149,126.9306418
49,1234305,가마산고가밑 공영주차장(시),구로구 구로동 414-13,노상 주차장,시간제 주차장,,1,유료,900,1900,900,1500,0,0,무료,유료,0,120,5,120,5,0,37.48736847,126.9329987
50,1235522,청계3(남) 공영주차장(시),중구 주교동 51-3,노상 주차장,시간제 주차장,,1,유료,900,1900,900,1500,0,0,무료,유료,0,750,5,750,5,0,37.48695963,126.9329544
51,1235665,청계6(청평화) 공영주차장(시),중구 신당동 217-91 0,노상 주차장,시간제 주차장,02-2252-8036,1,유료,0,2400,0,2400,0,0,무료,유료,0,450,5,450,5,0,37.48806796,126.9313923
52,1236307,청계1(남) 공영주차장(시),중구 수표동 65-4,노상 주차장,시간제 주차장,,1,유료,900,1900,900,1500,0,0,무료,유료,,750,5,750,5,,37.48802277,126.93149
53,1236612,남대문 화물 공영주차장(시),중구 남대문로4가 24-1,노상 주차장,시간제 주차장,,1,유료,900,1900,900,1900,900,1900,무료,무료,,400,5,400,5,,37.48968198,126.9256947
54,1236949,한진면세점 앞(구),중구 남대문로5가 533-0,노상 주차장,시간제 주차장,02-2280-8360,1,유료,900,2000,900,1600,0,0,무료,유료,180000,250,5,250,5,,37.48860361,126.9292749
55,1237608,해운센터 앞(구),중구 소공동 59-0,노상 주차장,시간제 주차장,02-2280-8360,1,유료,900,2000,900,1600,0,0,무료,유료,250000,600,5,600,5,,37.48968909,126.9256334
56,1247636,신설동 공영주차장(시),동대문구 신설동 114-29,노외 주차장,시간제 주차장,02-2232-6096,79,유료,900,1900,900,1900,900,1900,무료,무료,,260,5,260,5,,37.48719836,126.9324243
57,1247641,천호2동노외주차장(구),강동구 천호동 457-7,노외 주차장,시간제 주차장,02-478-6147,13,유료,900,2000,900,2000,900,2000,무료,무료,0,250,5,250,5,0,37.4873458,126.9330511
58,1247659,구의3동 공영주차장(구),광진구 구의동 219-15,노외 주차장,시간제 주차장,02-2049-4596,159,유료,0,2400,0,2400,0,2400,무료,무료,0,150,5,0,0,,37.48877237,126.9298501
59,1247661,광진광장 공영주차장(구),광진구 군자동 374-9,노외 주차장,시간제 주차장,02-2049-4596,33,유료,0,2400,0,2400,0,2400,무료,무료,0,250,5,0,0,100000,37.48739059,126.9329492
60,1247675,암사1동 주차장(구),강동구 암사동 59-2,노외 주차장,시간제 주차장,02-428-2431,114,유료,0,2400,0,2400,0,2400,무료,무료,80000,150,5,150,5,,37.48964379,126.9259545
61,1247677,양화진 공영주차장(구),마포구 합정동 139-21,노외 주차장,시간제 주차장,02-300-5052,130,유료,0,2400,0,2400,0,2400,무료,무료,80000,200,5,,,0,37.48745265,126.9318469
62,1247678,망원1-2 공영주차장(구),마포구 망원동 403-2,노외 주차장,시간제 주차장,02-300-5052,148,유료,0,2400,0,2400,0,2400,무료,무료,140000,200,5,0,0,0,37.48811293,126.9312942
63,1247680,휘경유수지 공영주차장(구),동대문구 휘경동 348-0,노외 주차장,시간제 주차장,,55,유료,0,2400,0,2400,0,2400,무료,무료,170000,500,10,500,10,0,37.4891104,126.9291179
64,1247683,덕원주차장(구),동대문구 장안동 458-8,노외 주차장,시간제 주차장,02-6240-0150,77,유료,0,2400,0,2400,0,2400,무료,무료,110000,1000,30,300,10,15000,37.48893304,126.92951
65,1247684,청계주차장(구),동대문구 용두동 129-4,노외 주차장,시간제 주차장,02-923-4147,122,유료,0,2400,0,2400,0,0,무료,유료,250000,1500,30,500,10,15000,37.48851031,126.9304427
66,1254863,영등포동제3공영(구),영등포구 영등포동4가 442-0,노외 주차장,시간제 주차장,02-2677-1401,172,유료,0,2400,0,2400,0,2400,무료,무료,120000,250,5,250,5,0,37.48904612,126.9292571
67,1254864,신길1동공영(구),영등포구 신길동 120-82,노외 주차장,시간제 주차장,02-2650-1454,15,무료,0,0,0,0,0,0,유료,유료,65000,0,0,0,0,0,37.48745665,126.9327965
68,1268780,청파동1마을공원공영주차장(구),용산구 청파동3가 118-102,노외 주차장,시간제 주차장,070-8956-2371,105,유료,0,2400,0,2400,0,2400,무료,무료,98000,150,5,150,5,0,37.48792604,126.9307967
69,1268812,청파동청사(구),용산구 청파동2가 91-1,노외 주차장,시간제 주차장,02-749-5314,32,유료,0,2400,0,2400,0,2400,무료,무료,98000,150,5,150,5,0,37.48900089,126.9293588
70,1268813,용산전자상가4(구),용산구 원효로3가 51-5,노외 주차장,시간제 주차장,02-707-3163,114,유료,800,2200,800,2200,800,2200,무료,무료,130000,250,5,250,5,,37.48748023,126.9327456
71,1268816,후암동주차장(구),용산구 후암동 65-4,노외 주차장,시간제 주차장,02-749-5314,39,유료,0,2400,0,2400,0,2400,무료,무료,140000,150,5,150,5,0,37.48858099,126.9293242
72,1277144,영등포구청역 공영주차장(시),영등포구 당산동3가 370-3,노외 주차장,시간제 주차장,02-2290-6089,137,유료,500,100,500,100,500,100,무료,무료,112000,260,5,260,5,0,37.48961411,126.9261475
73,1277145,잠실역 공영주차장(시),송파구 신천동 27-0,노외 주차장,시간제 주차장,02-2290-6402,357,유료,500,100,500,100,500,100,무료,무료,180000,400,5,400,5,0,37.48953571,126.9265709
74,1277146,장안2동 공영주차장(시),동대문구 장안동 286-9,노외 주차장,시간제 주차장,02-2290-6417,80,유료,0,2400,0,2400,0,2400,무료,무료,70000,130,5,130,5,,37.4884613,126.930543
75,1277157,해방촌노외 공영주차장(시),용산구 용산동2가 1-1497,노외 주차장,시간제 주차장,,24,유료,900,2200,900,2200,900,2200,무료,무료,90000,130,5,130,5,0,37.48687558,126.9331414
76,1277160,당산노외 공영주차장(시),영등포구 당산동3가 2-1,노외 주차장,시간제 주차장,,237,유료,800,2100,800,2100,800,2100,무료,무료,140000,260,5,260,5,0,37.48800038,126.9315393
77,1277163,명일동 공영주차장(시),강동구 명일동 47-9,노외 주차장,시간제 주차장,,11,유료,900,2000,900,1500,0,0,무료,유료,162000,220,5,220,5,,37.48848513,126.9304936
78,1364466,도곡로21길 7 공영주차장(구),강남구 역삼동 795-25,노외 주차장,시간제 주차장,02-2176-0920,75,유료,0,2400,0,2400,0,2400,무료,무료,280000,400,5,400,5,,37.48908779,126.9291688
79,1364468,탄천제2호 공영주차장(구),강남구 일원동 4-49,노외 주차장,시간제 주차장,02-2176-0931,322,유료,0,2400,0,2400,0,2400,무료,무료,70000,100,5,100,5,,37.48775652,126.9311671
80,1364472,영희초교 공영주차장(구),강남구 일원동 617-0,노외 주차장,시간제 주차장,02-2176-0934,186,유료,0,2400,0,2400,0,2400,무료,무료,70000,100,5,100,5,,37.48754381,126.9316427
81,1365707,배봉공영주차장(구),동대문구 휘경동 286-66,노외 주차장,시간제 + 거주자 주차장,02-2247-9664~6,199,유료,900,1900,900,1900,900,1900,무료,무료,,1000,60,0,0,10000,37.48783229,126.9310132
82,1366393,하늘공원주차장(구),구로구 가리봉동 1-11,노외 주차장,시간제 주차장,,198,유료,0,2400,0,2400,0,2400,무료,무료,80000,150,5,150,5,0,37.48891161,126.9295578
83,1366394,개봉1동마을공동주차장(구),구로구 개봉동 416-2,노외 주차장,시간제 주차장,,56,유료,900,1800,0,0,0,0,유료,유료,50000,50,5,50,5,0,37.4890235,126.9293079
84,1366395,개봉1동 노외주차장(구),구로구 개봉동 134-8,노외 주차장,시간제 주차장,,134,유료,0,2400,0,2400,0,2400,무료,무료,75000,100,5,100,5,0,37.48843885,126.9305924
85,1366487,양재시민의숲(매헌)역 공영주차장(구),서초구 양재동 237-2,노외 주차장,시간제 주차장,080-330-3600,48,유료,0,2400,0,2400,0,2400,무료,무료,140000,250,5,250,5,0,37.48750347,126.9326947
86,1366504,송정동(건물) 공영주차장(구),성동구 금호동1가 68-57,노외 주차장,시간제 주차장,02-2204-7970,121,유료,0,2400,0,2400,0,2400,무료,무료,70000,100,5,100,5,,37.48881637,126.9297514
87,1366527,동작대교 공영주차장(시),용산구 용산동6가 69-11,노외 주차장,시간제 주차장,,88,유료,800,2200,800,2200,800,2200,무료,무료,70000,120,5,120,5,,37.48794759,126.930747
88,1366575,망원동 공영주차장(시),마포구 망원동 478-10,노외 주차장,시간제 주차장,02-300-5053,21,유료,0,2400,0,2400,0,2400,무료,무료,,150,5,,,,37.48767029,126.9313598
89,1366576,개화역 공영주차장(시),강서구 개화동 664-0,노외 주차장,시간제 주차장,02-2290-6312,483,유료,0,2400,0,2400,0,2400,무료,무료,91000,170,5,170,5,0,37.48897708,126.9294097
90,1366590,신대방역 공영주차장(시),관악구 신림동 498-0,노외 주차장,시간제 주차장,02-2290-6144,60,유료,0,2400,0,2400,0,2400,무료,무료,140000,260,5,260,5,,37.48741271,126.9328982
91,1366593,구로디지털단지역(상) 공영주차장(시),관악구 신림동 1677-5,노외 주차장,시간제 주차장,,31,유료,800,2100,800,2100,800,2100,무료,무료,140000,260,5,260,5,0,37.48958799,126.9263046
92,1366600,학여울 공영주차장(시),강남구 대치동 514-1,노외 주차장,시간제 주차장,02-3405-4074,180,유료,500,100,500,100,500,100,무료,무료,140000,260,5,260,5,0,37.48875039,126.9298996
93,1366602,일원터널 공영주차장(시),강남구 일원동 722-1,노외 주차장,시간제 주차장,02-2290-6449,11,유료,0,2400,0,2400,0,2400,무료,무료,70000,130,5,130,5,0,37.48717617,126.9324736
94,1366624,창동역(서) 공영주차장(시),도봉구 창동 330-0,노외 주차장,시간제 주차장,02-1688-1054,107,유료,0,2400,0,2400,0,2400,무료,무료,140000,260,5,260,5,0,37.48839206,126.9306914
95,1366789,청암공영주차장(무인)(구),강북구 미아동 791-1694,노외 주차장,시간제 주차장,02-무인,47,무료,0,0,0,0,0,0,유료,유료,60000,0,0,0,0,0,37.48855776,126.9303395
96,1366790,은혜공영주차장(무인)(구),강북구 미아동 791-1049,노외 주차장,시간제 주차장,02-무인,20,무료,0,0,0,0,0,0,유료,유료,60000,0,0,0,0,0,37.48959749,126.9262478
97,1366791,송천동공영주차장(구),강북구 미아동 439-138,노외 주차장,시간제 주차장,02-944-3039,59,유료,0,2400,0,2400,0,2400,무료,무료,60000,150,5,150,5,10000,37.48756582,126.9315934
98,1366792,수유일공원공영주차장(구),강북구 수유동 605-407,노외 주차장,시간제 주차장,02-944-3042,91,유료,0,2400,0,2400,0,2400,무료,무료,100000,200,5,200,5,10000,37.48752181,126.931692
99,1366793,번2동 공영주차장(무인)(구),강북구 번동 148-140,노외 주차장,시간제 주차장,02)944-3025,20,무료,0,0,0,0,0,0,유료,유료,60000,0,0,0,0,0,37.48962361,126.9260862
100,1366794,미아동공영주차장(구),강북구 미아동 222-100,노외 주차장,시간제 주차장,02-944-3048,155,유료,0,2400,0,2400,0,2400,무료,무료,80000,150,5,150,5,10000,37.48853367,126.9303904
101,1366795,수유동쌈지마당공영주차장(구),강북구 수유동 612-6,노외 주차장,시간제 주차장,,19,유료,0,2400,0,2400,0,2400,무료,무료,150000,250,5,250,5,15000,37.48809036,126.9313431
102,1366869,당곡중학교공영 (지하주차장)(구),관악구 봉천동 682-0,노외 주차장,시간제 + 거주자 주차장,02-2081-2675,159,유료,0,2400,0,2400,0,2400,무료,무료,0,50,5,50,5,,37.48702428,126.9328079
103,1366903,석계역 공영주차장(시),노원구 월계동 50-9,노외 주차장,시간제 주차장,02-1688-1054,76,유료,0,2400,0,2400,0,2400,무료,무료,140000,260,5,260,5,,37.48685341,126.9331906
104,1367120,동구로 공영주차장(시),구로구 구로동 94-1,노외 주차장,시간제 주차장,02-3405-4086,71,유료,0,2400,0,2400,0,2400,무료,무료,140000,320,5,320,5,0,37.46658703,126.8899109
105,1367218,한마음주차장(구),양천구 목동 914-5,노외 주차장,시간제 주차장,070-7119-2575,553,유료,0,2400,0,2400,0,2400,무료,무료,70000,150,5,150,5,,37.46658699,126.8899346
106,1367264,적선동 주차장(시),종로구 적선동 140-0,노외 주차장,시간제 주차장,02-2264-4895,30,유료,900,1900,900,1900,900,1900,무료,무료,0,340,5,340,5,0,37.46658688,126.8900068
107,1367564,해군본부앞 공영주차장(시),영등포구 신길동 812-0,노상 주차장,시간제 주차장,,1,유료,900,1900,900,1500,0,0,무료,유료,,220,5,220,5,,37.46654151,126.8899352
108,1367773,가산동 금천교 공영주차장(시),금천구 가산동 691-3,노상 주차장,시간제 주차장,,1,유료,900,1900,900,1500,0,0,무료,유료,0,200,5,200,5,0,37.46658651,126.8900567
109,1367792,당산고가밑 공영주차장(시),영등포구 당산동5가 9-15,노상 주차장,시간제 주차장,,1,유료,900,1900,900,1500,0,0,무료,유료,,260,5,260,5,,37.46658718,126.8898141
110,1367804,을지로 공영주차장(시),중구 을지로3가 282-8,노상 주차장,시간제 주차장,02-2274-2009,1,유료,900,1900,900,1500,0,0,무료,유료,,750,5,750,5,,37.46658714,126.8898386
111,1368504,연신중학교지하공동주차장(구),은평구 불광동 400-4,노외 주차장,시간제 주차장,,137,유료,0,2400,0,2400,0,2400,무료,무료,70000,100,5,100,5,,37.46658707,126.8898868
112,1368524,구청앞(구),강북구 수유동 191-1,노상 주차장,시간제 + 거주자 주차장,,1,유료,900,1900,900,1500,0,0,무료,무료,100000,250,5,250,5,15000,37.46658711,126.8898631
113,1368749,신길5동 공영(구),영등포구 신길동 400-1,노외 주차장,시간제 주차장,02-2677-1401,26,유료,0,2400,0,2400,0,2400,무료,무료,140000,150,5,150,5,0,37.46654108,126.889983
114,1368955,남산공원 소월로 관광버스전용 주차장(시),중구 남대문로5가 450-0,노상 주차장,버스전용 주차장,02-2290-6449,1,무료,0,0,0,0,0,0,유료,유료,0,0,0,0,0,0,37.46658655,126.890032
115,1369476,탑골공원 관광버스전용 주차장(시),종로구 종로2가 38-4,노상 주차장,버스전용 주차장,02)2290-6449,1,무료,0,0,0,0,0,0,유료,유료,0,0,0,0,0,0,37.46658696,126.8899594
116,1370001,청계산근린광장(구),서초구 원지동 355-1,노외 주차장,시간제 주차장,02-577-1055,89,유료,900,1800,900,1800,900,1800,무료,무료,0,200,10,200,10,6000,37.46654123,126.8898867
117,1370100,강일동 주차장(구),강동구 강일동 665-4,노외 주차장,시간제 주차장,02-427-6147,90,유료,0,2400,0,2400,0,2400,무료,무료,80000,150,5,150,5,,37.46654105,126.8900067
118,1370269,이경시장 공영주차장(구),동대문구 이문동 86-52,노상 주차장,시간제 주차장,,1,유료,900,1900,900,1500,0,0,무료,유료,120000,500,10,500,10,36000,37.46654581,126.890098
119,1370637,번동 햇살 주차장(구),강북구 번동 148-380,노외 주차장,시간제 주차장,02-944-3044,187,유료,0,2400,0,2400,0,2400,무료,무료,60000,150,5,150,5,10000,37.46654131,126.8898385
120,1370857,봉수대공영주차장(구),중랑구 신내동 12-2,노외 주차장,시간제 주차장,02-438-8271,31,유료,800,1700,0,0,0,0,유료,유료,,150,5,150,5,3000,37.46654127,126.889863
121,1371689,양천사회단체봉사센터(구),양천구 목동 905-29,노외 주차장,시간제 주차장,02-2644-1384,20,유료,900,1900,0,0,0,0,유료,유료,70000,150,5,150,5,9000,37.46654071,126.8900319
122,1371690,목동타운홀(구),양천구 목동 905-21,노외 주차장,시간제 주차장,02-2644-1384,25,유료,900,1900,0,0,0,0,유료,유료,70000,150,5,150,5,9000,37.46654112,126.8899593
123,1372128,마천동 3공영주차장(구),송파구 마천동 128-4,노외 주차장,시간제 주차장,02-430-6790,47,유료,0,2400,0,2400,0,2400,무료,무료,75000,100,5,100,5,,37.46658692,126.8899831
124,1372154,문정 공영주차장(구),송파구 문정동 2-5,노외 주차장,시간제 주차장,02-407-1500,101,유료,600,2100,600,2100,600,2100,무료,무료,50000,100,5,100,5,0,37.46660227,126.8900981
125,1372454,대림노외 공영주차장(시),구로구 구로동 120-5,노외 주차장,시간제 주차장,,93,유료,900,1900,900,1900,900,1900,무료,무료,140000,260,5,260,5,,37.4665412,126.8899108
126,1372873,도봉산역 공영주차장(시),도봉구 도봉동 288-19,노외 주차장,시간제 주차장,02)2290-6047 ,358,유료,0,2400,0,2400,0,2400,무료,무료,91000,170,5,170,5,0,37.57051227,127.0497942
127,1374090,수서역남 공영주차장(시),강남구 수서동 727-0,노외 주차장,시간제 주차장,02-3405-4076,69,유료,0,2400,0,2400,0,2400,무료,무료,168000,320,5,320,5,0,37.57015349,127.0501106
128,1384005,남부골목 전통시장 고객주차장(구),강서구 화곡동 797-7,노외 주차장,시간제 주차장,02-2646-5656,17,유료,1000,2000,1000,2000,0,0,무료,유료,60000,250,5,250,5,0,37.56997998,127.050267
129,1384007,까치산 전통시장 고객주차장(구),강서구 화곡동 342-16,노외 주차장,시간제 주차장,02-2606-4500,19,유료,1000,2000,1000,2000,0,0,무료,유료,60000,250,5,250,5,0,37.56977549,127.0504248
130,1384008,송화골목 전통시장 고객주차장(구),강서구 내발산동 720-4,노외 주차장,시간제 주차장,02-2696-5225,24,유료,1000,2100,1000,2100,0,0,무료,유료,60000,250,5,250,5,0,37.57044198,127.0497006
131,1384016,가로공원로 지하 주차장(구),강서구 화곡동 662-15,노외 주차장,시간제 주차장,02-2699-0802,500,유료,0,0,0,0,0,0,유료,유료,60000,100,5,100,5,5000,37.56981256,127.0507203
132,1384198,동대문 공영주차장(시),중구 신당동 251-7,노외 주차장,시간제 주차장,02)2254-4901 ,1092,유료,0,2400,0,2400,0,2400,무료,무료,225000,360,5,360,5,0,37.57061948,127.049932
133,1384627,큰마을길(구),강북구 미아동 309-14,노상 주차장,시간제 + 거주자 주차장,02-944-3025,1,유료,900,1900,900,1500,0,0,무료,무료,100000,200,5,200,5,10000,37.56984055,127.0507794
134,1384980,교육청길(구),강북구 미아동 137-19,노상 주차장,시간제 + 거주자 주차장,02-944-3025,1,유료,900,1900,900,1500,0,0,무료,무료,100000,200,5,200,5,10000,37.5705492,127.0498391
135,1385457,신문로 공영주차장(구),종로구 신문로1가 58-36,노외 주차장,시간제 주차장,02-720-0964,17,유료,900,1900,900,1900,900,1900,무료,무료,,400,5,400,5,0,37.57032225,127.0499279
136,1386536,서울글로벌센터 공영주차장(시),종로구 서린동 63-0,노외 주차장,시간제 주차장,02-720-9862,44,유료,900,1800,0,0,0,0,유료,유료,280000,700,5,700,5,0,37.56978517,127.0506618
137,1397591,용답제2(평면) 공영주차장(구),성동구 용답동 182-10,노외 주차장,시간제 주차장,02-2204-7970,145,유료,0,2400,0,2400,0,2400,무료,무료,100000,150,5,150,5,,37.56982198,127.0503919
138,1398740,신교공영(구),종로구 신교동 66-0,노외 주차장,시간제 + 거주자 주차장,02-2236-0052,158,유료,0,2400,0,2400,0,2400,무료,무료,,150,5,150,5,0,37.56975718,127.0506034
139,1404649,오류1동 텃골주차장(구),구로구 오류동 6-11,노외 주차장,시간제 주차장,,84,유료,0,2400,0,2400,0,2400,무료,무료,65000,100,5,100,5,,37.5700235,127.050231
140,1404936,천왕역 공영주차장(시),구로구 오류동 174-10,노외 주차장,시간제 주차장,02-2290-6343,328,유료,0,2400,0,2400,0,2400,무료,무료,91000,170,5,170,5,0,37.56986669,127.0503605
141,1410226,중곡시장주차장(구),광진구 중곡동 221-6,노외 주차장,시간제 주차장,,19,유료,900,1900,900,1900,900,1900,무료,무료,0,250,5,0,0,0,37.57006763,127.0501929
142,1412826,매바위 공영주차장(구),은평구 응암동 747-8,노외 주차장,시간제 주차장,,80,유료,0,2400,0,2400,0,2400,무료,무료,70000,1200,60,100,5,,37.56993049,127.0503081
143,1412893,자양전통시장 공영주차장(구),광진구 자양동 631-18,노외 주차장,시간제 + 거주자 주차장,02-458-1624,24,유료,900,1900,900,1900,900,1900,무료,무료,,250,5,250,5,,37.57047593,127.0497463
144,1415512,견인보관소(구),동대문구 휘경동 361-0,노외 주차장,시간제 주차장,02-2247-9666,40,유료,0,2400,0,2400,0,2400,무료,무료,170000,500,10,500,10,0,37.57023162,127.050032
145,1415917,구룡 공영주차장(구),금천구 독산동 964-0,노외 주차장,시간제 + 거주자 주차장,02-809-0061~7,22,유료,830,1900,830,1900,830,1900,무료,무료,0,65,5,65,5,0,37.57028349,127.0499698
146,1415929,다목적 공영주차장(구),금천구 독산동 971-0,노외 주차장,시간제 + 거주자 주차장,02-865-7557,46,유료,830,1900,830,1900,830,1900,무료,무료,0,65,5,65,5,0,37.57058434,127.0498871
147,1416322,영등포본동제2공영(구),영등포구 신길동 186-355,노외 주차장,시간제 주차장,02-2677-1401,61,유료,0,2400,0,2400,0,2400,무료,무료,65000,50,5,50,5,0,37.57065641,127.0499782
148,1417234,면목초교주자창(구),중랑구 면목동 192-1,노외 주차장,시간제 주차장,,82,유료,0,2400,0,2400,0,2400,무료,무료,50000,100,5,100,5,,37.56389743,127.0671136
149,1418248,방배열린문화센터 공영주차장(구),서초구 방배동 852-14,노외 주차장,시간제 주차장,02-2155-7290,109,유료,0,2400,0,2400,0,2400,무료,무료,120000,300,10,300,10,0,37.56375259,127.0670147
150,1421476,풍납유수지공영주차장(구),송파구 풍납동 387-0,노외 주차장,시간제 주차장,02-489-0233,234,유료,0,2400,0,2400,0,2400,무료,무료,0,250,5,250,5,0,37.56370597,127.066979
151,1421586,나눔터길 노상공영(구),강북구 수유동 605-185,노상 주차장,시간제 + 거주자 주차장,,1,유료,900,1900,900,1500,0,0,무료,무료,100000,200,5,200,5,10000,37.56365506,127.0669449
152,1423651,서강대역 환승 공영주차장(구),마포구 신수동 93-35,노외 주차장,시간제 주차장,02-300-5052,98,유료,0,0,0,0,0,0,유료,유료,50000,150,5,150,5,,37.564041,127.0672118
153,1423770,남부초등학교(지하주차장)(구),관악구 신림동 467-0,노외 주차장,시간제 + 거주자 주차장,,135,유료,0,2400,0,2400,0,2400,무료,무료,0,150,5,150,5,,37.56379973,127.0670491
154,1423842,마장축산물시장 서문(건물) 공영주차장(구),성동구 마장동 522-1,노외 주차장,시간제 주차장,02-2204-7970,129,유료,0,2400,0,2400,0,2400,무료,무료,120000,250,5,250,5,,37.56399275,127.0671773
155,1424206,다산아트 공영주차장(구),중구 신당동 432-612,노외 주차장,시간제 주차장,02-2280-8360,75,유료,800,2300,800,2300,0,0,무료,유료,140000,150,5,150,5,0,37.56384977,127.0670784
156,1424461,DDP북측 마장로 관광버스전용 주차장(시),중구 신당동 222-3,노상 주차장,버스전용 주차장,02-2290-6449,1,무료,0,0,0,0,0,0,유료,유료,0,0,0,0,0,0,37.5639433,127.0671458
157,1425391,영등포구청별관 공영주차장(구),영등포구 당산동3가 560-0,노외 주차장,시간제 주차장,02-2677-1401,61,유료,0,2359,0,2359,0,2359,무료,무료,84000,150,5,150,5,0,37.52517917,126.9194017
158,1425816,동국제강 공영주차장(시),중구 삼각동 111-1,노외 주차장,시간제 주차장,,13,유료,900,1900,900,1900,0,0,무료,유료,350000,700,5,700,5,,37.52411707,126.9176964
159,1430035,남대문 초입 관광버스전용 주차장(시),중구 남창동 282-10,노상 주차장,버스전용 주차장,02)2290-6449,1,무료,0,0,0,0,0,0,유료,유료,0,0,0,0,0,0,37.52510902,126.9192897
160,1430042,남대문 시장 관광버스전용 주차장(시),중구 남창동 51-4,노상 주차장,버스전용 주차장,02)2290-6449,1,무료,0,0,0,0,0,0,유료,유료,0,0,0,0,0,0,37.52418751,126.9178081
161,1431448,고척근린공원지하주차장(구),구로구 고척동 9-14,노외 주차장,시간제 주차장,02-850-0920,199,유료,0,2400,0,2400,0,2400,무료,무료,112000,150,5,150,5,,37.52415202,126.9177525
162,1431644,황학어린이공원 지하주차장(구),중구 황학동 755-0,노외 주차장,시간제 + 거주자 주차장,02-2280-8368,113,유료,0,2400,0,0,0,0,무료,무료,180000,200,5,200,5,,37.52521469,126.9194573
163,1432682,구로4동 주택가 공동 주차장(구),구로구 구로동 741-44,노외 주차장,시간제 주차장,02-839-4875,198,유료,0,2400,0,2400,0,2400,무료,무료,75000,100,5,100,5,0,37.52528502,126.9195692
164,1433547,한남동 공영주차장(구),용산구 한남동 685-46,노외 주차장,시간제 주차장,02-749-3633,250,유료,0,2400,0,2400,0,2400,무료,무료,180000,250,5,250,5,,37.52503851,126.919178
165,1434175,독산4동 공영주차장(구),금천구 독산동 187-40,노외 주차장,시간제 주차장,,63,유료,0,2400,0,2400,0,2400,무료,무료,350000,65,5,65,5,50000,37.52404698,126.9175843
166,1436808,가산디지털 서측(구),금천구 가산동 505-3,노외 주차장,시간제 주차장,,160,유료,830,1900,0,2400,0,2400,무료,무료,100000,300,10,300,10,9000,37.52408193,126.9176404
167,1437917,영남 공영주차장(시),영등포구 영등포동4가 123-0,노외 주차장,시간제 주차장,,570,유료,0,2400,0,2400,0,2400,무료,무료,110000,160,5,160,5,,37.52507431,126.9192349
168,1439690,수유마을시장 공영주차장(구),강북구 수유동 55-53,노외 주차장,시간제 주차장,02-944-3053,116,유료,0,2400,0,2400,0,2400,무료,무료,80000,100,5,100,5,10000,37.52514418,126.9193456
169,1440586,시흥 4동 공영주차장(구),금천구 시흥동 704-56,노외 주차장,시간제 + 거주자 주차장,,124,유료,830,1900,830,1900,830,1900,무료,무료,,65,5,65,5,,37.5252495,126.9195136
170,1440587,시흥 4동 (삼성)공영주차장(구),금천구 시흥동 171-1,노외 주차장,시간제 + 거주자 주차장,,51,유료,830,1900,830,1900,830,1900,무료,무료,0,65,5,65,5,0,37.52401149,126.9175287
171,1441342,도곡초 공영주차장(구),강남구 대치동 924-10,노외 주차장,시간제 주차장,02-501-5921,200,유료,0,2400,0,2400,0,2400,무료,무료,180000,300,5,300,5,,37.56878199,126.9959106
172,1441348,서울놀이마당 공영주차장(구),송파구 잠실동 47-1,노외 주차장,시간제 주차장,,17,유료,900,1800,900,1800,900,1800,무료,무료,,500,5,500,5,0,37.56877674,126.9958474
173,1441353,신구초 공영주차장(구),강남구 신사동 550-11,노외 주차장,시간제 주차장,02-540-6149,185,유료,0,2400,0,2400,0,2400,무료,무료,180000,300,5,300,5,0,37.56895335,126.9973934
174,1441360,역삼문화공원 공영주차장(구),강남구 역삼동 635-0,노외 주차장,시간제 주차장,02-2176-0907,59,유료,0,2400,0,2400,0,2400,무료,무료,180000,300,5,300,5,,37.56882441,126.9962378
175,1441362,천마 공영주차장(구),송파구 마천동 1-5,노외 주차장,시간제 주차장,02-430-7240,140,유료,0,2400,0,2400,0,2400,무료,무료,60000,50,5,50,5,,37.56896044,126.997456
176,1441365,보라매공원동문주차장(구),동작구 신대방동 395-0,노외 주차장,시간제 주차장,,52,유료,900,2200,900,2200,900,2200,무료,무료,,100,5,100,5,0,37.56877035,126.9957864
177,1441366,빙수골장미(구),동작구 상도동 301-132,노외 주차장,시간제 주차장,,64,유료,0,2400,0,2400,0,2400,무료,무료,100000,150,5,150,5,35000,37.56896653,126.9975182
178,1441367,탄천(구),송파구 잠실동 1082-1,노외 주차장,시간제 주차장,,859,유료,0,2400,0,2400,0,2400,무료,무료,60000,2500,420,0,0,17000,37.56882965,126.9963054
179,1441370,도산대로25길 32 공영주차장(구),강남구 신사동 564-0,노외 주차장,시간제 주차장,02-549-0463,26,유료,900,1900,0,0,0,0,유료,유료,200000,400,5,400,5,,37.56894623,126.9973307
180,1441378,방이고분 공영주차장(구),송파구 방이동 125-0,노외 주차장,시간제 주차장,02-3431-4155,61,유료,900,1800,900,1500,900,1800,무료,무료,,100,5,100,5,,37.56964972,127.0010152
181,1441382,가재울 공영주차장(구),노원구 하계동 252-6,노외 주차장,시간제 + 거주자 주차장,,121,유료,0,2400,0,2400,0,2400,무료,무료,100000,150,5,150,5,11000,37.56916536,126.9985156
182,1441386,송파나루공원 동호주차장(구),송파구 신천동 32-0,노외 주차장,시간제 주차장,02-424-1199,20,유료,0,0,0,0,0,0,유료,유료,0,500,5,0,0,0,37.56960989,127.0007946
183,1441388,엔젤데이케이센터 지하주차장(구),동작구 사당동 278-34,노외 주차장,시간제 주차장,,5,무료,0,0,0,0,0,0,유료,유료,0,0,0,0,0,0,37.56958071,127.0006174
184,1441397,송파근린공원(구),송파구 송파동 113-2,노외 주차장,시간제 주차장,02-418-3854,324,유료,0,2400,0,2400,0,2400,무료,무료,140000,150,5,150,5,0,37.56957034,127.00059
185,144561,한국통신(구),양천구 목동 924-1,노상 주차장,시간제 주차장,,1,유료,900,1900,900,1500,0,0,무료,유료,0,250,5,250,5,0,37.56924576,126.998914
186,1447973,중구구민회관 부설(구),중구 을지로6가 18-14,노외 주차장,시간제 주차장,02-2265-7765,71,유료,0,2400,0,2400,0,2400,무료,무료,240000,250,5,250,5,0,37.56925787,126.9989798
187,1448767,신길6동공영(구),영등포구 신길동 3203-0,노외 주차장,시간제 주차장,02-2677-1401,129,유료,0,2400,0,2400,0,2400,무료,무료,65000,50,5,50,5,0,37.56967214,127.001126
188,1448769,경부제3녹지공영주차장(구),영등포구 신길동 69-39,노외 주차장,시간제 주차장,02-2677-1401,143,유료,0,2400,0,2400,0,2400,무료,무료,70000,100,5,100,5,0,37.56928478,126.9991122
189,1449826,경동고(구),성북구 삼선동3가 43-1,노외 주차장,시간제 주차장,,122,유료,0,2400,0,2400,0,2400,무료,무료,90000,150,5,150,5,10000,37.56962119,127.0008557
190,1449827,정릉시장(구),성북구 정릉동 405-4,노외 주차장,시간제 주차장,,20,유료,0,2400,0,2400,0,2400,무료,무료,120000,150,5,150,5,10000,37.56958147,127.0006567
191,1451364,청계7가 공영주차장(시),종로구 창신동 436-87,노상 주차장,시간제 주차장,,1,유료,900,1900,900,1500,0,0,무료,유료,0,450,5,450,5,0,37.56966045,127.0010714
192,1451370,동순라길(종묘) 관광버스전용 주차장(시),종로구 인의동 107-1,노상 주차장,버스전용 주차장,02-2290-6449,1,무료,0,0,0,0,0,0,유료,유료,0,0,0,0,0,0,37.56963304,127.0009179
193,1451371,세운상가밑(구),종로구 장사동 116-3,노상 주차장,시간제 주차장,,1,유료,900,1900,900,1500,0,0,무료,유료,250000,500,5,1000,10,0,37.56927065,126.9990456
194,1451378,태화관(구),종로구 인사동 194-27,노상 주차장,시간제 주차장,02-2236-0052,1,유료,1000,2200,900,1700,0,0,무료,유료,250000,500,5,1000,10,0,37.56959507,127.0007264
195,1451381,동일상가아파트 이륜차 주차장(구),종로구 숭인동 234-81,노상 주차장,이륜차 전용 주차장,,1,무료,0,0,0,0,0,0,유료,유료,0,0,0,0,0,0,37.56922056,126.9987959
196,1451384,숭인상가아파트 이륜차 주차장(구),종로구 숭인동 204-14,노상 주차장,이륜차 전용 주차장,,1,무료,0,0,0,0,0,0,유료,유료,0,0,0,0,0,0,37.56919089,126.9986443
197,1451389,필운대로 도미노피자앞 이륜차 주차장(구),종로구 누하동 7-0,노상 주차장,이륜차 전용 주차장,,1,무료,0,0,0,0,0,0,유료,유료,0,0,0,0,0,0,37.56917898,126.9985805
198,1451409,낙산성곽 버스전용 주차장(구),종로구 창신동 615-62,노상 주차장,버스전용 주차장,,1,무료,0,0,0,0,0,0,유료,유료,0,0,0,0,0,0,37.56929756,126.9991789
199,1451525,열린마당(구),종로구 세종로 111-0 옆,노상 주차장,시간제 주차장,,1,유료,900,2100,900,1500,0,0,무료,유료,250000,500,5,1000,10,0,37.49293677,126.882609
200,1451554,청계3(창경궁로_북1) 공영주차장(시),종로구 예지동 140-1,노상 주차장,시간제 주차장,,1,유료,900,1900,900,1500,0,0,무료,유료,0,750,5,750,5,0,37.4928816,126.8827362
201,1451594,종각(구),종로구 관철동 45-9,노상 주차장,시간제 주차장,,1,유료,1000,2200,900,1800,0,0,무료,유료,250000,500,5,1000,10,0,37.4928513,126.882464
202,1451598,원서공원 앞(구),종로구 와룡동 206-0,노상 주차장,시간제 주차장,,1,유료,900,1900,900,1900,900,1900,무료,무료,250000,500,5,500,5,0,37.49295594,126.8826702
203,1451768,창대교회 옆 이륜차 주차장(구),종로구 숭인동 62-9,노상 주차장,이륜차 전용 주차장,,1,무료,0,0,0,0,0,0,유료,유료,0,0,0,0,0,0,37.49276606,126.8825195
204,1451912,광화문빌딩(구),종로구 당주동 40-9,노상 주차장,시간제 주차장,,1,유료,1000,2200,1000,1800,1000,1800,무료,무료,250000,500,5,1000,10,0,37.49279709,126.8825584
205,1451913,삼청공원앞(구),종로구 삼청동 25-11,노상 주차장,시간제 주차장,,1,유료,900,2100,900,1700,0,0,무료,유료,180000,250,5,500,10,0,37.49292208,126.8825791
206,1451938,청계1(북) 공영주차장(시),종로구 관철동 13-14,노상 주차장,시간제 주차장,,1,유료,900,1900,900,1500,0,0,무료,유료,0,750,5,750,5,0,37.49294669,126.8826389
207,1451953,종로63가길 이륜차 주차장(구),종로구 숭인동 58-2,노상 주차장,이륜차 전용 주차장,,1,무료,0,0,0,0,0,0,유료,유료,0,0,0,0,0,0,37.4928576,126.8826674
208,1451954,힐스테이트옆 이륜차 주차장(구)(구),종로구 숭인동 766-2,노상 주차장,이륜차 전용 주차장,,1,무료,0,0,0,0,0,0,유료,유료,0,0,0,0,0,0,37.49288926,126.8827706
209,1451963,종로40길 이륜차 주차장(구),종로구 종로6가 318-3,노상 주차장,이륜차 전용 주차장,,1,무료,0,0,0,0,0,0,유료,유료,0,0,0,0,0,0,37.49281037,126.8824132
210,1451967,창신쌍용2지구 북측 이륜차 주차장(구),종로구 창신동 37-16,노상 주차장,이륜차 전용 주차장,,1,무료,0,0,0,0,0,0,유료,유료,0,0,0,0,0,0,37.49296464,126.8827032
211,1451973,한미빌딩옆(구),종로구 인사동 283-0,노상 주차장,시간제 주차장,,1,유료,1000,2200,900,1700,0,0,무료,유료,250000,500,5,1000,10,0,37.49281594,126.8825823
212,1452019,청계5(북1) 공영주차장(시),종로구 종로5가 458-2,노상 주차장,시간제 주차장,,1,유료,900,1900,900,1500,0,0,무료,유료,0,750,5,750,5,0,37.49288559,126.8825117
213,1452024,청계5(동호로_북) 공영주차장(시),종로구 종로5가 458-2,노상 주차장,시간제 주차장,,1,유료,900,100,900,1500,0,0,무료,유료,0,750,5,750,5,0,37.49287143,126.8827018
214,1452104,롯데캐슬 뒤 이륜차 주차장(구),종로구 숭인동 76-1,노상 주차장,이륜차 전용 주차장,,1,무료,0,0,0,0,0,0,유료,유료,0,0,0,0,0,0,37.49283218,126.8824385
215,1452217,경복궁역 이륜차 주차장(구),종로구 내자동 67-2,노상 주차장,이륜차 전용 주차장,,1,무료,0,0,0,0,0,0,유료,유료,0,0,0,0,0,0,37.492845,126.882639
216,1452219,청계2(돈화문로) 공영주차장(시),종로구 관수동 91-4,노상 주차장,시간제 주차장,,1,유료,900,1900,900,1500,0,0,무료,유료,0,750,5,750,5,0,37.49274815,126.8824956
217,1452263,사직로3 관광버스 주차허용 구간(시),종로구 사직동 240-0 (한국갤럽 앞 ~ 풍림스페이스본 버스정류장 전),노상 주차장,버스전용 주차장,02)2133-2357,1,무료,0,0,0,0,0,0,유료,유료,0,0,0,0,0,0,37.56899628,126.9994177
218,1452264,창의문로 관광버스 주차허용 구간(시),종로구 청운동 15-57 (벽산빌리지 9동 앞 ~ 청운중학교 100m 앞),노상 주차장,버스전용 주차장,02-2133-2357,1,무료,0,0,0,0,0,0,유료,유료,0,0,0,0,0,0,37.56897125,126.9992916
219,1452323,사직로1 관광버스 주차허용 구간(시),종로구 내자동 35-0 내자동 54(치과의원) ~ 필운동 227(금고 앞),노상 주차장,버스전용 주차장,02)2133-2357,1,무료,0,0,0,0,0,0,유료,유료,0,0,0,0,0,0,37.56898377,126.9993549
220,1452337,관철동 공영주차장(시),종로구 관철동 13-14,노상 주차장,시간제 주차장,02-738-0909,1,유료,900,2200,900,1400,0,0,무료,유료,0,430,5,430,5,0,37.56883774,126.9986273
221,1452441,청계6(북) 공영주차장(시),종로구 종로6가 289-49,노상 주차장,시간제 주차장,,1,유료,900,100,900,1500,0,0,무료,유료,0,450,5,450,5,0,37.56931358,127.0010931
222,1452713,낙산성곽길 이륜차 주차장(구),종로구 창신동 67-2,노상 주차장,이륜차 전용 주차장,,1,무료,0,0,0,0,0,0,유료,유료,0,0,0,0,0,0,37.5690088,126.999481
223,1452721,청계2(북1) 공영주차장(시),종로구 관수동 91-4,노상 주차장,시간제 주차장,,1,유료,900,1900,900,1500,0,0,무료,유료,0,750,5,750,5,0,37.56905815,126.9997322
224,1452740,창경궁로1 관광버스 주차허용 구간(시),종로구 와룡동 2-86 (창경궁주차장~홍화문),노상 주차장,버스전용 주차장,02)2133-2357,1,무료,0,0,0,0,0,0,유료,유료,0,0,0,0,0,0,37.56881311,126.9985017
225,1452743,사직로2 관광버스 주차허용 구간(시),종로구 내자동 131-0 내자동136(사직이용원) ~ 내자동75-4(가로등),노상 주차장,버스전용 주차장,02)2133-2357,1,무료,0,0,0,0,0,0,유료,유료,0,0,0,0,0,0,37.56902091,126.9995433
226,1453742,당고개위 공영주차장(시),노원구 상계동 111-568,노상 주차장,시간제 주차장,02-1688-1054,1,유료,900,2200,900,2200,900,2200,무료,무료,0,260,5,260,5,0,37.56895905,126.9992288
227,1453816,수락산디자인서울거리(구),노원구 상계동 996-2,노상 주차장,시간제 주차장,,1,유료,900,1900,900,1800,900,1800,무료,무료,100000,150,5,0,0,19800,37.56880167,126.998443
228,1453857,주공7단지옆(구),노원구 상계동 693-5,노상 주차장,시간제 주차장,,1,유료,900,1900,900,1800,900,1800,무료,무료,150000,250,5,0,0,33000,37.56907066,126.9997955
229,1453979,(구)북부지법주변(구),노원구 공릉동 629-1,노상 주차장,시간제 주차장,,1,유료,900,1900,900,1800,900,1800,무료,무료,150000,250,5,0,0,33000,37.5693254,127.0011563
230,1454052,유경백화점뒤(구),노원구 중계동 364-16,노상 주차장,시간제 주차장,,1,유료,900,1900,900,1800,900,1800,무료,무료,150000,250,5,0,0,33000,37.56884923,126.9986998
231,1454055,주공6단지상가주변(구),노원구 상계동 723-2,노상 주차장,시간제 주차장,,1,유료,900,1900,900,1800,900,1800,무료,무료,150000,250,5,0,0,33000,37.56934864,127.001284
232,1454202,청구건영아파트옆(구),노원구 중계동 360-4,노상 주차장,시간제 주차장,,1,유료,900,1900,900,1800,900,1800,무료,무료,150000,250,5,0,0,33000,37.56882563,126.9985651
233,1454316,신한증권옆(구),노원구 중계동 366-12,노상 주차장,시간제 주차장,,1,유료,900,1900,900,1800,900,1800,무료,무료,150000,250,5,0,0,33000,37.56904563,126.9996694
234,1454520,주공5단지옆(구),노원구 중계동 359-16,노상 주차장,시간제 주차장,,1,유료,900,1900,900,1800,900,1800,무료,무료,150000,250,5,0,0,33000,37.56879022,126.9983842
235,1473190,방이습지 노상공영주차장(구),송파구 방이동 452-12,노상 주차장,시간제 주차장,,1,유료,900,1800,900,1800,900,1800,무료,무료,80000,150,5,150,5,0,37.56933702,127.0012203
236,1474014,위례성길(A) 노상공영주차장(구),송파구 방이동 94-3,노상 주차장,시간제 주차장,,1,유료,900,2100,900,2100,900,2100,무료,무료,,250,5,250,5,0,37.56903312,126.9996061
237,147462,부영그린(구),양천구 목동 908-35,노상 주차장,시간제 주차장,,1,유료,800,2100,800,2100,800,2100,무료,무료,0,250,5,250,5,0,37.56959839,127.0150174
238,1475183,공유) 상도2동 170-27(구),동작구 상도동 170-13,노상 주차장,거주자 우선 주차장,,1,유료,0,0,0,0,0,0,무료,무료,0,0,0,0,0,0,37.56959934,127.0150827
239,1475224,성내역(잠실나루역) 공영주차장(시),송파구 신천동 11-1,노상 주차장,시간제 주차장,,1,유료,900,1800,900,1500,0,0,무료,유료,,250,5,250,5,,37.56960075,127.015214
240,1476106,공유) 사당1동 가블럭(구),동작구 사당동 1001-37,노상 주차장,거주자 우선 주차장,,1,유료,0,0,0,0,0,0,무료,무료,0,0,0,0,0,0,37.56959414,127.0147299
241,1477183,공유) 사당3동 다블럭(구),동작구 사당동 169-16 ,노상 주차장,거주자 우선 주차장,,1,유료,0,0,0,0,0,0,무료,무료,0,0,0,0,0,0,37.56960064,127.0151483
242,1477324,동작대교(위) 공영주차장(시),동작구 동작동 316-3,노상 주차장,시간제 주차장,,1,유료,1300,2200,1300,2200,1300,2200,무료,무료,0,260,5,260,5,0,37.56800977,126.990053
243,1486978,신림동제2공영(구),관악구 신림동 1472-1,노상 주차장,시간제 주차장,,1,유료,1000,2000,1000,2000,1000,1900,무료,무료,0,250,5,0,0,0,37.56811815,126.9914372
244,1486992,조원동제2공영(구),관악구 신림동 1675-8,노상 주차장,시간제 주차장,,1,유료,900,1900,900,1600,0,0,무료,유료,0,250,5,0,0,0,37.56810536,126.9913052
245,1486996,낙성대제2공영(구),관악구 봉천동 220-8,노상 주차장,시간제 주차장,,1,유료,900,1900,900,1600,0,0,무료,유료,0,150,5,0,0,0,37.56811175,126.9913712
246,1486998,낙성대제1공영(구),관악구 봉천동 1627-10,노상 주차장,시간제 주차장,,1,유료,900,1900,900,1600,0,0,무료,유료,0,150,5,0,0,0,37.56815654,126.9918334
247,1487237,서원동제1공영(구),관악구 신림동 1642-7,노상 주차장,시간제 주차장,,1,유료,1100,2100,1100,2100,1100,2000,무료,무료,0,250,5,0,0,0,37.56813095,126.9915693
248,1490929,공유) 151-100(구),강남구 삼성동 111-57,노상 주차장,거주자 우선 주차장,,1,유료,0,0,0,0,0,0,무료,무료,0,0,0,0,0,0,37.56815014,126.9917674
249,1495384,도산대로45길(구),강남구 신사동 668-46 도산공원 앞길,노상 주차장,시간제 주차장,02-2176-0566,1,유료,1000,2000,0,0,0,0,유료,유료,150000,400,5,800,5,30000,37.56799997,126.9899237
250,1495387,헌릉로745길(구),강남구 율현동 101-10,노상 주차장,시간제 주차장,,1,유료,900,1900,0,0,0,0,유료,유료,120000,300,5,600,5,24000,37.56800475,126.989988
251,1495425,영동대로106길(구),강남구 삼성동 172-7,노상 주차장,시간제 주차장,,1,유료,900,1900,0,0,0,0,유료,유료,120000,300,5,600,5,24000,37.56814374,126.9917014
252,1495562,압구정로29길(구),강남구 압구정동 453-0,노상 주차장,시간제 주차장,,1,유료,900,1900,0,0,0,0,유료,유료,80000,200,5,400,5,16000,37.56813734,126.9916353
253,1495566,논현로28길(구),강남구 도곡동 524-0,노상 주차장,시간제 주차장,,1,유료,900,1900,0,0,0,0,유료,유료,120000,300,5,600,5,24000,37.56812455,126.9915033
254,1495580,테헤란로64길(구),강남구 대치동 1011-19,노상 주차장,시간제 주차장,,1,유료,900,1900,0,0,0,0,유료,유료,150000,400,5,800,5,30000,37.56816293,126.9918994
255,1495593,선릉로146길(구),강남구 청담동 77-27,노상 주차장,시간제 주차장,,1,유료,1000,2000,0,0,0,0,유료,유료,150000,400,5,800,5,30000,37.56809896,126.9912392
256,1495594,선릉로132길(구),강남구 청담동 77-84,노상 주차장,시간제 주차장,,1,유료,900,1900,0,0,0,0,유료,유료,150000,400,5,800,5,30000,37.56093651,126.9780058
257,1495596,영동대로85길(구),강남구 대치동 1012-15,노상 주차장,시간제 주차장,1544-3113,1,유료,900,1900,0,0,0,0,유료,유료,150000,400,5,,,,37.56067339,126.9770198
258,1495622,남부순환로397길(구),강남구 대치동 600-13,노상 주차장,시간제 주차장,,1,유료,900,1900,0,0,0,0,유료,유료,120000,300,5,600,5,24000,37.56091076,126.9778802
259,1495632,대치동507-3(구),강남구 대치동 507-3,노상 주차장,시간제 주차장,,1,유료,900,1900,0,0,0,0,유료,유료,120000,300,5,600,5,24000,37.56094985,126.9780686
260,1495682,영동대로96길(구),강남구 삼성동 172-41,노상 주차장,시간제 주차장,,1,유료,900,1900,0,0,0,0,유료,유료,120000,300,5,600,5,24000,37.56096448,126.9781343
261,1495907,언주로171길(구),강남구 신사동 668-11,노상 주차장,시간제 주차장,,1,유료,900,1900,0,0,0,0,유료,유료,150000,400,5,800,5,30000,37.56092361,126.9779427
262,1496216,압구정고가1 공영주차장(시),강남구 신사동 668-0,노상 주차장,시간제 주차장,,1,유료,800,2100,900,2100,900,2100,무료,무료,0,500,5,500,5,0,37.56069448,126.9770804
263,1496233,동호대교(남) 공영주차장(시),강남구 압구정동 435-0,노상 주차장,시간제 주차장,,1,유료,900,1900,900,1900,0,0,무료,유료,70000,170,5,170,5,0,37.56089728,126.977817
264,1496373,압구정고가2 공영주차장(시),강남구 신사동 668-0,노상 주차장,시간제 주차장,,1,유료,900,2000,900,2100,900,2100,무료,무료,0,500,5,500,5,0,37.56071536,126.977142
265,1499707,대림역2 공영주차장(시),구로구 구로동 73-9,노상 주차장,시간제 주차장,,1,유료,900,1900,900,1500,0,0,무료,유료,0,260,5,260,5,0,37.55614503,126.9751733
266,1499736,제방도로 공영주차장(시),구로구 구로동 69-5,노상 주차장,시간제 주차장,,1,유료,900,1900,900,1500,0,0,무료,유료,0,120,5,120,5,0,37.55626853,126.9754866
267,1503430,등촌3동 구암길(구),강서구 등촌동 695-0,노상 주차장,시간제 주차장,02-2607-9113,1,유료,900,1900,900,1500,0,0,무료,유료,120000,250,5,250,5,10000,37.55619,126.9752872
268,1503473,화곡6동 방죽길(구),강서구 화곡동 1112-1,노상 주차장,시간제 주차장,02-2607-9113,1,유료,900,1900,900,1500,0,0,무료,유료,0,250,5,250,5,10000,37.55617865,126.9752588
269,1503518,화곡1동 배다리서길(구),강서구 화곡동 914-3,노상 주차장,시간제 주차장,02-2607-9113,1,유료,900,1900,900,1500,0,0,무료,유료,120000,200,5,250,5,10000,37.55616746,126.9752304
270,1503526,화곡4동 배다리동길(구),강서구 화곡동 842-11,노상 주차장,시간제 주차장,02-2607-9113,1,유료,900,1900,900,1500,0,0,무료,유료,120000,200,5,200,5,10000,37.55612247,126.9751163
271,1503530,화곡2동 배다리동길(구),강서구 화곡동 881-14,노상 주차장,시간제 주차장,02-2607-9113,1,유료,900,1900,900,1500,0,0,무료,유료,120000,200,5,200,5,10000,37.55622358,126.9753727
272,1503537,화곡8동 배다리동길(구),강서구 화곡동 890-0,노상 주차장,시간제 주차장,,1,유료,900,1900,900,1500,0,0,무료,유료,120000,200,5,200,5,10000,37.55627989,126.975515
273,1503674,화곡1동 달구지길(구),강서구 화곡동 361-1,노상 주차장,시간제 + 거주자 주차장,02-2607-9113,1,유료,900,1900,900,1500,0,0,무료,무료,120000,250,5,250,5,10000,37.55623494,126.9754011
274,1503922,화곡6동 신학대길(구),강서구 화곡동 980-19,노상 주차장,시간제 주차장,02-2607-9113,1,유료,900,1900,900,1500,0,0,무료,유료,120000,250,5,250,5,10000,37.55615625,126.9752018
275,1504402,방신시장 고객주차장(구),강서구 방화동 858-0,노상 주차장,시간제 주차장,02-2666-4080,1,유료,900,1900,900,1900,0,0,무료,유료,60000,250,5,0,0,0,37.55624614,126.9754296
276,1504483,가양3동 황금내공원길(구),강서구 가양동 1485-0,노상 주차장,시간제 주차장,02-2607-9113,1,유료,900,1900,900,1500,0,0,무료,유료,50000,100,5,100,5,5000,37.55625735,126.9754581
277,1504492,등촌3동 꿈나무길(구),강서구 등촌동 701-0,노상 주차장,시간제 주차장,02-2607-9113,1,유료,900,1900,900,1500,0,0,무료,유료,120000,250,5,250,5,10000,37.55613369,126.9751448
278,1504622,망원 유료 주차장(구),마포구 망원동 394-79,노상 주차장,시간제 주차장,,1,유료,900,1900,0,0,0,0,유료,유료,100000,150,5,150,5,0,37.55620118,126.9753157
279,1504664,용강동 노상 공영주차장(구),마포구 용강동 122-15,노상 주차장,시간제 주차장,,1,유료,1200,2200,1200,1800,0,0,무료,유료,0,250,5,250,5,0,37.55631344,126.9756004
280,1504727,동교동 노상 공영주차장(구),마포구 서교동 332-1,노상 주차장,시간제 주차장,,1,유료,1200,2300,1200,2300,1200,2300,무료,무료,160000,400,5,400,5,0,37.55621241,126.9753442
281,1504809,방화로 공영주차장(시),강서구 공항동 796-0,노상 주차장,시간제 주차장,,1,유료,900,1800,0,0,0,0,유료,유료,0,120,5,120,5,0,37.55630227,126.975572
282,1505123,경남 공영주차장(구),마포구 서교동 376-5,노상 주차장,시간제 주차장,,1,유료,1100,2100,1100,2100,0,0,무료,유료,150000,250,5,250,5,0,37.55629105,126.9755434
283,1506891,연남 유료 주차장(구),마포구 연남동 258-3,노상 주차장,시간제 주차장,,1,유료,1000,2100,1000,2100,0,0,무료,유료,150000,250,5,250,5,0,37.56312811,126.9807402
284,1508165,합정 노상 공영주차장(구),마포구 서교동 394-22,노상 주차장,시간제 주차장,,1,유료,1200,2300,1200,2300,1200,2300,무료,무료,0,400,5,400,5,0,37.56332401,126.9808137
285,1508823,청기와 유료 주차장(구),마포구 서교동 479-4,노상 주차장,시간제 주차장,,1,유료,1100,2100,0,0,0,0,유료,유료,120000,250,5,250,5,0,37.56337305,126.9808322
286,1509280,청계3(창경궁로_남) 공영주차장(시),중구 주교동 123-1 0,노상 주차장,시간제 주차장,,1,유료,900,1900,900,1500,0,0,무료,유료,0,750,5,750,5,0,37.56307815,126.9807215
287,1509377,세운대림상가(서측)(구),중구 산림동 207-1,노상 주차장,시간제 주차장,02-2280-8360,1,유료,900,1900,900,1500,0,0,무료,유료,250000,500,5,500,5,0,37.563226,126.980777
288,1509409,동대문비즈센터앞 이륜차 주차장(구),중구 신당동 200-5 0,노상 주차장,이륜차 전용 주차장,02)3396-6262,1,무료,0,0,0,0,0,0,유료,유료,0,0,0,0,0,0,37.56302785,126.9807026
289,1509662,청계5(동호로_남) 공영주차장(시),중구 방산동 4-47 0,노상 주차장,시간제 주차장,,1,유료,900,1900,900,1500,0,0,무료,유료,0,750,5,750,5,0,37.56317731,126.9807587
290,1509757,이화여고 앞(구),중구 순화동 1-139,노상 주차장,시간제 주차장,02-2280-8360,1,유료,900,2000,900,1600,0,0,무료,유료,180000,250,5,250,5,0,37.56327493,126.9807953
291,1509797,공유) 삼풍상가3구간(14~17)(구),중구 을지로4가 310-68 0,노상 주차장,시간제 + 거주자 주차장,02-3396-6264,1,유료,900,1900,900,1500,0,0,무료,무료,0,1500,30,500,10,0,37.5629782,126.9806839
292,1509870,중앙의료원옆 이륜차 주차장(구),중구 을지로6가 18-79 0,노상 주차장,이륜차 전용 주차장,02)3396-6262,1,무료,0,0,0,0,0,0,유료,유료,0,0,0,0,0,0,37.57252061,127.0242568
293,1509934,세운대림상가(동측)(구),중구 산림동 207-2,노상 주차장,시간제 주차장,02-2280-8360,1,유료,900,1900,900,1500,0,0,무료,유료,250000,500,5,500,5,0,37.54032781,127.1230483
294,1509989,성산로 관광버스 주차허용 구간(시),마포구 성산동 117-1,노상 주차장,버스전용 주차장,02)2133-2357,1,무료,0,0,0,0,0,0,유료,유료,0,0,0,0,0,0,37.5391245,127.0913897
295,1510016,청계5(남) 공영주차장(시),중구 을지로6가 17-442 0,노상 주차장,시간제 주차장,,1,유료,900,1900,900,1500,0,0,무료,유료,0,750,5,750,5,0,37.54770648,127.0732696
296,1510050,당인 유료 주차장(구),마포구 합정동 362-1,노상 주차장,시간제 주차장,,1,유료,1100,2100,0,0,0,0,유료,유료,120000,300,5,300,5,0,37.55289,127.1377215
297,1510063,청계5가 공영주차장(시),중구 을지로6가 17-442 0,노상 주차장,시간제 주차장,02-2279-2193,1,유료,900,1900,900,1500,0,0,무료,유료,0,750,5,750,5,0,37.545733,126.9112039
298,1510112,남평화시장(구),중구 신당동 779-0,노상 주차장,시간제 주차장,02-2280-8360,1,유료,0,2359,0,2359,0,2359,무료,무료,250000,500,5,500,5,0,37.55558459,126.9058731
299,1510159,맑은내길 노상공영주차장(구),중구 신당동 213-0 0,노상 주차장,시간제 주차장,02)2280-8367,1,유료,0,2400,0,2400,0,2400,무료,무료,250000,500,5,500,5,0,37.58908686,127.0697738
300,1510243,훈련원공원 옆(구),중구 을지로6가 18-200,노상 주차장,시간제 주차장,02-2280-8360,1,유료,1000,2000,1000,1600,0,0,무료,유료,180000,350,5,350,5,0,37.5623712,127.0687626
301,1510248,구민회관앞 이륜차 주차장(구),중구 을지로6가 18-14 0,노상 주차장,이륜차 전용 주차장,02)3396-6262,1,무료,0,0,0,0,0,0,유료,유료,0,0,0,0,0,0,37.57223438,127.0342946
302,1510350,청계6(신평화시장앞) 공영주차장(시),중구 신당동 217-91 0,노상 주차장,시간제 주차장,,1,유료,900,1900,900,1500,0,0,무료,유료,0,450,5,450,5,0,37.517985,126.902785
303,1510496,청계6(동평화) 공영주차장(시),중구 신당동 217-91 0,노상 주차장,시간제 주차장,02-2235-5881,1,유료,900,100,900,1500,0,0,무료,유료,0,450,5,450,5,0,37.5102769,126.9186371
304,1510632,청계5(방산동) 공영주차장(시),중구 방산동 52-1,노상 주차장,시간제 주차장,,1,유료,900,100,900,1500,0,0,무료,유료,0,750,5,750,5,0,37.54294115,126.9684714
305,1510714,공유) 삼풍상가4구간(18~21)(구),중구 을지로4가 310-68 0,노상 주차장,시간제 + 거주자 주차장,02-3396-6264,1,유료,900,1900,900,1500,0,0,무료,무료,0,1500,30,500,10,0,37.54549939,126.9699177
306,1510726,코오롱빌딩 옆(구),중구 태평로1가 31-0,노상 주차장,시간제 주차장,02-2280-8360,1,유료,900,2100,900,1800,0,0,무료,유료,250000,600,5,600,5,0,37.53388844,126.9600572
307,1510745,공유) 삼풍상가4구간 4-22면(장애인전용)(구),중구 을지로4가 310-68 0,노상 주차장,시간제 + 거주자 주차장,02-3396-6264,1,유료,900,2000,900,1600,0,0,무료,무료,0,1500,30,500,10,0,37.55048874,126.9764859
308,1510781,조선호텔 앞(구),중구 소공동 87-3 0,노상 주차장,시간제 주차장,02-2280-8360,1,유료,900,2100,900,1800,0,0,무료,유료,250000,600,5,600,5,0,37.52432737,126.8954889
309,1510827,다동쉼터(구),중구 다동 50-1,노상 주차장,시간제 주차장,02-2280-8360,1,유료,800,2000,800,1700,0,0,무료,유료,250000,500,5,500,5,0,37.51427683,127.1034141
310,1511025,한국관광공사 옆(구),중구 다동 85-4,노상 주차장,시간제 주차장,02-2280-8360,1,유료,900,2100,900,1600,0,0,무료,유료,250000,600,5,600,5,0,37.5782752,127.070619
311,1511112,청소년회관 뒤 노상 공영주차장(구),중구 수표동 50-1 0,노상 주차장,시간제 주차장,,1,유료,800,2200,900,2200,0,0,무료,유료,250000,500,5,500,5,0,37.54438297,126.9843042
312,1511148,청계2(충무로) 공영주차장(시),중구 정동 181-0 0,노상 주차장,시간제 주차장,02-2272-0672,1,유료,900,1900,900,1500,0,0,무료,유료,0,750,5,750,5,0,37.52625065,126.8994538
313,1511244,공유) 삼풍상가3구간 3-01면(장애인전용)(구),중구 을지로4가 310-68 0,노상 주차장,시간제 + 거주자 주차장,02-3396-6264,1,유료,900,1900,900,1500,0,0,무료,무료,0,1500,30,500,10,0,37.55361065,127.1559121
314,1511245,공유) 삼풍상가4구간(23~26)(구),중구 을지로4가 310-68,노상 주차장,시간제 + 거주자 주차장,02-3396-6264,1,유료,900,1900,900,1500,0,0,무료,무료,0,1500,30,500,10,0,37.49250002,127.0388068
315,1511346,남대문시장3번게이트 이륜차 주차장(시),중구 남대문로3가 13-3 0,노상 주차장,이륜차 전용 주차장,02)3396-6262,1,무료,0,0,0,0,0,0,유료,유료,0,0,0,0,0,0,37.49403327,127.087416
316,1511365,서울스퀘어빌딩앞 이륜차 전용주차장(시),중구 남대문로5가 541-0 0,노상 주차장,이륜차 전용 주차장,02)3396-6262,1,무료,0,0,0,0,0,0,유료,유료,0,0,0,0,0,0,37.49192117,127.0812916
317,1511395,남대문시장2번게이트앞 이륜차 주차장(시),중구 남대문로4가 3-6 0,노상 주차장,이륜차 전용 주차장,02)3396-6262,1,무료,0,0,0,0,0,0,유료,유료,0,0,0,0,0,0,37.58693739,127.0620858
318,1511457,공유) 진양상가2구간(18~22)(구),중구 인현동2가 192-30 0,노상 주차장,시간제 + 거주자 주차장,02-3396-6264,1,유료,900,1900,900,1500,0,0,무료,무료,0,1500,30,500,10,0,37.48713079,126.8808015
319,1511592,남산케이블카 공영주차장(시),중구 회현동1가 1-19,노상 주차장,시간제 주차장,,1,유료,900,2100,900,2100,900,2100,무료,무료,0,330,5,330,5,0,37.50455714,126.8460846
320,1511606,공유) 삼풍상가3구간(02~12)(구),중구 을지로4가 310-68 0,노상 주차장,시간제 + 거주자 주차장,02-3396-6264,1,유료,900,1900,900,1500,0,0,무료,무료,0,1500,30,500,10,0,37.50001376,126.8510351
321,1511639,국제화재빌딩 옆(구),중구 남대문로5가 145-0,노상 주차장,시간제 주차장,02-2280-8360,1,유료,900,2000,900,1600,0,0,무료,유료,250000,500,5,500,5,0,37.47037133,127.0385513
322,1511816,마른내길 공영주차장(시),중구 인현동1가 87-10,노상 주차장,시간제 주차장,02-2274-2009,1,유료,900,1900,900,1500,0,0,무료,유료,0,680,5,680,5,0,37.549976,127.0680728
323,1511971,남산파출소 공영주차장(시),중구 회현동1가 1-16,노상 주차장,시간제 주차장,,1,유료,900,1900,900,1500,0,0,무료,유료,,330,5,330,5,,37.518577,126.983287
324,1512008,남대문피혁상가 남측(구),중구 봉래동1가 83-0,노상 주차장,시간제 주차장,02-2280-8360,1,유료,900,2000,900,1600,0,0,무료,유료,250000,500,5,500,5,,37.55955925,126.9066011
325,1512034,공유) 진양상가2구간(14~16)(구),중구 인현동2가 192-30 0,노상 주차장,시간제 + 거주자 주차장,02-3396-6264,1,유료,900,1900,900,1500,0,0,무료,무료,0,1500,30,500,10,0,37.57798421,126.7982122
326,1512041,공유) 진양상가1구간(03~05)(구),중구 충무로4가 120-3,노상 주차장,시간제 + 거주자 주차장,02-3396-6264,1,유료,900,1900,900,1500,0,0,무료,무료,0,1500,30,500,10,0,37.48830327,126.9145228
327,1512095,남산공원 소파로 관광버스전용 주차장(시),중구 남창동 205-107,노상 주차장,버스전용 주차장,02-2290-6449,1,무료,0,0,0,0,0,0,유료,유료,0,0,0,0,0,0,37.48481135,126.9032339
328,1512125,청계8가 공영주차장(시),중구 흥인동 162-1 0,노상 주차장,시간제 주차장,,1,유료,900,1900,900,1500,0,0,무료,유료,0,500,5,500,5,0,37.49705092,127.0723954
329,1512129,청계3(동호로) 공영주차장(시),중구 방산동 4-47 0,노상 주차장,시간제 주차장,,1,유료,900,1900,900,1500,0,0,무료,유료,0,750,5,750,5,0,37.48285728,127.079372
330,1512147,뉴국제호텔 앞(구),중구 무교동 18-0,노상 주차장,시간제 주차장,02-2280-8360,1,유료,900,2100,900,1800,0,0,무료,유료,250000,600,5,600,5,0,37.65237042,127.0456768
331,1512161,소파로케이블카앞 관광버스전용 주차장(시),중구 회현동1가 1-15,노상 주차장,버스전용 주차장,02-2290-6449,1,무료,0,0,0,0,0,0,유료,유료,0,0,0,0,0,0,37.62472117,127.0153864
332,1512201,중앙우체국옆 이륜차 주차장(구),중구 충무로1가 15-0 0,노상 주차장,이륜차 전용 주차장,02)3396-6262,1,무료,0,0,0,0,0,0,유료,유료,0,0,0,0,0,0,37.62796164,127.0169995
333,1512225,진양상가노상공영주차장(구),중구 인현동2가 181-0 0,노상 주차장,시간제 주차장,02)2280-8367,1,유료,900,1900,900,500,0,0,무료,유료,250000,500,5,500,5,0,37.61458475,127.0251644
334,1512340,중곡복개천 공영주차장(B)(구),광진구 중곡동 277-20,노상 주차장,시간제 주차장,02-2049-4535,1,유료,900,1800,900,1500,0,0,무료,유료,100000,200,5,200,5,0,37.63061186,127.0174307
335,1512341,중곡복개천 공영주차장(구),광진구 중곡동 150-196,노상 주차장,시간제 주차장,02-2049-4535,1,유료,900,1800,900,1500,0,0,무료,유료,100000,200,5,200,5,0,37.62683533,127.0367553
336,1513624,신성시장길노상공영주차장(구),광진구 구의동 558-11,노상 주차장,시간제 주차장,,1,유료,900,1800,900,1500,0,0,무료,유료,100000,250,5,250,5,0,37.6285679,127.0223596
337,1513907,신성시장길공영노상주차장(구),광진구 중곡동 83-16,노상 주차장,시간제 주차장,02-456-2591,1,유료,900,1800,900,1500,0,0,무료,유료,100000,250,5,250,5,0,37.63207449,127.0236192
338,1515928,송림 기사식당길 공영주차장(구),광진구 자양동 794-0,노상 주차장,시간제 주차장,02-2049-4540,1,유료,900,1800,900,1500,0,0,무료,유료,90000,200,5,200,5,0,37.49190539,126.9330035
339,1521355,천호2동제2(구),강동구 천호동 431-2,노상 주차장,시간제 주차장,,1,유료,900,2000,900,2000,900,2000,무료,무료,0,250,5,0,0,0,37.615292,127.062997
340,1521439,공유) 주양쇼핑옆 주차장(구),강동구 명일동 47-21,노상 주차장,시간제 + 거주자 주차장,,1,유료,900,1900,900,1500,0,0,무료,무료,100000,250,5,250,5,0,37.49510602,126.8918616
341,1521821,공유) 주양쇼핑앞 주차장(구),강동구 명일동 48-26 ,노상 주차장,거주자 우선 주차장,,1,유료,0,0,0,0,0,0,무료,무료,0,0,0,0,0,0,37.53067739,126.8778804
342,1521848,공유) 15-가600구간(구),강동구 성내동 583-0,노상 주차장,거주자 우선 주차장,,1,유료,0,0,0,0,0,0,무료,무료,0,0,0,0,0,0,37.57449014,126.9741859
343,1522168,주양쇼핑앞(구),강동구 명일동 51-1,노상 주차장,시간제 + 거주자 주차장,,1,유료,900,1900,900,1500,0,0,무료,무료,100000,250,5,250,5,0,37.50439316,126.9210709
344,1522176,주양쇼핑옆(구),강동구 명일동 47-21,노상 주차장,시간제 + 거주자 주차장,,1,유료,900,1900,900,1500,0,0,무료,무료,100000,250,5,250,5,0,37.50439712,126.9211629
345,1524246,덕성엔앰피(구),금천구 가산동 345-15,노상 주차장,시간제 주차장,,1,유료,830,1900,0,0,0,0,유료,유료,130000,250,5,0,0,15000,37.50439719,126.9208893
346,1524605,두산공원A~B(구),금천구 독산동 298-1,노상 주차장,시간제 주차장,,1,유료,800,1900,0,0,0,0,유료,유료,100000,500,10,500,10,15000,37.50439532,126.920973
347,1524706,웅진코웨이~sk트윈타워(구),금천구 가산동 345-2,노상 주차장,시간제 주차장,,1,유료,800,1900,0,0,0,0,유료,유료,100000,500,10,500,10,15000,37.50428502,126.9208598
348,1525109,BYC(구),금천구 가산동 371-57,노상 주차장,시간제 주차장,,1,유료,800,1900,0,0,0,0,유료,유료,100000,500,10,500,10,15000,37.50428868,126.9209787
349,1525548,아톰(구),금천구 가산동 345-48,노상 주차장,시간제 주차장,,1,유료,800,1900,0,0,0,0,유료,유료,100000,500,10,500,10,15000,37.50439471,126.921133
350,1525568,요업기술원-LG전자뒤(구),금천구 가산동 237-101,노상 주차장,시간제 주차장,,1,유료,830,1900,0,0,0,0,유료,유료,130000,250,5,0,0,15000,37.50428693,126.9210356
351,1525590,가산중앞(구),금천구 독산동 300-26,노상 주차장,시간제 주차장,,1,유료,830,1900,0,0,0,0,유료,유료,130000,250,5,0,0,15000,37.50439469,126.9211031
352,1525595,삼환아파트(구),금천구 독산동 1004-6,노상 주차장,시간제 주차장,,1,유료,830,1900,0,0,0,0,유료,유료,130000,250,5,0,0,15000,37.50428687,126.9209473
353,1525609,신천지(구),금천구 독산동 152-1,노상 주차장,시간제 주차장,,1,유료,830,1900,0,0,0,0,유료,유료,130000,250,5,0,0,15000,37.50439597,126.9209439
354,1525618,가산중뒤(구),금천구 독산동 300-21,노상 주차장,시간제 주차장,,1,유료,830,1900,0,0,0,0,유료,유료,130000,250,5,0,0,15000,37.50439595,126.9211929
355,1525654,기륭전자(구),금천구 가산동 219-7,노상 주차장,시간제 주차장,,1,유료,830,1900,0,0,0,0,유료,유료,130000,250,5,0,0,15000,37.50439659,126.920916
356,1526023,범일운수~신세계물류센터(구),금천구 독산동 1001-2,노상 주차장,시간제 주차장,,1,유료,800,1900,0,0,0,0,유료,유료,100000,500,10,500,10,15000,37.50428864,126.9209204
357,1526584,만승뒤(협동봉제조합)(구),금천구 가산동 139-31,노상 주차장,시간제 주차장,,1,유료,830,1900,1000,1800,1000,1900,무료,무료,130000,250,5,0,0,15000,37.50428577,126.9210058
358,1526725,가산디지털환승(구),금천구 가산동 35-2,노상 주차장,시간제 주차장,,1,유료,830,1900,0,0,0,0,유료,유료,65000,150,5,0,0,10000,37.50428735,126.9210958
359,1526726,우리은행(구),금천구 가산동 140-41,노상 주차장,시간제 주차장,,1,유료,830,1900,1000,1800,1000,1900,무료,무료,130000,250,5,0,0,15000,37.50428683,126.9208905
360,1526731,세일철강~LG전자연구소(구),금천구 가산동 319-15,노상 주차장,시간제 주차장,,1,유료,800,1900,0,0,0,0,유료,유료,100000,500,10,500,10,15000,37.5042862,126.9208336
361,1526743,LG텔레콤(구),금천구 가산동 60-36,노상 주차장,시간제 주차장,,1,유료,830,1900,1000,1800,1000,1900,무료,무료,130000,250,5,0,0,15000,37.50439458,126.9210064
362,1526747,SJ테크노빌(구),금천구 가산동 60-19,노상 주차장,시간제 주차장,,1,유료,830,1900,1000,1800,1000,1900,무료,무료,130000,250,5,0,0,15000,37.50428695,126.9210663
363,1526836,국도화학(구),금천구 가산동 345-26,노상 주차장,시간제 주차장,,1,유료,800,1900,0,0,0,0,유료,유료,100000,500,10,500,10,15000,37.46583997,126.8869005
364,1527514,공유) 가산동 01-51구역(구),금천구 가산동 4-2 ,노상 주차장,거주자 우선 주차장,,1,유료,0,0,0,0,0,0,무료,무료,0,0,0,0,0,0,37.46600415,126.887183
365,1527979,사조냉장-무등실업(구),금천구 독산동 303-2,노상 주차장,시간제 주차장,,1,유료,830,1900,0,0,0,0,유료,유료,130000,250,5,0,0,15000,37.46573721,126.8870323
366,1527992,서부간선도로(구),금천구 가산동 557-4,노상 주차장,시간제 주차장,,1,유료,830,1900,0,0,0,0,유료,유료,130000,250,5,0,0,15000,37.46593739,126.8872329
367,1529442,방배복개도로 제1지역 노상공영주차장(구),서초구 방배동 443-1,노상 주차장,시간제 주차장,02-2155-7284,1,유료,1000,2300,1000,2300,0,0,무료,유료,0,500,10,500,10,0,37.46585945,126.886967
368,1530250,방배복개도로 제2지역 노상공영주차장(구),서초구 방배동 493-5,노상 주차장,시간제 주차장,02-2155-7284,1,유료,1000,2300,1000,2300,0,0,무료,유료,0,250,5,500,10,0,37.46592765,126.8871996
369,1530271,방배중앙로 노상공영주차장(구),서초구 방배동 760-3,노상 주차장,시간제 주차장,,1,유료,1000,2000,1000,2000,0,0,무료,유료,0,250,5,500,10,0,37.46575522,126.8871008
370,1532391,공유) 3-66(구),서초구 서초동 1741-3,노상 주차장,거주자 우선 주차장,,1,유료,0,0,0,0,0,0,무료,무료,0,0,0,0,0,0,37.46599748,126.8874326
371,1535044,마장동거주자우선주차장(구),성동구 마장동 812-0,노상 주차장,시간제 주차장,,1,유료,900,1800,900,1500,0,0,무료,유료,80000,250,5,250,5,10000,37.46584971,126.8869337
372,1535047,뚝도시장(구),성동구 성수동2가 335-60,노상 주차장,시간제 주차장,02-461-0484,1,유료,900,1900,900,1500,0,0,무료,유료,80000,250,5,500,10,10000,37.46602138,126.8875116
373,1536454,거주자우선주차장(구),성동구 마장동 494-0,노상 주차장,시간제 주차장,,1,유료,900,1900,900,1900,0,0,무료,유료,80000,250,5,250,5,10000,37.46582048,126.886834
374,1536637,마장축산물시장 남문(구),성동구 마장동 805-0,노상 주차장,시간제 주차장,,1,유료,900,1900,900,1500,0,0,무료,유료,80000,250,5,250,5,10000,37.46598829,126.8871259
375,1536727,마장축산물시장 현대아파트 앞 노상공영주차(구),성동구 마장동 804-0,노상 주차장,시간제 주차장,02-2292-7801,1,유료,900,1900,900,1500,0,0,무료,유료,80000,250,5,250,5,10000,37.46590816,126.8871332
376,1538410,신월1동저지복개1구역(구),양천구 신월동 228-1,노상 주차장,시간제 주차장,02-2698-1386,1,유료,900,1900,900,1300,0,0,무료,유료,70000,150,5,300,10,9000,37.46583023,126.8868673
377,1538694,성수역 3번출구 앞(구),성동구 성수동2가 276-5,노상 주차장,시간제 주차장,02-2204-7970,1,유료,900,1800,900,1500,0,0,무료,유료,80000,250,5,250,5,10000,37.46575072,126.8870837
378,1538796,장한평자동차시장 노상공영주차장(구),성동구 용답동 225-13,노상 주차장,시간제 주차장,,1,유료,900,1900,900,1500,0,0,무료,유료,80000,250,5,250,5,10000,37.46591791,126.8871664
379,1538943,KT성수분국 앞(구),성동구 성수동2가 277-43,노상 주차장,시간제 주차장,,1,유료,900,1800,900,1500,0,0,무료,유료,80000,250,5,250,5,10000,37.46574171,126.8870494
380,1538950,"신정1,3동 복개(구)",양천구 신정동 1031-0,노상 주차장,시간제 주차장,02-2645-1158,1,유료,900,1900,900,1300,0,0,무료,유료,70000,150,5,300,10,9000,37.46602,126.88724
381,1538954,파리공원(구),양천구 목동 906-1,노상 주차장,시간제 주차장,,1,유료,900,1900,900,1500,0,0,무료,유료,0,150,5,150,5,0,37.46600943,126.8874721
382,1538961,신정4동길(구),양천구 신정동 902-0,노상 주차장,시간제 주차장,02-2695-8597,1,유료,900,1900,900,1300,0,0,무료,유료,130000,150,5,300,10,9000,37.46600346,126.8874524
383,1540609,신월1동저지복개2구역(구),양천구 신월동 90-1,노상 주차장,시간제 주차장,02-2698-1386,1,유료,900,1900,900,1300,0,0,무료,유료,70000,150,5,300,10,9000,37.4659915,126.8874128
384,1540689,청계8가(남) 공영주차장(시),성동구 상왕십리동 12-47,노상 주차장,시간제 주차장,02-2274-2009,1,유료,900,1900,900,1500,0,0,무료,유료,0,450,5,450,5,0,37.46597955,126.8873733
385,1540707,현대41타워앞(구),양천구 목동 917-2,노상 주차장,시간제 주차장,,1,유료,900,1900,900,1900,900,1900,무료,무료,70000,150,5,300,10,0,37.46595658,126.8870119
386,1540759,양천경찰서(구),양천구 신정동 322-3,노상 주차장,시간제 주차장,,1,유료,900,1900,900,1500,0,0,무료,유료,40000,150,5,150,5,0,37.46587894,126.8870334
387,1540766,신월5동복개주차장(구),양천구 신월동 53-2,노상 주차장,시간제 주차장,,1,유료,900,1900,900,1300,0,0,무료,유료,70000,150,5,300,10,0,37.46598553,126.8873931
388,1540769,한전뒷길(구),양천구 신정동 319-25,노상 주차장,시간제 주차장,,1,유료,900,1900,900,1300,0,0,무료,유료,70000,150,5,150,5,0,37.46574622,126.8870666
389,1540785,양천공원옆(구),양천구 신정동 320-3,노상 주차장,시간제 주차장,,1,유료,900,1900,900,1300,0,0,무료,유료,70000,150,5,150,5,0,37.4659676,126.8873338
390,1540806,양천구청(구),양천구 신정동 321-3,노상 주차장,시간제 주차장,,1,유료,900,1900,900,1500,0,0,무료,유료,40000,150,5,150,5,0,37.46597244,126.8870689
391,1540868,법안정사(구),양천구 목동 907-1,노상 주차장,시간제 주차장,,1,유료,900,2100,900,1500,0,0,무료,유료,0,250,5,250,5,0,37.46584182,126.8866006
392,1542826,세우빌딩앞 노상주차장(구),영등포구 여의도동 10-0,노상 주차장,시간제 주차장,02-2650-1436,1,유료,900,1900,900,1500,0,0,무료,유료,200000,500,5,1000,10,36000,37.46581074,126.8868008
393,1542854,KBS별관뒤 노상주차장(구),영등포구 여의도동 4-5,노상 주차장,시간제 주차장,02-2650-1436,1,유료,900,1900,900,1500,0,0,무료,유료,200000,500,5,500,5,36000,37.46594073,126.8869549
394,1542893,미래에셋빌딩 앞 노상주차장(구),영등포구 여의도동 45-0,노상 주차장,시간제 주차장,02-2650-1436,1,유료,900,1900,900,1500,0,0,무료,유료,200000,500,5,1000,10,20000,37.46601541,126.8874919
395,1542963,도림고가 노상주차장(구),영등포구 문래동1가 39-1,노상 주차장,시간제 + 거주자 주차장,02-2650-1436,1,유료,900,1900,900,1500,0,0,무료,무료,50000,100,5,200,10,,37.46597358,126.8873535
396,1543091,교보생명옆 노상주차장(구),영등포구 당산동2가 21-26,노상 주차장,시간제 + 거주자 주차장,02-2650-1436,1,유료,900,1900,900,1500,0,0,무료,무료,100000,250,5,300,10,15000,37.46589842,126.8870999
397,1543175,교보생명 앞 노상주차장(구),영등포구 양평동1가 71-0,노상 주차장,시간제 + 거주자 주차장,02-2650-1436,1,유료,900,1900,900,1500,0,0,무료,무료,100000,250,5,500,10,15000,37.465801,126.8867676
398,1543176,문래동주민센터 앞 노상주차장(구),영등포구 문래동3가 55-16,노상 주차장,시간제 + 거주자 주차장,02-2650-1436,1,유료,900,1900,900,1500,0,0,무료,무료,100000,500,10,500,10,15000,37.46602736,126.8875314
399,1543204,동문굿모닝탑 옆(구),양천구 신정동 324-3,노상 주차장,시간제 주차장,,1,유료,900,1900,900,1500,0,0,무료,유료,40000,150,5,150,5,0,37.46582628,126.8865422
400,1543279,산업은행앞 노상주차장(구),영등포구 여의도동 16-0,노상 주차장,시간제 주차장,02-2650-1436,1,유료,900,1900,900,1500,0,0,무료,유료,200000,500,5,500,5,36000,37.4658692,126.8870002
401,1543292,MBC방송국뒤 노상주차장(구),영등포구 여의도동 3-1,노상 주차장,시간제 주차장,02-2650-1436,1,유료,900,1900,900,1500,0,0,무료,유료,200000,500,5,1000,10,36000,37.46588868,126.8870667
402,1543307,KBS본관 앞 노상주차장(구),영등포구 여의도동 1-7,노상 주차장,시간제 주차장,02-2650-1436,1,유료,900,1900,900,1500,0,0,무료,유료,200000,500,5,1000,10,36000,37.53244226,126.9007296
403,1543324,국민일보사옥앞 노상주차장(구),영등포구 여의도동 12-0,노상 주차장,시간제 주차장,02-2650-1436,1,유료,900,1900,900,1500,0,0,무료,유료,200000,500,5,1000,10,36000,37.53232003,126.9006281
404,1543332,성애병원 앞 노상주차장(구),영등포구 신길동 451-2,노상 주차장,시간제 주차장,02-2650-1436,1,유료,900,1900,900,1500,0,0,무료,유료,100000,250,5,500,10,0,37.53216832,126.900505
405,1543335,한국거래소앞 노상주차장(구),영등포구 여의도동 3-3,노상 주차장,시간제 주차장,02-2650-1436,1,유료,900,1900,900,1500,0,0,무료,유료,200000,500,5,1000,10,36000,37.53235797,126.9006576
406,1544852,당산고가 밑 이륜차 전용주차장(구),영등포구 당산동5가 1-2,노상 주차장,이륜차 전용 주차장,,1,무료,0,0,0,0,0,0,유료,유료,0,0,0,0,0,0,37.53225113,126.9005708
407,1545107,여의도공원앞3 노상주차장(구),영등포구 여의도동 2-11,노상 주차장,시간제 주차장,02-2650-1436,1,유료,900,1900,900,1500,0,0,무료,유료,200000,500,5,1000,10,36000,37.53253601,126.900798
408,1545129,삼환아파트 앞 노상주차장(구),영등포구 문래동4가 41-0,노상 주차장,시간제 + 거주자 주차장,02-2650-1436,1,유료,900,1900,900,1500,0,0,무료,무료,100000,250,5,500,10,15000,37.532517,126.9007852
409,1545136,영등포역 이륜차 주차장(구),영등포구 영등포동3가 618-496,노상 주차장,이륜차 전용 주차장,,1,무료,0,0,0,0,0,0,유료,유료,0,0,0,0,0,0,37.53258231,126.9008395
410,1545155,진주아파트 옆 노상주차장(구),영등포구 여의도동 54-4,노상 주차장,시간제 주차장,02-2650-1436,1,유료,900,1900,900,1500,0,0,무료,유료,200000,500,5,1000,10,36000,37.5322108,126.9005383
411,1545190,대신시장 노상주차장(구),영등포구 신길동 116-15,노상 주차장,시간제 + 거주자 주차장,02-2650-1436,1,유료,900,1900,900,1500,0,0,무료,무료,50000,100,5,200,10,6000,37.53239477,126.9006866
412,1545228,호성빌딩 앞 노상주차장(구),영등포구 여의도동 4-4,노상 주차장,시간제 주차장,02-2650-1436,1,유료,900,1900,900,1500,0,0,무료,유료,200000,500,5,1000,10,36000,37.53248026,126.9007572
413,1545231,중소기업중앙회 앞 노상주차장(구),영등포구 여의도동 1-5,노상 주차장,시간제 주차장,02-2650-1436,1,유료,900,1900,900,1500,0,0,무료,유료,200000,500,5,1000,10,36000,37.53260008,126.9008543
414,1545252,문래1동 공영주차장(시),영등포구 문래동3가 54-12,노상 주차장,시간제 주차장,,1,유료,900,1900,900,1500,0,0,무료,유료,,130,5,130,5,,37.53261905,126.9008675
415,1545259,영등포로터리 공영주차장(시),영등포구 영등포동1가 111-1,노상 주차장,시간제 주차장,,1,유료,900,1900,900,1500,0,0,무료,유료,,130,5,130,5,,37.53223098,126.9005545
416,1545353,여의도백화점 앞 노상주차장(구),영등포구 여의도동 3-5,노상 주차장,시간제 주차장,02-2650-1436,1,유료,900,1900,900,1500,0,0,무료,유료,200000,500,5,1000,10,36000,37.53249922,126.9007705
417,1545366,경호빌딩앞 노상주차장(구),영등포구 여의도동 25-0,노상 주차장,시간제 주차장,02-2650 -1436,1,유료,900,1900,900,1500,0,0,무료,유료,200000,500,5,1000,10,36000,37.53226891,126.9005856
418,1545405,가든예식장 앞 노상주차장(구),영등포구 여의도동 45-1,노상 주차장,시간제 주차장,02-2650-1436,1,유료,900,1900,900,1500,0,0,무료,유료,200000,1000,10,1000,10,20000,37.53230224,126.9006148
419,1545407,KBS연구관앞 노상주차장(구),영등포구 여의도동 1-876,노상 주차장,시간제 주차장,02-2650-1436,1,유료,900,1900,900,1500,0,0,무료,유료,200000,500,5,1000,10,36000,37.53256573,126.9008262
420,1545408,KBS별관옆 노상주차장(구),영등포구 여의도동 4-4,노상 주차장,시간제 주차장,02-2650-1436,1,유료,900,1900,900,1500,0,0,무료,유료,200000,500,5,1000,10,36000,37.53246127,126.9007439
421,1545410,국민은행앞 노상주차장(구),영등포구 여의도동 15-22,노상 주차장,시간제 주차장,02-2650-1436,1,유료,900,1900,900,1500,0,0,무료,유료,200000,500,5,1000,10,36000,37.53241255,126.9007014
422,1545416,중마루공원앞 노상주차장(구),영등포구 영등포동2가 222-0,노상 주차장,시간제 주차장,02-2650-1436,1,유료,900,1900,900,1500,0,0,무료,유료,100000,250,5,500,10,0,37.532339,126.9006428
423,1545468,양남사거리 앞 노상주차장(구),영등포구 당산동2가 30-0,노상 주차장,시간제 + 거주자 주차장,02-2650-1436,1,유료,900,1900,900,1500,0,0,무료,무료,100000,250,5,250,5,15000,37.5321894,126.900521
424,1545494,영등포중앙시장 노상주차장(구),영등포구 영등포동7가 5-1,노상 주차장,시간제 + 거주자 주차장,02-2634-1308,1,유료,900,1900,900,1500,0,0,무료,무료,50000,100,5,200,10,6000,37.53237698,126.9006719
425,1545502,한진해운 앞 노상주차장(구),영등포구 여의도동 2-3,노상 주차장,시간제 주차장,02-2650 -1436,1,유료,900,1900,900,1500,0,0,무료,유료,200000,500,5,1000,10,36000,37.56687934,127.0010084
426,1545508,화재보험협회 앞 노상주차장(구),영등포구 여의도동 3-5,노상 주차장,시간제 주차장,02-2650-1436,1,유료,900,1900,900,1500,0,0,무료,유료,200000,500,5,1000,10,36000,37.56639477,126.9944518
427,1545832,벽산디지털밸리앞 노상주차장(구),영등포구 문래동5가 5-0,노상 주차장,시간제 + 거주자 주차장,02-2650-1436,1,유료,900,1900,900,1500,0,0,무료,무료,100000,500,5,500,10,15000,37.56702745,126.9978968
428,1545852,한강쇼핑(구),용산구 이촌동 301-5,노상 주차장,시간제 주차장,02-749-5314,1,유료,1000,2000,1000,1600,0,0,무료,유료,0,250,5,250,5,0,37.5668122,126.9996425
429,1545887,효창공원2(구),용산구 효창동 255-1,노상 주차장,시간제 주차장,02-749-5314,1,유료,800,1800,800,1400,0,0,무료,유료,0,250,5,250,5,0,37.56628602,126.9892335
430,1545950,효창공원1(구),용산구 효창동 3-151,노상 주차장,시간제 주차장,02-749-5314,1,유료,800,1800,800,1400,0,0,무료,유료,0,250,5,250,5,0,37.56653118,126.9941542
431,1545969,삼각지역(구),용산구 한강로1가 138-0,노상 주차장,시간제 주차장,02-749-5314,1,유료,1130,2130,1130,1730,0,0,무료,유료,0,250,5,250,5,0,37.56663534,126.9963254
432,1547148,공유) 당산1동거주자우선주차장(구),영등포구 당산동3가 4-1 ,노상 주차장,거주자 우선 주차장,,1,유료,0,0,0,0,0,0,무료,무료,0,0,0,0,0,0,37.5667488,126.9975751
433,1548692,경남아파트 앞 노상주차장(구),영등포구 당산동3가 56-0,노상 주차장,시간제 + 거주자 주차장,02-2650-1436,1,유료,900,1900,900,1500,0,0,무료,무료,50000,100,5,200,10,6000,37.56652194,126.9939617
434,1549619,이촌로54길(구),용산구 이촌동 302-31,노상 주차장,시간제 주차장,02-749-5314,1,유료,1100,2100,1100,1700,0,0,무료,유료,0,250,5,250,5,0,37.56624806,126.9915838
435,1549662,장충단로(한남광장) 관광버스전용 주차장(시),용산구 한남동 9-19,노상 주차장,버스전용 주차장,02-2290-6449,1,무료,0,0,0,0,0,0,유료,유료,0,0,0,0,0,0,37.5665769,126.9949439
436,1551145,양평동(동) 공영주차장(시),영등포구 양평동5가 44-1,노상 주차장,시간제 주차장,,1,유료,900,1900,900,1500,0,0,무료,유료,0,130,5,130,5,0,37.56664646,126.999454
437,1551334,여의도공원앞2 노상주차장(구),영등포구 여의도동 2-11,노상 주차장,시간제 주차장,02-2650-1436,1,유료,900,1900,900,1500,0,0,무료,유료,200000,500,5,1000,10,36000,37.56651883,126.9938972
438,1551423,신흥증권앞 노상주차장(구),영등포구 여의도동 2-4,노상 주차장,시간제 주차장,02-2650-1436,1,유료,900,1900,900,1500,0,0,무료,유료,200000,500,5,500,5,36000,37.56618265,126.990359
439,1551573,홍우빌딩 앞 노상주차장(구),영등포구 여의도동 4-3,노상 주차장,시간제 주차장,02-2650-1436,1,유료,900,1900,900,1500,0,0,무료,유료,200000,500,5,1000,10,36000,37.56634016,126.9933149
440,1551803,경도상가앞 노상주차장(구),영등포구 여의도동 44-0,노상 주차장,시간제 주차장,02-2650-1436,1,유료,900,1900,900,1500,0,0,무료,유료,200000,500,5,1000,10,36000,37.56691065,127.0017087
441,1552993,상봉복개(구),중랑구 상봉동 399-4,노상 주차장,시간제 주차장,02-2272-8821,1,유료,900,1900,900,1500,0,0,무료,유료,0,400,5,400,5,0,37.56690142,127.0015167
442,1552996,묵중안공영주차장(구),중랑구 묵동 250-39,노상 주차장,시간제 + 거주자 주차장,,1,유료,900,1900,900,1500,0,0,무료,무료,0,250,5,250,5,0,37.56653429,126.9942188
443,1554862,중화동(구),중랑구 중화동 61-2,노상 주차장,시간제 주차장,,1,유료,900,1900,900,1500,0,0,무료,유료,0,100,5,100,5,0,37.567065,126.9979402
444,1554869,우림시장공영주차장(구),중랑구 망우동 486-10,노상 주차장,시간제 주차장,02-436-3598,1,유료,900,1900,900,1500,0,0,무료,유료,0,250,5,250,5,0,37.56634314,126.9933788
445,1554895,나들목공영주차장(구),중랑구 중화동 304-36,노상 주차장,시간제 + 거주자 주차장,02-438-7210,1,유료,900,1900,900,1500,0,0,무료,무료,0,250,5,250,5,0,37.56619376,126.9905707
446,1554946,동부갯 공영주차장(구),중랑구 망우동 487-1,노상 주차장,시간제 주차장,02-438-7209,1,유료,900,1900,900,1500,0,0,무료,유료,0,250,5,250,5,0,37.56646281,126.996049
447,1556710,매화공영주차장(구),중랑구 상봉동 85-41,노상 주차장,시간제 주차장,02-438-7210,1,유료,900,1900,900,1500,0,0,무료,유료,0,250,5,250,5,0,37.56636801,126.9938759
448,1556726,맛솜씨공영주차장(구),중랑구 망우동 490-21,노상 주차장,시간제 주차장,,1,유료,900,1900,900,1500,0,0,무료,유료,0,250,5,250,5,0,37.56704653,126.9983472
449,1556767,주막거리공영주차장(구),중랑구 상봉동 127-19,노상 주차장,시간제 주차장,02-438-7210,1,유료,900,1900,900,1500,0,0,무료,유료,0,250,5,250,5,0,37.56690751,127.0016448
450,1561603,여의서로 공영주차장(시),영등포구 여의도동 8-1,노상 주차장,시간제 주차장,,1,유료,900,1900,900,1500,0,0,무료,유료,,160,5,160,5,,37.56647955,126.9930817
451,1561760,태양빌딩앞 노상주차장(구),영등포구 여의도동 4-4,노상 주차장,시간제 주차장,02-2650-1436,1,유료,900,1900,900,1500,0,0,무료,유료,200000,500,5,1000,10,36000,37.56664126,126.9964532
452,1562029,대림역 공영주차장(시),영등포구 대림동 808-24,노상 주차장,시간제 주차장,,1,유료,900,1900,900,1500,0,2400,무료,무료,,260,5,260,5,0,37.56666777,126.996969
453,1564068,동아빌딩앞 노상주차장(구),영등포구 여의도동 14-0,노상 주차장,시간제 주차장,02-2650-1436,1,유료,900,1900,900,1500,0,0,무료,유료,200000,500,5,1000,10,36000,37.56691392,127.0017727
454,1564262,렉싱턴호텔뒤 노상주차장(구),영등포구 여의도동 13-0,노상 주차장,시간제 주차장,02-2650-1436,1,유료,900,1900,900,1500,0,0,무료,유료,200000,500,5,1000,10,36000,37.5664136,126.9948579
455,1564328,롯데캐슬앞 노상주차장(구),영등포구 여의도동 36-0,노상 주차장,시간제 주차장,02-2650-1436,1,유료,900,1900,900,1500,0,0,무료,유료,200000,500,5,1000,10,36000,37.56628756,126.9892978
456,1564466,연희사러가쇼핑센터앞(구),서대문구 연희동 130-12,노상 주차장,시간제 주차장,,1,유료,900,1900,900,1500,0,0,무료,유료,0,250,5,0,0,0,37.56657098,126.994816
457,1565220,대치유수지(구),강남구 대치동 78-29,노상 주차장,시간제 주차장,,1,유료,900,1900,0,0,0,0,유료,유료,80000,200,5,400,5,16000,37.56669797,127.0004495
458,1565371,공유) 노량진2동 나블럭(구),동작구 노량진동 47-2,노상 주차장,거주자 우선 주차장,,1,유료,0,0,0,0,0,0,무료,무료,0,0,0,0,0,0,37.56681563,126.9997064
459,1565412,개포주공5단지북측(구),강남구 개포동 186-7,노상 주차장,시간제 주차장,02-445-8879,1,유료,900,1900,900,1500,0,0,무료,유료,120000,300,5,600,5,0,37.56671375,127.0007715
460,1566024,일원동맛의거리(구),강남구 일원동 709-9,노상 주차장,시간제 주차장,,1,유료,1100,2100,0,0,0,0,유료,유료,50000,100,5,100,5,10000,37.56665329,126.9995818
461,1566690,남대문시장자유상가앞 이륜차 주차장(시),중구 남대문로3가 13-3 0,노상 주차장,이륜차 전용 주차장,02)3396-6262,1,무료,0,0,0,0,0,0,유료,유료,0,0,0,0,0,0,37.56672069,127.0008995
462,1566861,남대문시장알파문구앞 이륜차 주차장(시),중구 남대문로4가 3-6 0,노상 주차장,이륜차 전용 주차장,02)3396-6262,1,무료,0,0,0,0,0,0,유료,유료,0,0,0,0,0,0,37.56627311,126.9888283
463,1566863,남대문시장연세상가앞 이륜차 주차장(시),중구 남창동 235-1 0,노상 주차장,이륜차 전용 주차장,02)3396-6262,1,무료,0,0,0,0,0,0,유료,유료,0,0,0,0,0,0,37.56691184,126.9985381
464,1566973,위례성길(D) 노상공영주차장(구),송파구 방이동 181-7,노상 주차장,시간제 주차장,,1,유료,900,2100,900,2100,900,2100,무료,무료,0,250,5,250,5,0,37.56687621,127.0009445
465,1567373,위례성길(B-1) 노상공영주차장(구),송파구 방이동 94-3,노상 주차장,시간제 주차장,,1,유료,900,2100,900,2100,900,2100,무료,무료,0,250,5,250,5,0,37.56687293,127.0008805
466,1567512,유진상가앞(구),서대문구 홍제동 294-46,노상 주차장,시간제 주차장,,1,유료,1000,1900,1000,1500,0,0,무료,유료,0,250,5,0,0,0,37.56654057,126.9943474
467,1567576,교통공원길(C) 노상공영주차장(구),송파구 신천동 7-21,노상 주차장,시간제 주차장,,1,유료,900,2100,900,2100,900,2100,무료,무료,0,250,5,250,5,24000,37.56664424,126.9965173
468,1567581,봉상시길(구),송파구 잠실동 257-0,노상 주차장,시간제 주차장,,1,유료,900,2100,900,2100,900,2100,무료,무료,0,250,5,0,0,0,37.56666492,126.9997969
469,1568523,로데오길(A) 노상공영주차장(구),송파구 가락동 107-18,노상 주차장,시간제 주차장,,1,유료,1000,2200,1000,2200,1000,2200,무료,무료,0,150,5,150,5,0,37.56712412,126.9982371
470,1568618,교통공원길(A) 노상공영주차장(구),송파구 신천동 10-2,노상 주차장,시간제 주차장,,1,유료,900,2100,900,2100,900,2100,무료,무료,0,250,5,250,5,24000,37.56683378,127.0000757
471,1568620,동작갯마을(구),동작구 동작동 102-65,노상 주차장,시간제 주차장,,1,유료,900,1900,900,1900,0,0,무료,유료,100000,150,5,0,0,35000,37.56638237,126.9911763
472,1568624,삼성동제1공영(구),관악구 신림동 322-2,노상 주차장,시간제 주차장,,1,유료,900,1900,900,1600,0,0,무료,유료,0,150,5,0,0,0,37.56664985,126.9995179
473,1568792,테헤란로26길(구),강남구 역삼동 803-8,노상 주차장,시간제 주차장,,1,유료,900,1900,0,0,0,0,유료,유료,150000,400,5,800,5,30000,37.56640768,126.9947301
474,1568804,은마아파트(구),강남구 대치동 316-0,노상 주차장,시간제 주차장,,1,유료,900,1900,0,0,0,0,유료,유료,120000,300,5,600,5,24000,37.56683064,127.0000118
475,1568841,한신동성아파트옆(구),노원구 하계동 256-7,노상 주차장,시간제 주차장,,1,유료,900,1900,900,1800,900,1800,무료,무료,150000,250,5,0,0,33000,37.56689861,127.0014515
476,1569863,위례성길(B-2) 노상공영주차장(구),송파구 방이동 18-0,노상 주차장,시간제 주차장,,1,유료,900,2100,900,2100,900,2100,무료,무료,0,250,5,250,5,0,37.56639184,126.9943879
477,1569865,교통공원길(B) 노상공영주차장(구),송파구 신천동 7-21,노상 주차장,시간제 주차장,,1,유료,900,2100,900,2100,900,2100,무료,무료,0,250,5,250,5,24000,37.56694641,126.9984887
478,1569866,로데오길(C) 노상공영주차장(구),송파구 문정동 3-2,노상 주차장,시간제 주차장,,1,유료,1000,2200,1000,2200,1000,2200,무료,무료,0,150,5,150,5,0,37.56637687,126.9940677
479,1569868,로데오길(B) 노상공영주차장(구),송파구 문정동 3-2,노상 주차장,시간제 주차장,,1,유료,1000,2200,1000,2200,1000,2200,무료,무료,0,150,5,150,5,0,37.56633722,126.993251
480,1570020,주공12단지상가뒤(구),노원구 상계동 647-1,노상 주차장,시간제 주차장,,1,유료,900,1900,900,1800,900,1800,무료,무료,150000,250,5,0,0,33000,37.56671719,127.0008354
481,1570038,논현로131길(구),강남구 논현동 279-99 학동역7번출구윗길,노상 주차장,시간제 주차장,,1,유료,900,1900,0,0,0,0,유료,유료,150000,400,5,800,5,,37.56638889,126.9943239
482,1570296,인왕시장앞(구),서대문구 홍제동 295-3,노상 주차장,시간제 주차장,,1,유료,1000,1900,1000,1500,0,0,무료,유료,0,250,5,0,0,0,37.56637508,126.9910477
483,1570842,주공3단지상가주변(구),노원구 상계동 736-0,노상 주차장,시간제 주차장,,1,유료,900,1900,900,1800,900,1800,무료,무료,150000,250,5,0,0,33000,37.56667666,126.9971609
484,1570843,주공11단지상가뒤(구),노원구 상계동 652-4,노상 주차장,시간제 주차장,,1,유료,900,1900,900,1800,900,1800,무료,무료,150000,250,5,0,0,33000,37.56637094,126.9939398
485,1572665,용답동거주자우선주차장(구),성동구 용답동 225-13,노상 주차장,시간제 주차장,,1,유료,900,1900,900,1500,0,0,무료,유료,80000,250,5,250,5,10000,37.56648227,126.9931462
486,1573428,공유) 18-25(구),성동구 성수동2가 277-43,노상 주차장,시간제 + 거주자 주차장,02-2204-7970,1,유료,830,1900,830,1900,830,1900,무료,무료,,900,30,900,30,10000,37.56636969,126.9938894
487,1574958,창동역 (구)구청별관주차장(구),도봉구 창동 5-1,노상 주차장,시간제 주차장,,1,유료,1000,2000,1000,2000,1000,2000,무료,무료,0,250,5,0,0,0,37.56627134,126.9887638
488,1575014,노원세무서 앞 공영주차장(구),도봉구 창동 15-0,노상 주차장,시간제 주차장,,1,유료,800,1900,800,1900,800,1900,무료,무료,0,250,5,0,0,0,37.5668823,127.0010726
489,1575186,방학동 월드상가 앞 주차장(구),도봉구 방학동 717-0,노상 주차장,시간제 주차장,,1,유료,900,1800,900,1800,900,1800,무료,무료,0,250,5,0,0,0,37.56653746,126.9942829
490,1575296,도봉권역공영차고지(시),도봉구 도봉동 341-1,노외 주차장,버스전용 주차장,,190,무료,0,0,0,0,0,0,유료,유료,0,0,0,0,0,0,37.56637393,126.9940037
491,1575315,남부여성발전센터 공영주차장(시),금천구 시흥동 139-2,노외 주차장,시간제 주차장,,128,유료,0,2400,0,2400,0,2400,무료,무료,80000,120,5,120,5,,37.56624507,126.9915193
492,1575595,장안공원지하주차장(구),동대문구 장안동 300-0,노외 주차장,시간제 + 거주자 주차장,,163,유료,900,1900,900,1900,900,1900,무료,무료,,1000,60,0,0,10000,37.56637885,126.9911121
493,1575751,신방화역 공영주차장(시),강서구 마곡동 739,노외 주차장,시간제 주차장,02-3405-4581,199,유료,0,2400,0,2400,0,2400,무료,무료,91000,170,5,170,5,,37.56663828,126.9963892
494,1575861,송림기사식당길(B) 공영주차장(구),광진구 자양동 601-9,노상 주차장,시간제 주차장,02-2049-4540,1,유료,900,1800,900,1500,0,0,무료,유료,90000,200,5,200,5,0,37.56639681,126.9914463
495,1576126,진흥로 공영주차장(시),은평구 역촌동 41-8,노상 주차장,시간제 주차장,,1,유료,900,1800,0,0,0,0,유료,유료,,200,5,200,5,,37.5666707,126.9970328
496,1576208,온수역(남) 공영주차장(시),구로구 온수동 51-26,노상 주차장,시간제 주차장,,1,유료,900,1900,900,1500,0,0,무료,유료,70000,170,5,170,5,0,37.56690456,127.0015806
497,1576313,옥수역 공영주차장(시),성동구 옥수동 401-1,노상 주차장,시간제 주차장,,1,유료,900,1900,900,1500,0,0,무료,유료,70000,170,5,170,5,0,37.56638591,126.99426
498,1576344,고분다리 전통시장 공영주차장(구),강동구 천호동 280-9,노외 주차장,시간제 주차장,02-478-6147,26,유료,0,2400,0,2400,0,2400,무료,무료,85000,150,5,150,5,,37.56645988,126.9959852
499,1576347,돈화문로 공영주차장(시),중구 을지로3가 296-24,노상 주차장,시간제 주차장,02-2274-2009,1,유료,900,1900,900,1500,0,0,무료,유료,0,750,5,750,5,0,37.56651557,126.993833
500,1576512,도봉로 15길 공영주차장(시),강북구 미아동 458-7,노상 주차장,시간제 주차장,02-1688-1054,1,유료,900,1800,0,0,0,0,유료,유료,0,200,5,200,5,0,37.5668698,127.0008166
501,1576530,원효대교 남단 공영주차장(시),영등포구 여의도동 5-0,노상 주차장,시간제 주차장,,1,유료,0,2400,0,2400,0,2400,무료,무료,,160,5,160,5,,37.56628471,126.992273
502,1576703,가양라이품 공영주차장(시),강서구 가양동 1457-1,노외 주차장,시간제 주차장,02-2290-6144,38,유료,0,2400,0,2400,0,2400,무료,무료,91000,170,5,170,5,0,37.56657392,126.9948799
503,1576989,신영시장 공동주차장(구),양천구 신월동 114-16,노외 주차장,시간제 주차장,02-2644-1386,23,유료,900,1900,900,1900,900,1900,무료,무료,50000,150,5,150,5,9000,37.56683734,127.0001404
504,1577091,마른내길 이륜차 주차장(구),중구 오장동 148-21 0,노상 주차장,이륜차 전용 주차장,02)3396-6262,1,무료,0,0,0,0,0,0,유료,유료,0,0,0,0,0,0,37.56651246,126.9937685
505,1577094,마른내로 공영주차장(시),중구 오장동 69-3,노상 주차장,시간제 주차장,02)2273-0006,1,유료,900,1800,0,0,0,0,유료,유료,0,620,5,620,5,0,37.56639359,126.9913819
506,1577118,관악신사시장 공영주차장(구),관악구 신림동 494-37,노외 주차장,시간제 + 거주자 주차장,02-2081-2670,13,유료,1000,2000,1000,2000,1000,2000,무료,무료,0,150,5,150,5,0,37.56641062,126.994794
507,1577121,중곡초교(구),중랑구 면목동 380-0,노외 주차장,시간제 주차장,,140,유료,0,2400,0,2400,0,2400,무료,무료,50000,100,5,100,5,,37.56617966,126.9902944
508,1577266,DDP동측(양쪽) 관광버스전용 주차장(시),중구 을지로7가 2-36,노상 주차장,버스전용 주차장,02-2290-6449,1,무료,0,0,0,0,0,0,유료,유료,0,0,0,0,0,0,37.56656096,126.994622
509,1577275,중계4동 임시공영주차장(구),노원구 중계동 606-2,노외 주차장,시간제 주차장,,39,유료,1000,1900,1000,1800,0,0,무료,유료,100000,150,5,150,5,8100,37.56628196,126.9922088
510,1577276,장위전통시장 공영주차장(구),성북구 장위동 68-130,노외 주차장,시간제 주차장,02-6925-0023,18,유료,0,2400,0,2400,0,2400,무료,무료,120000,150,5,150,5,10000,37.56670141,127.0005134
511,1577279,반포4동 주민센터 공영주차장(구),서초구 반포동 74-7,노외 주차장,시간제 + 거주자 주차장,02-2155-7287,51,유료,0,2400,0,2400,0,2400,무료,무료,120000,300,10,300,10,,37.56667368,126.9970968
512,1577280,양재2동주민센터 공영주차장(구),서초구 양재동 323-1,노외 주차장,시간제 주차장,,31,유료,700,2100,700,2100,700,2100,무료,무료,120000,300,10,300,10,,37.56627465,126.9888926
513,1577281,영등포구청환승주차장(구),영등포구 당산동3가 370-4,노외 주차장,시간제 주차장,02-2677-1401,66,유료,0,2400,0,2400,0,2400,무료,무료,84000,100,5,100,5,0,37.56639978,126.9915105
514,1577613,정릉천변 공영주차장(구),동대문구 제기동 1159-0,노상 주차장,시간제 주차장,,1,유료,900,1900,900,1500,0,0,무료,유료,120000,500,10,500,10,36000,37.56698996,126.9978532
515,1577690,정화여상 노상(구),동대문구 제기동 855-0,노상 주차장,시간제 주차장,,1,유료,900,1900,900,1500,0,0,무료,유료,120000,500,10,500,10,36000,37.56680881,126.9995786
516,1577864,동서시장 식품 공영주차장(구),동대문구 제기동 854-1,노상 주차장,시간제 주차장,,1,유료,900,1900,900,1500,0,0,무료,유료,0,300,10,300,10,36000,37.56688543,127.0011365
517,1578559,장안보성연립노상주차장(구),동대문구 장안동 427-4,노상 주차장,시간제 주차장,,1,유료,900,1900,900,1500,0,0,무료,유료,120000,500,10,500,10,36000,37.56688871,127.0012005
518,1578994,동서시장 과일채소부 공영주차장(구),동대문구 제기동 849-0,노상 주차장,시간제 주차장,02-962-1650,1,유료,900,1900,900,1500,0,0,무료,유료,0,300,10,300,10,36000,37.6232864,126.9250857
519,1579054,답십리 부품상가 노상(구),동대문구 답십리동 952-2,노상 주차장,시간제 주차장,,1,유료,900,1900,900,1500,0,0,무료,유료,120000,500,10,500,10,36000,37.63875948,127.0252192
520,1579283,청계천 주변(구),동대문구 신설동 94-4,노상 주차장,시간제 주차장,,1,유료,900,1900,900,1500,0,0,무료,유료,120000,500,10,0,0,0,37.63903355,127.0255401
521,1579343,신일피혁주변(구),동대문구 장안동 480-9,노상 주차장,시간제 주차장,,1,유료,900,1900,900,1500,0,0,무료,유료,120000,500,10,0,0,0,37.63963292,127.0261832
522,1579353,삼희상가주변(구),동대문구 답십리동 530-6,노상 주차장,시간제 주차장,,1,유료,900,1900,900,1500,0,0,무료,유료,120000,500,10,500,10,0,37.63869334,127.0251293
523,1579374,회기역주변 공영주차장(구),동대문구 휘경동 320-4,노상 주차장,시간제 주차장,02-2247-9664~6,1,유료,900,1900,900,1500,0,0,무료,유료,120000,500,10,500,10,36000,37.63863555,127.0250356
524,1579566,홍제견인보관소(구),서대문구 홍제동 294-84,노외 주차장,시간제 + 거주자 주차장,,75,유료,900,2100,900,2100,900,2100,무료,무료,,3000,60,1500,30,,37.63907824,127.0255873
525,1579598,목사랑시장(구),양천구 목동 723-7,노외 주차장,시간제 주차장,,24,유료,919,0,919,0,919,0,무료,무료,,150,5,150,5,,37.63866296,127.0250828
526,1579832,석계역 앞(구),노원구 월계동 60-1,노외 주차장,시간제 주차장,02-942-8882,29,유료,1000,2000,1100,1800,0,0,무료,유료,50000,100,5,100,5,6000,37.63944583,127.0259818
527,1579833,상계역 서측 주택가 공영주차장(구),노원구 상계동 169-409,노외 주차장,시간제 주차장,,19,유료,1000,1900,1000,1800,0,0,무료,유료,30000,150,5,150,5,8100,37.63872611,127.0251743
528,1580083,서울약령시공영주차장(구),동대문구 제기동 1082-0,노외 주차장,시간제 주차장,070-5088-2390,199,유료,0,2400,0,2400,0,2400,무료,무료,170000,500,10,500,10,20000,37.63879343,127.025265
529,1580112,방배1동 공영주차장(구),서초구 방배동 328-1,노외 주차장,시간제 + 거주자 주차장,02-2155-7289,123,유료,0,2400,0,2400,0,2400,무료,무료,120000,300,10,300,10,,37.63890962,127.0254112
530,1580114,양재근린공원 공영주차장(구),서초구 양재동 311-0,노외 주차장,시간제 주차장,02-2155-7290,102,유료,0,2400,0,2400,0,2400,무료,무료,120000,150,5,150,5,,37.63894954,127.0254531
531,1580171,도봉2동  6공영주차장(구),도봉구 도봉동 59-1,노외 주차장,거주자 우선 주차장,02-2091-4215,13,유료,0,0,0,0,0,0,무료,무료,0,0,0,0,0,0,37.63887208,127.0253714
532,1580208,방배역 노상 공영주차장(구),서초구 방배동 91-16,노상 주차장,시간제 주차장,,1,유료,900,2100,900,2100,900,2100,무료,무료,0,500,10,500,10,0,37.63883037,127.0253167
533,1581248,밤고개로21길 공영주차장(구),강남구 율현동 77-5,노외 주차장,시간제 주차장,02-2176-0907,109,유료,0,2400,0,2400,0,2400,무료,무료,70000,100,5,100,5,,37.63899065,127.0254959
534,1582514,이태원1동공영(구),용산구 이태원동 22-36,노상 주차장,시간제 주차장,02-749-5314,1,유료,900,1900,900,1500,0,0,무료,유료,0,250,5,0,0,0,37.63966326,127.0262156
535,1582537,천호3동 제2공영주차장(구),강동구 천호동 174-1,노외 주차장,시간제 주차장,02-478-6147,185,유료,0,2400,0,2400,0,2400,무료,무료,80000,150,5,150,5,0,37.63938505,127.0259211
536,1582612,창경궁로2 관광버스 주차허용 구간(시),종로구 와룡동 2-86 (홍화문~선인문),노상 주차장,버스전용 주차장,02)2133-2357,1,무료,0,0,0,0,0,0,유료,유료,0,0,0,0,0,0,37.63953937,127.0260831
537,1582627,APM플레이스 앞 관광버스 주차허용 구간(시),중구 을지로7가 112-3,노상 주차장,버스전용 주차장,02)2133-2357,1,무료,0,0,0,0,0,0,유료,유료,0,0,0,0,0,0,37.63958764,127.0261355
538,1582630,수송초등학교 공영주차장(구),강북구 번동 456-0,노외 주차장,시간제 주차장,02-944-3036,185,유료,0,0,0,0,0,0,유료,유료,100000,200,5,200,5,10000,37.6394929,127.0260328
539,1582645,세종대로3 관광버스 승하차 허용 구간(시),중구 태평로2가 113-1 (신협 ~ 세븐일레븐),노상 주차장,버스전용 주차장,02)2133-2357,1,무료,0,0,0,0,0,0,유료,유료,0,0,0,0,0,0,37.63912471,127.0256368
540,1582666,토정로 관광버스 주차허용 구간(시),마포구 합정동 5-12,노상 주차장,버스전용 주차장,02)2133-2357,1,무료,0,0,0,0,0,0,유료,유료,0,0,0,0,0,0,37.5022256,126.9048131
541,1582684,모래내로 관광버스 주차허용 구간(시),서대문구 남가좌동 318-11,노상 주차장,버스전용 주차장,02)2133-2357,1,무료,0,0,0,0,0,0,유료,유료,0,0,0,0,0,0,37.55453178,126.9780833
542,1583447,청계8가(북) 공영주차장(시),동대문구 신설동 109-2,노상 주차장,시간제 주차장,02-2274-2009,1,유료,900,1900,900,1500,0,0,무료,유료,0,450,5,450,5,0,37.55414809,126.9787642
543,1583603,신월3동 여울공영주차장(구),양천구 신월동 151-5,노외 주차장,시간제 + 거주자 주차장,02-2644-1386,76,유료,0,2400,0,2400,0,2400,무료,무료,50000,50,5,50,5,0,37.5543711,126.9783772
544,1583685,반포복개천 노상공영주차장(구),서초구 반포동 120-1,노상 주차장,시간제 주차장,,1,유료,900,2100,900,2100,0,0,무료,유료,0,400,5,800,10,0,37.5539054,126.9789511
545,1583714,벽산 노상공영(구),강북구 수유동 36-1,노상 주차장,시간제 + 거주자 주차장,,1,유료,900,1900,900,1500,0,0,무료,무료,100000,200,5,200,5,10000,37.55431755,126.978475
546,1583756,민속의집 공영주차장(구),강동구 고덕동 215-0,노외 주차장,시간제 주차장,02-478-6147,26,유료,0,2400,0,2400,0,2400,무료,무료,85000,150,5,150,5,,37.55399553,126.9789082
547,1583862,보라매상업 공영주차장(시),동작구 신대방동 431-3,노외 주차장,시간제 주차장,,65,유료,900,2100,900,2100,900,2100,무료,무료,162000,220,5,220,5,,37.55407832,126.9788447
548,1583920,마포중앙도서관 공영주차장(구),마포구 성산동 275-3,노외 주차장,시간제 주차장,02-334-5331,193,유료,0,2400,0,2400,0,2400,무료,무료,100000,0,30,200,5,,37.55458553,126.977985
549,1583921,신촌노외 공영주차장(구),마포구 노고산동 49-53,노외 주차장,시간제 주차장,02-300-5054,24,유료,0,2400,0,2400,0,2400,무료,무료,0,400,5,,,0,37.55426386,126.9785732
550,1583936,신정4동 로데오길(구),양천구 신정동 890-0,노상 주차장,시간제 주차장,02-2695-8597,1,유료,900,1900,900,1300,900,1900,무료,무료,100000,150,5,300,10,9000,37.55447826,126.9781813
551,1583942,새물결 노상 공영주차장(구),마포구 동교동 165-1,노상 주차장,시간제 주차장,,1,유료,1200,2300,1200,2300,1200,2300,무료,무료,0,400,5,400,5,0,37.55442472,126.9782791
552,1584060,석촌역(구),송파구 송파동 68-0,노상 주차장,시간제 주차장,,1,유료,900,2100,900,2100,900,2100,무료,무료,0,250,5,0,0,0,37.5542102,126.9786709
553,1584204,구청사주변(구),노원구 상계동 739-2,노상 주차장,시간제 주차장,,1,유료,900,2000,0,0,0,0,유료,유료,150000,250,5,250,5,16500,37.57134087,126.9877628
554,1584680,평창동 460-3(구),종로구 평창동 460-3,노상 주차장,시간제 주차장,02-2236-0052,1,유료,1000,2200,1000,2200,1000,2200,무료,무료,0,150,5,150,5,0,37.57126963,126.987766
555,1584686,평창동(구),종로구 평창동 114-3,노상 주차장,시간제 주차장,02-2236-0052,1,유료,1000,2000,1000,2000,1000,2000,무료,무료,0,150,5,150,5,0,37.44649791,127.0561579
556,1584694,구본청 부설주차장(구),동작구 노량진동 47-2,노외 주차장,시간제 주차장,02-820-1440,76,유료,0,2400,0,2400,0,2400,무료,무료,150000,250,5,250,5,,37.565988,127.172313
557,1584698,곰달래로5길 노상(구),양천구 신월동 126-36,노상 주차장,시간제 주차장,02-2698-1386,1,유료,900,1900,900,1300,0,0,무료,유료,70000,150,5,300,10,9000,37.5960566,127.0654202
558,1584724,세종대로1 관광버스 승하차 허용 구간(시),중구 태평로1가 60-22 (코리아나호텔 주차장 입구 ~ 시의회 앞),노상 주차장,버스전용 주차장,02)2133-2357,1,무료,0,0,0,0,0,0,유료,유료,0,0,0,0,0,0,37.59637086,127.06571
559,1584731,세종대로2 관광버스 승하차 허용 구간(시),중구 정동 5-5 (정동 5-5(시청역 2번 출구 앞),노상 주차장,버스전용 주차장,02)2133-2357,1,무료,0,0,0,0,0,0,유료,유료,0,0,0,0,0,0,37.59576508,127.0651814
560,1584771,망원시장 노상공영주차장(구),마포구 망원동 414-1,노상 주차장,시간제 주차장,02-300-5054,1,유료,1000,2000,1000,2000,1000,2000,무료,무료,0,200,5,200,5,0,37.59573163,127.0652598
561,1584776,월드컵시장 노상공영주차장(구),마포구 망원동 423-23,노상 주차장,시간제 주차장,02-300-5054,1,유료,1000,2000,1000,2000,1000,2000,무료,무료,0,200,5,200,5,0,37.59621149,127.0655277
562,1584793,구의2동 주택가 공영주차장(구),광진구 구의동 30-10,노외 주차장,시간제 주차장,02-2049-4596,90,유료,0,2400,0,2400,0,2400,무료,무료,0,75,5,0,0,0,37.59569053,127.0652253
563,1584885,신촌노상 공영주차장(구),마포구 노고산동 49-48,노상 주차장,시간제 주차장,02-30-5057,1,유료,1100,2200,1100,2200,1100,2200,무료,무료,0,400,5,400,5,0,37.5962298,127.065548
564,1585128,대왕초 공영주차장(구),강남구 세곡동 517-0,노외 주차장,시간제 주차장,02-2176-0907,100,유료,0,2400,0,2400,0,2400,무료,무료,70000,100,5,100,5,,37.59564883,127.0651968
565,1585237,영동6교밑 공영주차장(시),강남구 대치동 512-1,노상 주차장,시간제 주차장,,1,유료,900,1900,900,1700,900,1700,무료,무료,0,260,5,260,5,0,37.59632975,127.0656838
566,1586233,테헤란로69길(구),강남구 삼성동 172-99 선정릉입구 앞길,노상 주차장,시간제 주차장,,1,유료,900,1900,0,0,0,0,유료,유료,150000,400,5,800,5,0,37.5958032,127.0652107
567,1586294,배오개길 공영주차장(시),중구 예관동 22-1,노상 주차장,시간제 주차장,02-2274-2009,1,유료,900,1900,900,1500,0,0,무료,유료,,680,5,680,5,,37.59569002,127.06512
568,1587093,공유) 다동(구),중구 다동 103-8,노상 주차장,거주자 우선 주차장,1661-5806,1,유료,0,0,0,0,0,0,무료,무료,0,0,0,0,0,0,37.59603901,127.0655117
569,1587102,공유) 황학동(구),중구 황학동 1743-0,노상 주차장,거주자 우선 주차장,1661-5806,1,유료,0,0,0,0,0,0,무료,무료,0,0,0,0,0,0,37.5960819,127.0655425
570,1587117,영등포구청(구),영등포구 당산동3가 397-1,노상 주차장,시간제 + 거주자 주차장,,1,유료,900,1800,0,0,0,0,무료,무료,0,1200,60,1200,60,0,37.5962839,127.0656605
571,1587122,공유) 영등포구청(구),영등포구 당산동3가 397-1,노상 주차장,시간제 + 거주자 주차장,,1,유료,900,1800,0,0,0,0,무료,무료,0,1200,60,1200,60,0,37.5960143,127.065388
572,1587285,쌍문2동 5공영주차장(구),도봉구 쌍문동 715-2,노외 주차장,시간제 + 거주자 주차장,02-2091-4215,49,유료,0,2400,0,2400,0,2400,무료,무료,,100,5,,,,37.59595621,127.0654495
573,1587332,하나로빌딩옆(구),종로구 인사동 227 ,노외 주차장,시간제 주차장,02-2236-0052,12,유료,1000,2200,900,1700,0,0,무료,유료,25000,500,5,,,,37.59574721,127.0651657
574,1587377,공유) 12-37(구),송파구 송파동 148-2,노상 주차장,거주자 우선 주차장,,1,유료,0,0,0,0,0,0,무료,무료,0,0,0,0,0,0,37.59599731,127.0654817
575,1587380,15-가600구간(구),강동구 명일동 583-0,노상 주차장,시간제 주차장,,1,유료,0,2400,0,0,0,0,유료,유료,0,500,10,0,0,0,37.59572755,127.0651514
576,1587386,공유) 12-나1100구간(구),강동구 천호동 572-0,노상 주차장,거주자 우선 주차장,,1,유료,0,0,0,0,0,0,무료,무료,0,0,0,0,0,0,37.5959157,127.0654158
577,1587406,공유) 9-88(구),마포구 동교동 192-1,노상 주차장,거주자 우선 주차장,,1,유료,0,0,0,0,0,0,무료,무료,0,0,0,0,0,0,37.59623767,127.0656343
578,1587695,공유) 공유주차장(구),양천구 신정동 88-16,노상 주차장,거주자 우선 주차장,,1,유료,0,0,0,0,0,0,무료,무료,0,0,0,0,0,0,37.59597022,127.0653572
579,1587762,언주로147길(구),강남구 논현동 279-22 언북중학교 뒷길,노상 주차장,시간제 주차장,,1,유료,900,1900,0,0,0,0,유료,유료,150000,400,5,800,5,30000,37.5961674,127.0654999
580,1587790,공유) 용신동 B 98구간(구),동대문구 용두동 52-44,노외 주차장,시간제 + 거주자 주차장,02-2247-9664~6,26,유료,0,2400,0,2400,0,2400,무료,무료,0,600,30,0,0,0,37.59625617,127.0655562
581,1588145,면목천로 거주자우선주차장A(구),중랑구 면목동 153-6,노상 주차장,거주자 우선 주차장,,1,유료,0,0,0,0,0,0,무료,무료,0,0,0,0,0,0,37.59612272,127.0654699
582,1588151,면목천로 거주자우선주차장B(구),중랑구 면목동 1503-6,노상 주차장,거주자 우선 주차장,,1,유료,0,0,0,0,0,0,무료,무료,0,0,0,0,0,0,37.5959309,127.0653205
583,1588156,면목천로 거주자우선주차장C(구),중랑구 면목동 1503-6,노상 주차장,거주자 우선 주차장,,1,유료,0,0,0,0,0,0,무료,무료,0,0,0,0,0,0,37.59577512,127.0652891
584,1588167,중화2동 66구간A(구),중랑구 중화동 50-16,노상 주차장,거주자 우선 주차장,,1,유료,0,0,0,0,0,0,무료,무료,0,0,0,0,0,0,37.62509512,127.0334319
585,1588173,중화2동 66구간B(구),중랑구 중화동 50-17,노상 주차장,거주자 우선 주차장,,1,유료,0,0,0,0,0,0,무료,무료,0,0,0,0,0,0,37.61638404,127.1123001
586,1588177,숙선옹주로 5공영(구),중랑구 묵동 113-3,노상 주차장,거주자 우선 주차장,,1,유료,0,0,0,0,0,0,무료,무료,0,0,0,0,0,0,37.53187194,126.875464
587,1588182,면목천로 거주자우선주차장D(구),중랑구 면목동 1505-5,노상 주차장,거주자 우선 주차장,,1,유료,0,0,0,0,0,0,무료,무료,0,0,0,0,0,0,37.53292894,126.8768775
588,1588307,마곡8 임시 주차장(구),강서구 마곡동 728-42,노외 주차장,시간제 주차장,02-2607-9113,200,유료,900,1900,0,0,0,100,유료,무료,50000,1200,60,100,5,0,37.49615427,127.1498486
589,1588309,서울식물원 제2주차장(구),강서구 마곡동 20-3,노외 주차장,시간제 주차장,,202,유료,0,0,0,0,0,0,유료,유료,50000,100,5,0,0,,37.49122464,127.1346929
590,1588311,공항2임시(구),강서구 공항동 703-0,노외 주차장,시간제 주차장,,75,무료,0,0,0,0,0,0,유료,유료,,,,,,7000,37.4928472,126.8943315
591,1588333,양평2동청사 공영(구),영등포구 양평동4가 72-1,노외 주차장,시간제 주차장,02-2677-1401,93,유료,0,2400,0,2400,0,2400,무료,무료,120000,250,5,250,5,,37.68972069,127.0448386
592,1588340,문화회관서측 노외주차장(구),양천구 신정동 323-25,노외 주차장,시간제 주차장,070-4370-7621,23,유료,900,1900,900,1900,0,0,무료,유료,70000,150,5,150,5,,37.4868589,127.1011147
593,1588341,신월4동 공영주차장(시),양천구 신월동 411-1,노외 주차장,시간제 주차장,02-2290-6311,46,유료,0,2400,0,2400,0,2400,무료,무료,80000,120,5,,,,37.53231129,126.8608565
594,1588343,밝은빛 공영주차장(구),양천구 신정동 323-18,노외 주차장,시간제 주차장,,23,유료,900,1900,900,1900,0,0,무료,유료,100000,150,5,150,5,,37.53154144,126.847861
595,1588344,어울림주차장(구),양천구 신정동 318-2,노외 주차장,시간제 주차장,,32,유료,900,1900,900,1900,0,0,무료,유료,100000,150,5,150,5,,37.54910323,126.8346531
596,1588346,법마을공영주차장(구),양천구 신정동 1018-3,노외 주차장,시간제 + 거주자 주차장,,18,유료,0,2400,0,2400,0,2400,무료,무료,50000,50,5,50,5,,37.53758251,126.8393482
597,1588347,서서울주차장(구),양천구 신월동 267-8,노외 주차장,시간제 주차장,,70,유료,0,2400,0,2400,0,2400,무료,무료,50000,50,5,50,5,9000,37.56710187,127.0121411
598,1588349,능골주차장(구),양천구 신월동 152-38,노외 주차장,시간제 주차장,,61,유료,0,2400,0,2400,0,2400,무료,무료,50000,50,5,50,5,,37.62319096,127.0239752
599,1588350,벚꽃길주차장(구),양천구 신정동 884-8,노외 주차장,시간제 주차장,,33,유료,0,2400,0,2400,0,2400,무료,무료,50000,50,5,50,5,,37.62350986,127.0248665
600,1588352,한울주차장(구),양천구 신월동 957-10,노외 주차장,시간제 주차장,,21,유료,0,2400,0,2400,0,2400,무료,무료,50000,50,5,50,5,,37.62322319,127.0237339
601,1588353,구름다리주차장(구),양천구 신월동 915-4,노외 주차장,시간제 주차장,,52,유료,0,2400,0,2400,0,2400,무료,무료,50000,50,5,50,5,,37.62328624,127.0243574
602,1588355,문화회관동측(구),양천구 신정동 322-5,노외 주차장,시간제 주차장,02-2653-1384,80,유료,900,1900,900,1900,0,0,무료,유료,70000,150,5,150,5,9000,37.62342349,127.0249283
603,1588356,마을마당주차장(구),양천구 신월동 129-6,노외 주차장,시간제 + 거주자 주차장,,114,유료,0,2400,0,2400,0,2400,무료,무료,50000,50,5,50,5,,37.62339818,127.024816
604,1588358,신정7동 한사랑교회 주차장(구),양천구 신정동 324-11,노외 주차장,시간제 주차장,02-2644-1386,125,유료,900,1900,0,0,0,0,유료,유료,,150,5,150,5,9000,37.62341128,127.0248714
605,1588359,당곡주차장(구),양천구 신월동 482-11,노외 주차장,시간제 주차장,,45,유료,0,2400,0,2400,0,2400,무료,무료,50000,50,5,50,5,,37.62311124,127.0232798
606,1588360,누리 공영주차장(구),양천구 신정동 323-13,노외 주차장,시간제 주차장,070-4370-7621,20,유료,900,1900,900,1900,0,0,무료,유료,70000,150,5,150,5,,37.62312434,127.0233353
607,1588362,신우주차장(구),양천구 신월동 166-23,노외 주차장,시간제 주차장,,107,유료,0,2400,0,2400,0,2400,무료,무료,50000,50,5,50,5,,37.62296153,127.0226759
608,1588363,신곡주차장(구),양천구 신월동 549-18,노외 주차장,시간제 주차장,02-1644-5014,18,유료,0,2400,0,2400,0,2400,무료,무료,50000,50,5,50,5,,37.62349437,127.024808
609,1588364,곰달래주차장(구),양천구 신월동 226-9,노외 주차장,시간제 주차장,,107,유료,0,2400,0,2400,0,2400,무료,무료,50000,50,5,50,5,,37.62341375,127.0244803
610,1588365,하늘 공영주차장(구),양천구 신정동 323-33,노외 주차장,시간제 주차장,,30,유료,900,1900,900,1900,0,0,무료,유료,100000,150,5,150,5,,37.6228757,127.0227299
611,1588366,해맞이공영주차장(구),양천구 신월동 987-0,노외 주차장,시간제 주차장,02-2644-1386,250,유료,0,2400,0,2400,0,2400,무료,무료,50000,50,5,50,5,,37.62328869,127.0239872
612,1588367,다락골주차장(구),양천구 신정동 1158-1,노외 주차장,시간제 + 거주자 주차장,070-4370-7621,102,유료,0,2400,0,2400,0,2400,무료,무료,50000,50,5,50,5,,37.62320287,127.0240321
613,1588368,문화회관 지하주차장(구),양천구 신정동 322-0,노외 주차장,시간제 주차장,070-4370-7621,93,유료,900,1900,900,1900,0,0,무료,유료,70000,150,5,150,5,,37.62338397,127.0243664
614,1588369,가로공원공영주차장(구),양천구 신월동 263-0,노외 주차장,시간제 주차장,02-2065-8333,376,유료,0,2400,0,2400,0,2400,무료,무료,70000,150,5,150,5,,37.62317674,127.0235376
615,1588371,신정교주차장(구),양천구 신정동 871-3,노외 주차장,시간제 주차장,,294,무료,0,0,0,0,0,0,유료,유료,0,0,0,0,0,0,37.62339946,127.0244263
616,1588489,둔촌역전통시장(구),강동구 성내동 417-34,노외 주차장,시간제 주차장,,21,무료,0,0,0,0,0,0,유료,유료,,,,,,,37.62332196,127.0245012
617,1588750,가산동 공영주차장(구),금천구 가산동 148-28,노외 주차장,시간제 주차장,,128,유료,800,1900,800,1900,800,1900,무료,무료,,65,5,65,5,,37.62286379,127.0226744
618,1588766,독산2동 지평식주차장4(구),금천구 가산동 1031-12,노외 주차장,거주자 우선 주차장,,7,유료,0,0,0,0,0,0,무료,무료,0,0,0,0,0,0,37.62317786,127.0239197
619,1588770,독산2동 공영주차장(구),금천구 독산동 1050-17,노외 주차장,시간제 주차장,,70,유료,700,1900,0,2400,0,2400,무료,무료,,250,10,250,10,,37.62296002,127.0230746
620,1588878,서울숲 공영주차장(구),성동구 성수동1가 643,노외 주차장,시간제 주차장,070-7119-2893,177,유료,0,2400,0,2400,0,2400,무료,무료,140000,150,5,150,5,,37.62325535,127.0238478
621,1588885,거주자노외주차장(구),성동구 송정동 72-242,노외 주차장,거주자 우선 주차장,,67,유료,0,0,0,0,0,0,무료,무료,0,0,0,0,0,0,37.62319104,127.0235931
622,1588888,용답 어울림 공영주차장(구),성동구 용답동 53-5,노외 주차장,시간제 주차장,02-2204-7970,16,유료,0,2400,0,2400,0,2400,무료,무료,,100,5,100,5,,37.62314816,127.0234267
623,1588889,금남시장 공영주차장(구),성동구 금호동3가 294-0,노외 주차장,시간제 주차장,02-2204-7970,11,유료,0,2400,0,2400,0,2400,무료,무료,,200,5,200,5,,37.62302434,127.0233069
624,1588898,공유) 09-06(구),성동구 금호동1가 636-0,노외 주차장,시간제 + 거주자 주차장,02-2204-7970,18,유료,830,1900,830,1900,830,1900,무료,무료,0,900,30,900,30,10000,37.62330299,127.0240442
625,1588901,공유) 08-11(구),성동구 행당동 341-48,노외 주차장,시간제 + 거주자 주차장,02-2204-7970,19,유료,830,1900,830,1900,830,1900,무료,무료,0,900,30,900,30,10000,37.62335293,127.0246346
626,1588902,하왕십리(건물) 공영주차장(구),성동구 행당동 347-3,노외 주차장,시간제 주차장,02-2204-7970,96,유료,0,2400,0,2400,0,2400,무료,무료,70000,100,5,100,5,,37.62308385,127.0231703
627,1588964,마천동 1공영주차장(구),송파구 마천동 215-0,노외 주차장,시간제 주차장,02-404-6275,217,유료,0,2400,0,2400,0,2400,무료,무료,60000,50,5,50,5,,37.6234485,127.0250152
628,1589043,장지동 공영주차장(구),송파구 문정동 2-6,노외 주차장,시간제 주차장,02-407-1500,101,유료,600,2100,600,2100,600,2100,무료,무료,50000,100,5,100,5,,37.62298892,127.0227869
629,1589089,송파파크데이 2단지입구앞(구),송파구 마천동 603-0,노외 주차장,거주자 우선 주차장,,110,유료,0,0,0,0,0,0,무료,무료,0,0,0,0,0,0,37.62309695,127.0232245
630,1593174,공유) 한강로동 22구간(구),용산구 한강로2가 157-2,노상 주차장,거주자 우선 주차장,,1,유료,0,0,0,0,0,0,무료,무료,0,0,0,0,0,0,37.62305174,127.0234074
631,1593562,03-04-135(구),용산구 남영동 46-3 ,노상 주차장,거주자 우선 주차장,,1,유료,0,0,0,0,0,0,무료,무료,0,0,0,0,0,0,37.62323987,127.0237909
632,1593564,03-02-186(구),용산구 남영동 103-3,노상 주차장,거주자 우선 주차장,,1,유료,0,0,0,0,0,0,무료,무료,0,0,0,0,0,0,37.62345186,127.0246346
633,1593616,공유) 남영동 02구간(구),용산구 남영동 103-3,노상 주차장,거주자 우선 주차장,,1,유료,0,0,0,0,0,0,무료,무료,0,0,0,0,0,0,37.62316245,127.0234822
634,1594022,공유) 한강로동 32구간(구),용산구 한강로2가 15-6,노상 주차장,거주자 우선 주차장,,1,유료,0,0,0,0,0,0,무료,무료,0,0,0,0,0,0,37.62343518,127.0245777
635,1594826,공유) 남영동 01구간(구),용산구 남영동 108-0,노상 주차장,거주자 우선 주차장,,1,유료,0,0,0,0,0,0,무료,무료,0,0,0,0,0,0,37.62338508,127.0247605
636,1594835,공유) 남영동 04구간(구),용산구 남영동 46-3,노상 주차장,거주자 우선 주차장,,1,유료,0,0,0,0,0,0,무료,무료,0,0,0,0,0,0,37.62297582,127.0227314
637,1594991,삼각지고가밑 공영주차장(시),용산구 문배동 12-1,노상 주차장,시간제 주차장,,1,유료,900,1900,900,1500,0,0,무료,유료,0,250,5,250,5,0,37.62355035,127.0250239
638,1597486,강남대로150길(구),강남구 논현동 280-1,노상 주차장,시간제 주차장,02-1544-3113,1,유료,1000,2000,0,0,0,0,유료,유료,150000,400,5,800,5,,37.62310652,127.0236426
639,1614626,벽산공영(구),강북구 수유동 45-0 ,노상 주차장,시간제 주차장,,1,유료,900,1900,900,1500,0,0,무료,유료,100000,200,5,200,5,15000,37.62306603,127.0234628
640,1629037,공유) 능동 IoT 공유주차장(구),광진구 능동 315-10 ,노상 주차장,거주자 우선 주차장,0,1,유료,0,0,0,0,0,0,무료,무료,0,0,0,0,0,0,37.62119809,127.0290897
641,1629076,공유) 광장동 IoT 공유주차장(구),광진구 광장동 141-1 ,노상 주차장,거주자 우선 주차장,0,1,유료,0,0,0,0,0,0,무료,무료,0,0,0,0,0,0,37.62149652,127.0288796
642,1629386,동서울호텔길 노상공영주차장(구),광진구 자양동 609-1,노상 주차장,시간제 주차장,0,1,유료,900,1800,900,1500,0,0,무료,유료,100000,250,5,0,0,0,37.6198714,127.0295149
643,1629874,동서울 호텔길(B) 공영주차장(구),광진구 구의동 625-3 ,노상 주차장,시간제 + 거주자 주차장,,1,유료,900,1800,900,1500,900,1500,무료,무료,0,250,5,0,0,10000,37.62180067,127.0288561
644,1631681,공유) 구로중학교A(구),구로구 구로동 65-0,노상 주차장,거주자 우선 주차장,,1,유료,0,0,0,0,0,0,무료,무료,0,0,0,0,0,0,37.62263275,127.0284358
645,1632632,공유) 구로중학교B(구),구로구 구로동 65-0,노상 주차장,거주자 우선 주차장,,1,유료,0,0,0,0,0,0,무료,무료,0,0,0,0,0,0,37.62271165,127.0285909
646,1663546,공유) 16-36(구),성동구 성수동1가 676-1,노상 주차장,시간제 + 거주자 주차장,02-2204-7970,1,유료,830,1900,830,1900,830,1900,무료,무료,0,900,30,900,30,10000,37.62059596,127.0293165
647,1663645,공유) 16-01(구),성동구 성수동1가 656-1830 ,노상 주차장,시간제 + 거주자 주차장,02-2204-7970,1,유료,830,1900,830,1900,830,1900,무료,무료,0,900,30,900,30,10000,37.62115161,127.0291054
648,1663674,공유) 08-07(구),성동구 응봉동 193-115,노상 주차장,시간제 + 거주자 주차장,02-2204-7970,1,유료,830,1900,830,1900,830,1900,무료,무료,0,900,30,900,30,10000,37.62262401,127.0285372
649,1663721,공유) 11-10(구),성동구 금호동3가 1344-50,노상 주차장,시간제 + 거주자 주차장,02-2204-7970,1,유료,830,1900,830,1900,830,1900,무료,무료,0,900,30,900,30,10000,37.62032596,127.02944
650,1663726,공유) 10-04(구),성동구 금호동3가 620-0,노상 주차장,시간제 + 거주자 주차장,02-2204-7970,1,유료,830,1900,830,1900,830,1900,무료,무료,0,900,30,900,30,10000,37.62032956,127.0293456
651,1663777,공유) 14-03(구),성동구 옥수동 558-0,노상 주차장,시간제 + 거주자 주차장,02-2204-7970,1,유료,830,1900,830,1900,830,1900,무료,무료,0,900,30,900,30,10000,37.62208062,127.0286536
652,1663952,공유) 18-23(구),성동구 성수동2가 280-25 ,노상 주차장,시간제 + 거주자 주차장,02-2204-7970,1,유료,830,1900,830,1900,830,1900,무료,무료,0,900,30,900,30,10000,37.62068894,127.029285
653,1663985,공유) 18-04(구),성동구 성수동2가 300-15 ,노상 주차장,시간제 + 거주자 주차장,02-2204-7970,1,유료,830,1900,830,1900,830,1900,무료,무료,0,900,30,900,30,10000,37.62037245,127.0294198
654,1664022,공유) 08-02(구),성동구 응봉동 265-317,노상 주차장,시간제 + 거주자 주차장,02-2204-7970,1,유료,830,1900,830,1900,830,1900,무료,무료,0,900,30,900,30,10000,37.62158592,127.0288437
655,1664136,공유) 08-01(구),성동구 응봉동 265-314,노상 주차장,시간제 + 거주자 주차장,02-2204-7970,1,유료,830,1900,830,1900,830,1900,무료,무료,0,900,30,900,30,10000,37.62207877,127.0287692
656,1664182,공유) 15-12(구),성동구 성수동1가 34-9 ,노상 주차장,시간제 + 거주자 주차장,02-2204-7970,1,유료,830,1900,830,1900,830,1900,무료,무료,0,900,30,900,30,10000,37.6196608,127.0297027
657,1664245,공유) 09-05(구),성동구 금호동1가 633-0,노상 주차장,시간제 + 거주자 주차장,02-2204-7970,1,유료,830,1900,830,1900,830,1900,무료,무료,0,900,30,900,30,10000,37.61982709,127.0296353
658,1664255,공유) 10-02(구),성동구 금호동2가 501-124,노상 주차장,시간제 + 거주자 주차장,02-2204-7970,1,유료,830,1900,830,1900,830,1900,무료,무료,0,900,30,900,30,10000,37.61933297,127.029859
659,1664367,공유) 12-02(구),성동구 금호동4가 633-0,노상 주차장,시간제 + 거주자 주차장,02-2204-7970,1,유료,830,1900,830,1900,830,1900,무료,무료,0,900,30,900,30,10000,37.62216847,127.028731
660,1664399,공유) 03-14(구),성동구 도선동 338-0,노상 주차장,시간제 + 거주자 주차장,02-2204-7970,1,유료,830,1900,830,1900,830,1900,무료,무료,0,900,30,900,30,10000,37.61880994,127.0299231
661,1664402,공유) 18-21(구),성동구 성수동2가 279-1,노상 주차장,시간제 + 거주자 주차장,02-2204-7970,1,유료,830,1900,830,1900,830,1900,무료,무료,0,900,30,900,30,10000,37.62135544,127.029029
662,1664414,공유) 16-17(구),성동구 성수동1가 13-219,노상 주차장,시간제 + 거주자 주차장,02-2204-7970,1,유료,830,1900,830,1900,830,1900,무료,무료,0,900,30,900,30,10000,37.6212428,127.0290717
663,1664425,공유) 15-01(구),성동구 성수동1가 656-488,노상 주차장,시간제 + 거주자 주차장,02-2204-7970,1,유료,830,1900,830,1900,830,1900,무료,무료,0,900,30,900,30,10000,37.61942113,127.0298217
664,1664461,공유) 12-01(구),성동구 금호동4가 1507-0,노상 주차장,시간제 + 거주자 주차장,02-2204-7970,1,유료,830,1900,830,1900,830,1900,무료,무료,0,900,30,900,30,10000,37.61962476,127.0296052
665,1664487,공유) 03-06(구),성동구 홍익동 364-0,노상 주차장,시간제 + 거주자 주차장,02-2204-7970,1,유료,830,1900,830,1900,830,1900,무료,무료,0,900,30,900,30,10000,37.61924297,127.0298982
666,1664520,공유) 16-31(구),성동구 성수동1가 10-3,노상 주차장,시간제 + 거주자 주차장,02-2204-7970,1,유료,830,1900,830,1900,830,1900,무료,무료,0,900,30,900,30,10000,37.61982199,127.029535
667,1664554,공유) 15-06(구),성동구 성수동1가 656-1661,노상 주차장,시간제 + 거주자 주차장,02-2204-7970,1,유료,830,1900,830,1900,830,1900,무료,무료,0,900,30,900,30,10000,37.62131074,127.029047
668,1664612,공유) 16-03(구),성동구 성수동1가 656-1264 ,노상 주차장,시간제 + 거주자 주차장,02-2204-7970,1,유료,830,1900,830,1900,830,1900,무료,무료,0,900,30,900,30,10000,37.62023837,127.0293815
669,1664666,공유) 18-14(구),성동구 성수동2가 278-32,노상 주차장,시간제 + 거주자 주차장,02-2204-7970,1,유료,830,1900,830,1900,830,1900,무료,무료,0,900,30,900,30,10000,37.61896765,127.029859
670,1664695,공유) 09-02(구),성동구 금호동1가 1758-0,노상 주차장,시간제 + 거주자 주차장,02-2204-7970,1,유료,830,1900,830,1900,830,1900,무료,무료,0,900,30,900,30,10000,37.62019367,127.0293995
671,1664728,공유) 16-04(구),성동구 성수동1가 656-373 ,노상 주차장,시간제 + 거주자 주차장,02-2204-7970,1,유료,830,1900,830,1900,830,1900,무료,무료,0,900,30,900,30,10000,37.61932067,127.029719
672,1664765,공유) 16-30(구),성동구 성수동1가 8-49,노상 주차장,시간제 + 거주자 주차장,02-2204-7970,1,유료,830,1900,830,1900,830,1900,무료,무료,0,900,30,900,30,10000,37.62133678,127.028938
673,1664800,공유) 11-05(구),성동구 금호동3가 1331-0,노상 주차장,시간제 + 거주자 주차장,02-2204-7970,1,유료,830,1900,830,1900,830,1900,무료,무료,0,900,30,900,30,10000,37.62129148,127.0289575
674,1664824,공유) 16-06(구),성동구 성수동1가 7-15,노상 주차장,시간제 + 거주자 주차장,02-2204-7970,1,유료,830,1900,830,1900,830,1900,무료,무료,0,900,30,900,30,10000,37.62068002,127.0291974
675,1664952,공유) 16-14(구),성동구 성수동1가 13-219,노상 주차장,시간제 + 거주자 주차장,02-2204-7970,1,유료,830,1900,830,1900,830,1900,무료,무료,0,900,30,900,30,10000,37.62268897,127.0285125
676,1664968,공유) 18-01(구),성동구 성수동2가 284-109,노상 주차장,시간제 + 거주자 주차장,02-2204-7970,1,유료,830,1900,830,1900,830,1900,무료,무료,0,900,30,900,30,10000,37.62064245,127.0293007
677,1665027,공유) 08-10(구),성동구 응봉동 228-55,노상 주차장,시간제 + 거주자 주차장,02-2204-7970,1,유료,830,1900,830,1900,830,1900,무료,무료,0,900,30,900,30,10000,37.62138025,127.0289215
678,1665084,공유) 18-03(구),성동구 성수동2가 289-279 ,노상 주차장,시간제 + 거주자 주차장,02-2204-7970,1,유료,830,1900,830,1900,830,1900,무료,무료,0,900,30,900,30,10000,37.62028126,127.0294579
679,1665096,공유) 18-02(구),성동구 성수동2가 284-68 ,노상 주차장,시간제 + 거주자 주차장,02-2204-7970,1,유료,0,0,0,0,0,0,무료,무료,0,900,30,900,30,10000,37.62142324,127.0289051
680,1665102,공유) 15-03(구),성동구 성수동1가 656-421,노상 주차장,시간제 + 거주자 주차장,02-2204-7970,1,유료,830,1900,830,1900,830,1900,무료,무료,0,900,30,900,30,10000,37.61987358,127.0296174
681,1665172,공유) 16-09(구),성동구 성수동1가 13-298,노상 주차장,시간제 + 거주자 주차장,02-2204-7970,1,유료,830,1900,830,1900,830,1900,무료,무료,,900,30,900,30,10000,37.6217242,127.0287898
682,1665201,공유) 15-25(구),성동구 성수동1가 656-421,노상 주차장,시간제 + 거주자 주차장,02-2204-7970,1,유료,830,1900,830,1900,830,1900,무료,무료,0,900,30,900,30,10000,37.62221616,127.0287106
683,1665231,공유) 08-12(구),성동구 응봉동 265-110,노상 주차장,시간제 + 거주자 주차장,02-2204-7970,1,유료,830,1900,830,1900,830,1900,무료,무료,0,900,30,900,30,10000,37.6208177,127.029148
684,1665251,공유) 10-05(구),성동구 금호동2가 501-36,노상 주차장,시간제 + 거주자 주차장,02-2204-7970,1,유료,830,1900,830,1900,830,1900,무료,무료,0,900,30,900,30,10000,37.61871108,127.0301057
685,1665287,공유) 15-23(구),성동구 성수동1가 656-243,노상 주차장,시간제 + 거주자 주차장,02-2204-7970,1,유료,830,1900,830,1900,830,1900,무료,무료,0,900,30,900,30,10000,37.62175597,127.0288696
686,1665315,공유) 18-11(구),성동구 성수동2가 278-3 ,노상 주차장,시간제 + 거주자 주차장,02-2204-7970,1,유료,830,1900,830,1900,830,1900,무료,무료,0,900,30,900,30,10000,37.61937735,127.0298406
687,1665478,공유) 16-10(구),성동구 성수동1가 13-219,노상 주차장,시간제 + 거주자 주차장,02-2204-7970,1,유료,830,1900,830,1900,830,1900,무료,무료,0,900,30,900,30,10000,37.62058883,127.029231
688,1665511,공유) 15-27(구),성동구 성수동1가 22-27,노상 주차장,시간제 + 거주자 주차장,02-2204-7970,1,유료,830,1900,830,1900,830,1900,무료,무료,0,900,30,900,30,10000,37.62226181,127.0285802
689,1665635,공유) 02-06(구),성동구 하왕십리동 1018-7,노상 주차장,시간제 + 거주자 주차장,02-2204-7970,1,유료,830,1900,830,1900,830,1900,무료,무료,0,900,30,900,30,10000,37.62063353,127.0292131
690,1665642,공유) 04-15(구),성동구 마장동 772-2,노상 주차장,시간제 + 거주자 주차장,02-2204-7970,1,유료,830,1900,830,1900,830,1900,무료,무료,0,900,30,900,30,10000,37.62217122,127.0286146
691,1665670,공유) 03-10(구),성동구 홍익동 429-0,노상 주차장,시간제 + 거주자 주차장,02-2204-7970,1,유료,830,1900,830,1900,830,1900,무료,무료,0,900,30,900,30,10000,37.6197055,127.0296847
692,1665721,공유) 02-10(구),성동구 행당동 325-6,노상 주차장,시간제 + 거주자 주차장,02-2204-7970,1,유료,830,1900,830,1900,830,1900,무료,무료,0,900,30,900,30,10000,37.61875584,127.0300869
693,1665746,공유) 04-18(구),성동구 마장동 790-1,노상 주차장,시간제 + 거주자 주차장,02-2204-7970,1,유료,830,1900,830,1900,830,1900,무료,무료,0,900,30,900,30,10000,37.62082841,127.0292356
694,1665753,공유) 07-05(구),성동구 행당동 341-102,노상 주차장,시간제 + 거주자 주차장,02-2204-7970,1,유료,830,1900,830,1900,830,1900,무료,무료,0,900,30,900,30,10000,37.62163122,127.0288257
695,1665843,공유) 03-01(구),성동구 홍익동 437-0,노상 주차장,시간제 + 거주자 주차장,02-2204-7970,1,유료,830,1900,830,1900,830,1900,무료,무료,0,900,30,900,30,10000,37.62212398,127.0287498
696,1665898,공유) 04-55(구),성동구 마장동 829-0,노상 주차장,시간제 + 거주자 주차장,02-2204-7970,1,유료,830,1900,830,1900,830,1900,무료,무료,0,900,30,900,30,10000,37.61914633,127.0297887
697,1665982,공유) 05-05(구),성동구 행당동 4-12,노상 주차장,시간제 + 거주자 주차장,02-2204-7970,1,유료,830,1900,830,1900,830,1900,무료,무료,0,900,30,900,30,10000,37.62181479,127.0287569
698,1666023,공유) 03-07(구),성동구 도선동 414-0,노상 주차장,시간제 + 거주자 주차장,02-2204-7970,1,유료,830,1900,830,1900,830,1900,무료,무료,0,900,30,900,30,10000,37.62037605,127.0293254
699,1666061,공유) 04-50(구),성동구 마장동 777-3,노상 주차장,시간제 + 거주자 주차장,02-2204-7970,1,유료,830,1900,830,1900,830,1900,무료,무료,0,900,30,900,30,10000,37.61871925,127.0299587
700,1666106,공유) 04-02(구),성동구 마장동 456-3,노상 주차장,시간제 + 거주자 주차장,02-2204-7970,1,유료,830,1900,830,1900,830,1900,무료,무료,0,900,30,900,30,10000,37.62221651,127.0285982
701,1666158,공유) 05-09(구),성동구 사근동 293-7,노상 주차장,시간제 + 거주자 주차장,02-2204-7970,1,유료,830,1900,830,1900,830,1900,무료,무료,0,900,30,900,30,10000,37.62270198,127.0285654
702,1666166,공유) 04-19(구),성동구 마장동 792-0,노상 주차장,시간제 + 거주자 주차장,02-2204-7970,1,유료,830,1900,830,1900,830,1900,무료,무료,0,900,30,900,30,10000,37.62073722,127.0292716
703,1666172,공유) 06-05(구),성동구 행당동 279-6,노상 주차장,시간제 + 거주자 주차장,02-2204-7970,1,유료,830,1900,830,1900,830,1900,무료,무료,0,900,30,900,30,10000,37.61992105,127.0294945
704,1666203,공유) 04-01(구),성동구 하왕십리동 258-0,노상 주차장,시간제 + 거주자 주차장,02-2204-7970,1,유료,830,1900,830,1900,830,1900,무료,무료,0,900,30,900,30,10000,37.62263055,127.028565
705,1666218,공유) 04-04(구),성동구 마장동 460-22,노상 주차장,시간제 + 거주자 주차장,02-2204-7970,1,유료,830,1900,830,1900,830,1900,무료,무료,0,900,30,900,30,10000,37.62266571,127.0286092
706,1666236,공유) 04-24(구),성동구 마장동 497-12,노상 주차장,시간제 + 거주자 주차장,02-2204-7970,1,유료,830,1900,830,1900,830,1900,무료,무료,0,900,30,900,30,10000,37.61936812,127.0297
707,1666246,공유) 05-08(구),성동구 사근동 190-62,노상 주차장,시간제 + 거주자 주차장,02-2204-7970,1,유료,830,1900,830,1900,830,1900,무료,무료,0,900,30,900,30,10000,37.62086419,127.02913
708,1666271,공유) 06-11(구),성동구 행당동 317-31,노상 주차장,시간제 + 거주자 주차장,02-2204-7970,1,유료,830,1900,830,1900,830,1900,무료,무료,0,900,30,900,30,10000,37.61946595,127.0298025
709,1666278,공유) 06-02(구),성동구 행당동 139-0,노상 주차장,시간제 + 거주자 주차장,02-2204-7970,1,유료,830,1900,830,1900,830,1900,무료,무료,0,900,30,900,30,10000,37.62269671,127.028538
710,1666312,공유) 04-23(구),성동구 마장동 459-6,노상 주차장,시간제 + 거주자 주차장,02-2204-7970,1,유료,830,1900,830,1900,830,1900,무료,무료,0,900,30,900,30,10000,37.61928863,127.0298782
711,1666356,공유) 04-17(구),성동구 마장동 767-62,노상 주차장,시간제 + 거주자 주차장,02-2204-7970,1,유료,830,1900,830,1900,830,1900,무료,무료,0,900,30,900,30,10000,37.62226145,127.028692
712,1666409,공유) 04-22(구),성동구 마장동 399-58,노상 주차장,시간제 + 거주자 주차장,02-2204-7970,1,유료,830,1900,830,1900,830,1900,무료,무료,0,900,30,900,30,10000,37.62242393,127.0285188
713,1666429,공유) 06-22(구),성동구 행당동 345-0,노상 주차장,시간제 + 거주자 주차장,02-2204-7970,1,유료,830,1900,830,1900,830,1900,무료,무료,0,900,30,900,30,10000,37.61880162,127.030069
714,1666437,공유) 04-20(구),성동구 마장동 794-2,노상 주차장,시간제 + 거주자 주차장,02-2204-7970,1,유료,830,1900,830,1900,830,1900,무료,무료,0,900,30,900,30,10000,37.62212592,127.0286326
715,1666562,공유) 02-08(구),성동구 하왕십리동 970-71,노상 주차장,시간제 + 거주자 주차장,02-2204-7970,1,유료,830,1900,830,1900,830,1900,무료,무료,0,900,30,900,30,10000,37.62154181,127.0288617
716,1666862,공유) 04-12(구),성동구 마장동 514-2,노상 주차장,시간제 + 거주자 주차장,02-2204-7970,1,유료,830,1900,830,1900,830,1900,무료,무료,0,900,30,900,30,10000,37.61909683,127.0299559
717,1666917,공유) 04-14(구),성동구 마장동 769-3,노상 주차장,시간제 + 거주자 주차장,02-2204-7970,1,유료,830,1900,830,1900,830,1900,무료,무료,0,900,30,900,30,10000,37.61891365,127.0298824
718,1666952,공유) 02-07(구),성동구 하왕십리동 978-2,노상 주차장,시간제 + 거주자 주차장,02-2204-7970,1,유료,830,1900,830,1900,830,1900,무료,무료,50000,900,30,900,30,10000,37.62028307,127.0293613
719,1667005,공유) 04-49(구),성동구 마장동 797-15,노상 주차장,시간제 + 거주자 주차장,02-2204-7970,1,유료,830,1900,830,1900,830,1900,무료,무료,0,900,30,900,30,10000,37.62087311,127.0292199
720,1667078,공유) 20-34(구),성동구 용답동 249-8,노상 주차장,시간제 + 거주자 주차장,02-2204-7970,1,유료,830,1900,830,1900,830,1900,무료,무료,0,900,30,900,30,10000,37.62078192,127.0292513
721,1667087,공유) 04-16(구),성동구 마장동 818-0,노상 주차장,시간제 + 거주자 주차장,02-2204-7970,1,유료,830,1900,830,1900,830,1900,무료,무료,0,900,30,900,30,10000,37.62265859,127.0285836
722,1667153,공유)  성동 06-23(구),성동구 행당동 381-6,노상 주차장,시간제 + 거주자 주차장,,1,유료,0,0,0,0,0,0,무료,무료,0,100,5,0,0,0,37.62271874,127.0286197
723,1667244,공유) 17-22(구),성동구 성수동2가 496-1,노상 주차장,시간제 + 거주자 주차장,02-2204-7970,1,유료,830,1900,830,1900,830,1900,무료,무료,0,900,30,900,30,10000,37.62184538,127.0288337
724,1667299,공유) 18-10(구),성동구 성수동2가 277-54,노상 주차장,시간제 + 거주자 주차장,02-2204-7970,1,유료,830,1900,830,1900,830,1900,무료,무료,0,900,30,900,30,10000,37.6223083,127.0285637
725,1667319,공유) 18-43(구),성동구 성수동2가 301-80,노상 주차장,시간제 + 거주자 주차장,02-2204-7970,1,유료,830,1900,830,1900,830,1900,무료,무료,0,900,30,900,30,10000,37.61867586,127.0299784
726,1667346,공유) 17-02(구),성동구 성수동2가 333-139,노상 주차장,시간제 + 거주자 주차장,02-2204-7970,1,유료,830,1900,830,1900,830,1900,무료,무료,0,900,30,900,30,10000,37.62171127,127.0288876
727,1667351,공유) 20-26(구),성동구 용답동 28-1 ,노상 주차장,시간제 + 거주자 주차장,02-2204-7970,1,유료,830,1900,830,1900,830,1900,무료,무료,0,900,30,900,30,10000,37.62166752,127.0289064
728,1667362,공유) 17-44(구),성동구 성수동2가 712-0,노상 주차장,시간제 + 거주자 주차장,02-2204-7970,1,유료,830,1900,830,1900,830,1900,무료,무료,0,900,30,900,30,10000,37.61910151,127.0298066
729,1667423,공유) 18-44(구),성동구 성수동2가 314-8 ,노상 주차장,시간제 + 거주자 주차장,02-2204-7970,1,유료,830,1900,830,1900,830,1900,무료,무료,0,900,30,900,30,10000,37.6201543,127.0295051
730,1667469,공유) 17-41(구),성동구 성수동2가 639-0,노상 주차장,시간제 + 거주자 주차장,02-2204-7970,1,유료,830,1900,830,1900,830,1900,무료,무료,0,900,30,900,30,10000,37.62272619,127.028647
731,1667516,공유) 20-33(구),성동구 용답동 180-0 ,노상 주차장,시간제 + 거주자 주차장,02-2204-7970,1,유료,830,1900,830,1900,830,1900,무료,무료,0,900,30,900,30,10000,37.62266051,127.0285386
732,1667644,공유) 18-41(구),성동구 성수동2가 276-4 ,노상 주차장,시간제 + 거주자 주차장,02-2204-7970,1,유료,830,1900,830,1900,830,1900,무료,무료,0,900,30,900,30,10000,37.61876416,127.02994
733,1667675,공유) 17-16(구),성동구 성수동2가 330-4,노상 주차장,시간제 + 거주자 주차장,02-2204-7970,1,유료,830,1900,830,1900,830,1900,무료,무료,0,900,30,900,30,10000,37.62156107,127.0289459
734,1667693,공유) 20-11(구),성동구 용답동 9-9 ,노상 주차장,시간제 + 거주자 주차장,02-2204-7970,1,유료,830,1900,830,1900,830,1900,무료,무료,0,900,30,900,30,10000,37.57107424,126.9731594
735,1667708,공유) 17-37(구),성동구 성수동2가 590-1,노상 주차장,시간제 + 거주자 주차장,02-2204-7970,1,유료,830,1900,830,1900,830,1900,무료,무료,0,900,30,900,30,10000,37.56983402,126.9815059
736,1667760,공유) 18-18(구),성동구 성수동2가 277-55 ,노상 주차장,시간제 + 거주자 주차장,02-2204-7970,1,유료,830,1900,830,1900,830,1900,무료,무료,0,900,30,900,30,10000,37.56328524,127.056283
737,1667801,공유) 17-11(구),성동구 성수동2가 268-0,노상 주차장,시간제 + 거주자 주차장,02-2204-7970,1,유료,830,1900,830,1900,830,1900,무료,무료,0,900,30,900,30,10000,37.58411794,126.9698478
738,1667823,공유) 20-21(구),성동구 용답동 158-4,노상 주차장,시간제 + 거주자 주차장,02-2204-7970,1,유료,830,1900,830,1900,830,1900,무료,무료,0,900,30,900,30,10000,37.4954652,126.8392484
739,1667921,공유) 17-24(구),성동구 성수동2가 491-1,노상 주차장,시간제 + 거주자 주차장,02-2204-7970,1,유료,830,1900,830,1900,830,1900,무료,무료,0,900,30,900,30,10000,37.48728845,126.8391832
740,1667955,공유) 20-13(구),성동구 용답동 6-1 ,노상 주차장,시간제 + 거주자 주차장,02-2204-7970,1,유료,830,1900,830,1900,830,1900,무료,무료,0,900,30,900,30,10000,37.56387377,127.0819848
741,1668027,공유) 17-13(구),성동구 성수동2가 272-41 ,노상 주차장,시간제 + 거주자 주차장,02-2204-7970,1,유료,830,1900,830,1900,830,1900,무료,무료,0,900,30,900,30,10000,37.58652245,126.9210871
742,1668048,공유) 20-23(구),성동구 용답동 159-10 ,노상 주차장,시간제 + 거주자 주차장,02-2204-7970,1,유료,830,1900,830,1900,830,1900,무료,무료,0,900,30,900,30,10000,37.53380376,127.0816038
743,1668063,공유) 20-15(구),성동구 용답동 24-37 ,노상 주차장,시간제 + 거주자 주차장,02-2204-7970,1,유료,830,1900,830,1900,830,1900,무료,무료,0,900,30,900,30,10000,37.58901132,127.0691229
744,1668066,공유) 17-40(구),성동구 성수동2가 182-55,노상 주차장,시간제 + 거주자 주차장,02-2204-7970,1,유료,830,1900,830,1900,830,1900,무료,무료,0,900,30,900,30,10000,37.43718971,126.9042102
745,1668088,공유) 19-19(구),성동구 송정동 100-31 ,노상 주차장,시간제 + 거주자 주차장,02-2204-7970,1,유료,830,1900,830,1900,830,1900,무료,무료,0,900,30,900,30,10000,37.47633196,126.9018971
746,1668117,공유) 17-12(구),성동구 성수동2가 269-16 ,노상 주차장,시간제 + 거주자 주차장,02-2204-7970,1,유료,830,1900,830,1900,830,1900,무료,무료,0,900,30,900,30,10000,37.51332538,126.9140778
747,1668140,공유) 17-25(구),성동구 성수동2가 442-0,노상 주차장,시간제 + 거주자 주차장,02-2204-7970,1,유료,830,1900,830,1900,830,1900,무료,무료,0,900,30,900,30,10000,37.58919215,127.0757948
748,1668177,공유) 18-32(구),성동구 성수동2가 301-31,노상 주차장,시간제 + 거주자 주차장,02-2204-7970,1,유료,830,1900,830,1900,830,1900,무료,무료,0,900,30,900,30,10000,37.48895873,126.9923298
749,1668187,공유) 18-33(구),성동구 성수동2가 301-79 ,노상 주차장,시간제 + 거주자 주차장,02-2204-7970,1,유료,830,1900,830,1900,830,1900,무료,무료,0,900,30,900,30,10000,37.52529597,127.1060433
750,1668257,공유) 19-17(구),성동구 송정동 68-57,노상 주차장,시간제 + 거주자 주차장,02-2204-7970,1,유료,830,1900,830,1900,830,1900,무료,무료,0,900,30,900,30,10000,37.63611845,127.0210184
751,1668377,공유) 20-14(구),성동구 용답동 180-0 ,노상 주차장,시간제 + 거주자 주차장,02-2204-7970,1,유료,830,1900,830,1900,830,1900,무료,무료,0,900,30,900,30,10000,37.63589295,127.0202763
752,1668394,공유) 19-12(구),성동구 송정동 89-1,노상 주차장,시간제 + 거주자 주차장,02-2204-7970,1,유료,830,1900,830,1900,830,1900,무료,무료,0,900,30,900,30,10000,37.63577262,127.019924
753,1668414,공유) 18-48(구),성동구 성수동2가 273-60 ,노상 주차장,시간제 + 거주자 주차장,02-2204-7970,1,유료,830,1900,830,1900,830,1900,무료,무료,0,900,30,900,30,10000,37.63610008,127.0212525
754,1668447,공유) 17-31(구),성동구 성수동2가 331-79,노상 주차장,시간제 + 거주자 주차장,02-2204-7970,1,유료,830,1900,830,1900,830,1900,무료,무료,0,900,30,900,30,10000,37.6358858,127.0202493
755,1668481,공유) 17-26(구),성동구 성수동2가 403-4,노상 주차장,시간제 + 거주자 주차장,02-2204-7970,1,유료,830,1900,830,1900,830,1900,무료,무료,0,900,30,900,30,10000,37.63608335,127.0212
756,1668498,공유) 19-04(구),성동구 송정동 73-930,노상 주차장,시간제 + 거주자 주차장,02-2204-7970,1,유료,830,1900,830,1900,830,1900,무료,무료,0,900,30,900,30,10000,37.63511674,127.0193453
757,1668509,공유) 18-15(구),성동구 성수동2가 277-25,노상 주차장,시간제 + 거주자 주차장,02-2204-7970,1,유료,830,1900,830,1900,830,1900,무료,무료,0,900,30,900,30,10000,37.63615604,127.0214668
758,1668615,공유) 18-34(구),성동구 성수동2가 302-34 ,노상 주차장,시간제 + 거주자 주차장,02-2204-7970,1,유료,830,1900,830,1900,830,1900,무료,무료,0,900,30,900,30,10000,37.63563794,127.0195246
759,1668761,공유) 15-10(구),성동구 성수동2가 843-0,노상 주차장,시간제 + 거주자 주차장,02-2204-7970,1,유료,830,1900,830,1900,830,1900,무료,무료,0,900,30,900,30,10000,37.63567441,127.0195984
760,1668934,공유) 17-38(구),성동구 성수동2가 590-1,노상 주차장,시간제 + 거주자 주차장,02-2204-7970,1,유료,830,1900,830,1900,830,1900,무료,무료,0,900,30,900,30,10000,37.63573101,127.0198222
761,1669036,공유) 18-29(구),성동구 성수동2가 277-37,노상 주차장,시간제 + 거주자 주차장,02-2204-7970,1,유료,830,1900,830,1900,830,1900,무료,무료,0,900,30,900,30,10000,37.63622994,127.0214204
762,1669067,공유) 18-36(구),성동구 성수동2가 315-109 ,노상 주차장,시간제 + 거주자 주차장,02-2204-7970,1,유료,830,1900,830,1900,830,1900,무료,무료,0,900,30,900,30,10000,37.63613936,127.0214098
763,1669073,공유) 18-40(구),성동구 성수동2가 273-39 ,노상 주차장,시간제 + 거주자 주차장,02-2204-7970,1,유료,830,1900,830,1900,830,1900,무료,무료,0,900,30,900,30,10000,37.63521267,127.0194652
764,1669094,공유) 18-45(구),성동구 성수동2가 317-2 ,노상 주차장,시간제 + 거주자 주차장,02-2204-7970,1,유료,830,1900,830,1900,830,1900,무료,무료,0,900,30,900,30,10000,37.63613432,127.0210758
765,1669107,공유) 18-46(구),성동구 성수동2가 273-12,노상 주차장,시간제 + 거주자 주차장,02-2204-7970,1,유료,830,1900,830,1900,830,1900,무료,무료,0,900,30,900,30,10000,37.63566318,127.0195744
766,1671497,국민대앞북악주차(구),성북구 정릉동 880-1 ,노상 주차장,시간제 주차장,,1,유료,0,2400,0,2400,0,2400,무료,무료,100000,150,5,300,10,10000,37.63525498,127.0194967
767,1676963,비석거리 노상 공영주차장(구),송파구 가락동 95-6,노상 주차장,시간제 주차장,,1,유료,900,2100,900,2100,900,2100,무료,무료,70000,100,5,0,0,0,37.6358036,127.020002
768,1682217,문정골길 노상 공영주차장(구),송파구 문정동 41-14,노상 주차장,시간제 주차장,,1,유료,1000,2200,1000,2200,1000,2200,무료,무료,0,150,5,0,0,0,37.63576309,127.0199001
769,1684761,새마을시장 노상공영주차장(구),송파구 잠실동 284-0,노상 주차장,시간제 주차장,,1,유료,900,1800,900,1800,900,1800,무료,무료,0,250,5,250,5,0,37.63516619,127.0194554
770,1702698,공유) 신당5동 06(001~014구간)(구),중구 신당동 123-1,노상 주차장,시간제 + 거주자 주차장,02-3396-6264,1,유료,0,2359,0,2359,0,2359,무료,무료,0,1200,60,600,30,0,37.63595794,127.0207842
771,1702706,공유) 다산동 03(001~055구간)(구),중구 신당동 432-462,노상 주차장,시간제 + 거주자 주차장,02-3396-6264,1,유료,0,2359,0,2359,0,2359,무료,무료,0,300,30,300,30,0,37.6357415,127.0198486
772,1702736,공유) 장충동 10(005~009구간)(구),중구 장충동2가 193-239,노상 주차장,시간제 + 거주자 주차장,02-3396-6264,1,유료,0,2359,0,2359,0,2359,무료,무료,0,600,30,600,30,0,37.63616738,127.0211838
773,1702905,공유) 동화동 07(003~012구간)(구),중구 신당동 50-13,노상 주차장,시간제 + 거주자 주차장,02-3396-6264,1,유료,0,2359,0,2359,0,2359,무료,무료,0,600,30,600,30,0,37.63631448,127.0218895
774,1703004,공유) 명동 08(001~003구간)(구),중구 충무로2가 48-5,노상 주차장,시간제 + 거주자 주차장,02-3396-6264,1,유료,0,2359,0,2359,0,2359,무료,무료,0,600,30,600,30,0,37.63605722,127.0208088
775,1703042,공유) 광희동 01(001~007구간)(구),중구 쌍림동 205-6,노상 주차장,시간제 + 거주자 주차장,02-3396-6264,1,유료,0,2359,0,2359,0,2359,무료,무료,0,600,30,600,30,0,37.63583219,127.0200799
776,1703070,공유) 필동로(구),중구 필동3가 128-8,노상 주차장,시간제 + 거주자 주차장,02-3396-6264,1,유료,0,2359,0,2359,0,2359,무료,무료,0,1200,60,600,30,0,37.63575237,127.0198731
777,1703129,공유) 국립중앙의료원(구),중구 을지로6가 18-218,노상 주차장,시간제 + 거주자 주차장,,1,유료,0,2359,0,2359,0,2359,무료,무료,,1500,30,1500,30,,37.63631677,127.0219496
778,1703473,공유) 중림동 11(001~009구간)(구),중구 중림동 401-1,노상 주차장,시간제 + 거주자 주차장,02-3396-6264,1,유료,0,2359,0,2359,0,2359,무료,무료,0,600,30,600,30,0,37.63506853,127.0193456
779,1703532,공유) 회현동 12(005~013구간)(구),중구 남대문로5가 823-2,노상 주차장,시간제 + 거주자 주차장,02-3396-6264,1,유료,0,2359,0,2359,0,2359,무료,무료,0,600,30,600,30,0,37.63632336,127.0222522
780,1703739,공유) 중림동 11(010~020구간)(구),중구 중림동 195-0,노상 주차장,시간제 + 거주자 주차장,02-3396-6264,1,유료,0,2359,0,2359,0,2359,무료,무료,0,600,30,600,30,0,37.63605479,127.0211041
781,1703994,공유) 청구동 05(001~013구간)(구),중구 신당동 340-20,노상 주차장,시간제 + 거주자 주차장,02-3396-6264,1,유료,0,2359,0,2359,0,2359,무료,무료,0,600,30,600,30,0,37.63568701,127.0196224
782,1704085,공유) 광희동 01(014~019구간)(구),중구 신당동 229-56,노상 주차장,시간제 + 거주자 주차장,02-3396-6264,1,유료,0,2359,0,2359,0,2359,무료,무료,0,600,30,600,30,0,37.63511792,127.0194547
783,1704548,공유) 진양상가1구간 1-01면(구),중구 충무로4가 120-3,노상 주차장,시간제 + 거주자 주차장,02-3396-6264,1,유료,900,1900,900,1500,0,0,무료,무료,0,1500,30,500,10,0,37.63627521,127.0215897
784,1704676,서소문올리브타워 옆(구),중구 서소문동 135-1,노상 주차장,시간제 주차장,02-2280-8360,1,유료,900,2000,900,1600,0,0,무료,유료,250000,500,5,500,5,0,37.63615118,127.0211304
785,1706235,공유) 중화2동 11구간(구),중랑구 중화동 61-4,노상 주차장,시간제 + 거주자 주차장,02-1661-5806,1,유료,900,1800,0,0,0,0,무료,무료,0,600,60,300,30,0,37.63578215,127.0199495
786,1708094,공유) 면목5동 14구간(구),중랑구 면목동 1507-15,노상 주차장,시간제 + 거주자 주차장,02-1661-5806,1,유료,900,1800,0,0,0,0,무료,무료,0,600,60,300,30,0,37.63596919,127.0205209
787,1708452,공유) 면목본동 22구간(구),중랑구 면목동 1507-7,노상 주차장,시간제 + 거주자 주차장,02-1661-5806,1,유료,900,1800,0,0,0,0,무료,무료,0,600,60,300,30,0,37.63593797,127.0204607
788,1709564,공유) 면목2동 10구간(59~61)(구),중랑구 면목동 294-10,노상 주차장,시간제 + 거주자 주차장,02-1661-5806,1,유료,900,1800,0,0,0,0,무료,무료,0,600,60,300,30,0,37.63564983,127.0195492
789,1709791,공유) 면목2동 10구간(25~27)(구),중랑구 면목동 294-30,노상 주차장,시간제 + 거주자 주차장,02-1661-5806,1,유료,900,1800,0,0,0,0,무료,무료,0,600,60,300,30,0,37.63590129,127.0203033
790,171721,세종로 공영주차장(시),종로구 세종로 80-1,노외 주차장,시간제 주차장,02-2290-6566,1260,유료,0,2400,0,2400,0,2400,무료,무료,252000,430,5,430,5,0,37.63631875,127.0220091
791,171724,서인사마당공영(구),종로구 견지동 85-18,노외 주차장,시간제 주차장,02-2236-0052,45,유료,800,2200,800,2200,800,2200,무료,무료,250000,400,5,400,5,,37.63594174,127.0207254
792,171730,종묘주차장 공영주차장(시),종로구 훈정동 2-0,노외 주차장,시간제 주차장,02-2290-6166,1317,유료,0,2400,0,2400,0,2400,무료,무료,180000,400,5,400,5,0,37.63624424,127.0214773
793,1717751,거주자우선(IOT공유)(구),영등포구 대림동 711-0,노상 주차장,시간제 + 거주자 주차장,,1,유료,900,1800,900,1800,900,1800,무료,무료,,1200,60,600,30,,37.63592936,127.0204354
794,171778,명광교회공영주차장(구),종로구 명륜3가 12-0,노외 주차장,시간제 주차장,02-2236-0052,8,유료,0,2400,0,2400,0,2400,무료,무료,180000,250,5,250,5,0,37.63594574,127.0204862
795,171802,창신1동공영주차장(창일공영)(구),종로구 창신동 82-0,노외 주차장,시간제 + 거주자 주차장,02-2236-0052,86,유료,900,1800,900,1800,900,1800,무료,무료,0,2000,240,,,5000,37.63618358,127.0212396
796,171810,동묘공영주차장(구),종로구 숭인동 227-8,노외 주차장,시간제 + 거주자 주차장,02-2236-0052,27,유료,900,1800,0,0,0,0,무료,무료,,400,5,400,5,,37.63597509,127.0208394
797,171830,다동공원 제4부지 공영주차장(구),중구 다동 39-3,노외 주차장,시간제 + 거주자 주차장,02-756-7008,15,유료,900,2300,900,2300,0,0,무료,무료,350000,400,5,400,5,0,37.63590843,127.0203288
798,171900,훈련원공원 공영주차장(시),중구 을지로5가 40-3,노외 주차장,시간제 주차장,02-3405-4597,873,유료,0,2400,0,2400,0,2400,무료,무료,252000,550,5,550,5,,37.63579169,127.0199765
799,171901,묵정공원지하 공영주차장(구),중구 충무로5가 21-0,노외 주차장,시간제 주차장,02-2280-8368,491,유료,0,2400,0,2400,0,2400,무료,무료,350000,400,5,400,5,0,37.63632158,127.0221953
800,171914,초동 공영주차장(구),중구 초동 64-11,노외 주차장,시간제 + 거주자 주차장,02-2261-8360,73,유료,700,2300,1000,1900,800,1700,무료,무료,200000,400,5,400,5,0,37.63516382,127.0193453
801,171924,동화동 공영주차장(구),중구 신당동 52-7,노외 주차장,시간제 + 거주자 주차장,02-2280-8368,220,유료,0,2400,0,2400,0,2400,무료,무료,140000,150,5,150,5,0,37.55102716,126.9364628
802,171931,신당역 공영주차장(구),중구 신당동 140-29,노외 주차장,시간제 + 거주자 주차장,02-2280-8368,26,유료,0,2400,0,2400,0,2400,무료,무료,240000,250,5,250,5,0,37.48490117,126.9221154
803,171932,성곽 공영주차장(구),중구 신당동 432-2026,노외 주차장,시간제 주차장,02-2280-8360,44,유료,0,2400,0,2400,0,2400,무료,무료,140000,150,5,150,5,0,37.5704876,127.0383274
804,171933,청구 공영주차장(구),중구 신당동 330-17,노외 주차장,시간제 + 거주자 주차장,02-2280-8368,51,유료,0,2400,0,2400,0,2400,무료,무료,240000,250,5,250,5,0,37.551642,127.004277
805,171939,충현 공영주차장(구),중구 신당동 432-462,노외 주차장,시간제 주차장,02-2280-8360,97,유료,0,2400,0,2400,0,2400,무료,무료,140000,150,5,150,5,0,37.56836018,127.0104831
806,171941,다산동 공영주차장(구),중구 신당동 432-1584,노외 주차장,시간제 주차장,02-2280-8360,79,유료,0,2400,0,2400,0,2400,무료,무료,140000,150,5,150,5,0,37.56819448,127.0109259
807,171944,버티 공영주차장(구),중구 신당동 432-1693,노외 주차장,시간제 주차장,02-2280-8360,93,유료,0,2400,0,2400,0,2400,무료,무료,140000,150,5,150,5,0,37.5683053,127.0106377
808,171945,동산 공영주차장(구),중구 신당동 333-260,노외 주차장,시간제 + 거주자 주차장,02-2280-8368,83,유료,0,2400,0,2400,0,2400,무료,무료,140000,150,5,150,5,0,37.56825525,127.0107829
809,171953,서소문삼성생명뒤(구),중구 서소문동 122-0,노외 주차장,시간제 주차장,02-310-9588,49,유료,800,2200,900,1800,0,0,무료,유료,0,400,5,400,5,0,37.528464,126.89437
810,171956,문화공영주차장(구),중구 신당동 425-1,노외 주차장,시간제 + 거주자 주차장,02-2252-5314,31,유료,700,2300,900,1800,900,1800,무료,무료,140000,150,5,150,5,0,37.56733736,126.9834345
811,171965,신당사거리 공영주차장(구),중구 신당동 110-1,노외 주차장,시간제 + 거주자 주차장,02-2280-8368,51,유료,0,2400,0,2400,2400,0,무료,무료,240000,250,5,250,5,0,37.55929648,126.9758712
812,171966,약수동 공영주차장(구),중구 신당동 349-234,노외 주차장,시간제 + 거주자 주차장,02-2280-8368,88,유료,0,2400,0,2400,0,2400,무료,무료,140000,150,5,150,5,0,37.55958063,126.9758865
813,171971,장충 공영주차장(구),중구 장충동2가 193-39,노외 주차장,시간제 + 거주자 주차장,02-2280-8368,118,유료,0,2400,0,2400,0,2400,무료,무료,140000,150,5,150,5,0,37.55939137,126.975876
814,171975,손기정체육공원 공영주차장(구),중구 만리동2가 6-1,노외 주차장,시간제 + 거주자 주차장,02-2280-8368,189,유료,0,2400,0,2400,0,2400,무료,무료,140000,150,5,150,5,0,37.55953524,126.9756307
815,171997,서계동공영주차장(구),용산구 서계동 276-5,노외 주차장,시간제 주차장,02-749-5314,36,유료,0,2400,0,2400,0,2400,무료,무료,140000,150,5,150,5,0,37.55944157,126.9756159
816,172005,신창공영주차장(구),용산구 신창동 53-1,노외 주차장,시간제 주차장,02-711-1924,110,유료,0,2400,0,2400,0,2400,무료,무료,140000,150,5,150,5,0,37.50559235,126.8519725
817,172007,용문동 공영주차장(구),용산구 도원동 4-5,노외 주차장,시간제 주차장,02-749-5314,41,유료,0,2400,0,2400,0,2400,무료,무료,98000,150,5,150,5,0,37.56754712,127.0181331
818,172015,용산전자상가3(구),용산구 한강로3가 19-2,노외 주차장,시간제 주차장,02-707-3195,167,유료,800,2200,800,2200,800,2200,무료,무료,130000,250,5,250,5,,37.48968656,126.886952
819,172018,용산전자상가5(구),용산구 한강로3가 2-1,노외 주차장,시간제 주차장,02-707-3164,42,유료,800,2200,800,2200,800,2200,무료,무료,130000,250,5,250,5,,37.53496611,127.0001918
820,172021,용산전자상가2(구),용산구 한강로3가 14-1,노외 주차장,시간제 주차장,02-707-3149,196,유료,800,2200,800,2200,800,2200,무료,무료,130000,250,5,250,5,,37.46943849,126.9045065
821,172027,용산전자상가1(구),용산구 한강로3가 12-0,노외 주차장,시간제 주차장,02-707-3105,202,유료,800,2200,800,2200,800,2200,무료,무료,130000,250,5,250,5,,37.48568215,126.879693
822,172037,한남유수지공영주차장(구),용산구 한남동 522-44,노외 주차장,시간제 주차장,02-749-9631,124,유료,0,2400,0,2400,0,2400,무료,무료,120000,150,5,150,5,0,37.51947074,126.902609
823,172041,이태원2동 공영주차장(구),용산구 이태원동 227-9,노외 주차장,시간제 주차장,02-796-3472,111,유료,0,2400,0,2400,0,2400,무료,무료,160000,250,5,250,5,0,37.63066419,127.0218459
824,172051,한강진 역공영주차장(시),용산구 한남동 728-27,노외 주차장,시간제 주차장,02-795-6406,176,유료,0,2400,0,2400,0,2400,무료,무료,168000,400,5,400,5,0,37.4594198,126.9087125
825,172065,용산주차빌딩 공영주차장(시),용산구 한강로2가 12-9,노외 주차장,시간제 주차장,02-2290-6014,561,유료,0,2400,0,2400,0,2400,무료,무료,168000,300,5,300,5,0,37.45459691,126.9090117
826,172068,용산2가소월주차장(구),용산구 용산동2가 11-0,노외 주차장,시간제 주차장,02-749-5314,56,유료,0,2400,0,2400,0,2400,무료,무료,140000,150,5,150,5,0,37.49906096,127.0546851
827,172083,응봉동(건물) 공영주차장(구),성동구 행당동 341-59,노외 주차장,시간제 주차장,02-2204-7970,150,유료,0,2400,0,2400,0,2400,무료,무료,50000,50,5,500,5,,37.508894,127.097779
828,172084,도선동(지하) 공영주차장(구),성동구 홍익동 369-0,노외 주차장,시간제 주차장,02-2204-7970,190,유료,0,2400,0,2400,0,2400,무료,무료,70000,100,5,100,5,,37.52309456,127.0242926
829,172089,홍익동(건물) 공영주차장(구),성동구 홍익동 252-0,노외 주차장,시간제 주차장,02-2204-7970,85,유료,0,2400,0,2400,0,2400,무료,무료,70000,100,5,100,5,,37.50229995,127.0300608
830,172120,성수1가1동(건물) 공영주차장(구),성동구 성수동1가 656-260,노외 주차장,시간제 주차장,02-2204-7970,93,유료,0,2400,0,2400,0,2400,무료,무료,70000,100,5,100,5,,37.500313,127.154959
831,172130,성수2가3동(건물) 공영주차장(구),성동구 성수동2가 299-19,노외 주차장,시간제 주차장,02-2204-7970,196,유료,0,2400,0,2400,0,2400,무료,무료,70000,100,5,100,5,,37.493639,126.922978
832,172134,성수2가1동(건물) 공영주차장(구),성동구 성수동2가 571-1,노외 주차장,시간제 주차장,02-2204-7970,163,유료,0,2400,0,2400,0,2400,무료,무료,70000,100,5,100,5,,37.49317759,126.9340176
833,172144,강변(건물) 공영주차장(구),성동구 성수동1가 366-1,노외 주차장,시간제 주차장,02-2204-7970,101,유료,0,2400,0,2400,0,2400,무료,무료,,100,5,100,5,,37.51248895,127.0692615
834,172149,용답동(건물) 공영주차장(구),성동구 용답동 4-1,노외 주차장,시간제 주차장,02-2204-7970,164,유료,0,2400,0,2400,0,2400,무료,무료,70000,100,5,100,5,,37.52166886,127.0267945
835,172178,자양유수지 공영주차장(구),광진구 자양동 594-0,노외 주차장,시간제 주차장,02-2049-4596,281,유료,0,2400,0,2400,0,2400,무료,무료,0,150,5,0,0,0,37.50794057,127.118192
836,172184,동서울 노외주차장(구),광진구 구의동 598-1,노외 주차장,시간제 주차장,,25,유료,800,1900,800,1900,0,0,무료,유료,100000,250,5,250,5,30000,37.63735694,127.0733182
837,172198,구의1동 공영주차장(구),광진구 구의동 243-78,노외 주차장,시간제 주차장,02-2049-4596,172,유료,0,2400,0,2400,0,2400,무료,무료,,150,5,0,0,0,37.513126,127.106376
838,172204,능동공영주차장(구),광진구 능동 205-0,노외 주차장,시간제 주차장,02-2049-4596,77,유료,0,2400,0,2400,0,2400,무료,무료,0,150,5,0,0,0,37.48266125,126.970361
839,172215,화양동 공영(구),광진구 화양동 63-2,노외 주차장,시간제 주차장,,44,유료,0,2400,0,2400,0,2400,무료,무료,80000,150,5,150,5,,37.506513,127.109587
840,172218,자양4동 공영주차장(구),광진구 자양동 5-5,노외 주차장,시간제 주차장,02-2049-4595,83,유료,0,2400,0,2400,0,2400,무료,무료,100000,150,5,0,0,0,37.52829835,126.8715291
841,172228,외대역주차빌딩 공영(구),동대문구 이문동 306-14,노외 주차장,시간제 주차장,,84,유료,0,2400,0,2400,0,2400,무료,무료,170000,500,10,500,10,,37.5283488,126.8711348
842,172230,청량리동 노외주차장(구),동대문구 청량리동 51-4,노외 주차장,시간제 + 거주자 주차장,02-2247-9664~6,26,유료,900,1900,900,1900,900,1900,무료,무료,,1000,60,0,0,10000,37.52825714,126.8718126
843,172259,장영당길 공영주차장(구3동)(구),동대문구 답십리동 484-7,노외 주차장,시간제 + 거주자 주차장,02-2247-9664~6,193,유료,900,1900,900,1900,900,1900,무료,무료,,1000,60,0,0,10000,37.52838126,126.8709057
844,172272,동답 공영주차장(구),동대문구 답십리동 2-283,노외 주차장,시간제 + 거주자 주차장,02-2247-9664~6,67,유료,900,1900,900,1900,900,1900,무료,무료,,1000,60,0,0,10000,37.52817943,126.8715
845,172282,회기동 공영주차장(구),동대문구 회기동 1-1,노외 주차장,시간제 + 거주자 주차장,02-2247-9664~6,100,유료,900,1900,900,1900,900,1900,무료,무료,,1000,60,0,0,10000,37.52833676,126.8712226
846,172297,청량리동 공영주차장(구),동대문구 청량리동 435-0,노외 주차장,시간제 + 거주자 주차장,02-2247-9664~6,67,유료,900,1900,900,1900,900,1900,무료,무료,,1000,60,0,0,10000,37.52835344,126.8711043
847,172303,늘봄주차장(구),중랑구 면목동 22-12,노외 주차장,시간제 주차장,02-437-1987,72,유료,0,2400,0,2400,0,2400,무료,무료,50000,100,5,100,5,0,37.52834131,126.8711942
848,172318,용마폭포공원공영주차장(구),중랑구 면목동 1-4,노외 주차장,시간제 + 거주자 주차장,,119,유료,900,2100,900,2100,0,0,무료,무료,70000,100,5,100,5,,37.52824391,126.8719045
849,172321,까치공원공영주차장(구),중랑구 면목동 570-0,노외 주차장,시간제 주차장,080-490-3894,90,유료,0,2400,0,2400,0,2400,무료,무료,50000,100,5,100,5,0,37.52823801,126.8719517
850,172344,원묵 고등학교 공용 지하주차장(구),중랑구 묵동 23-0,노외 주차장,시간제 주차장,,107,유료,0,0,0,0,0,0,유료,유료,50000,50,5,50,5,0,37.52817112,126.871555
851,172367,은행나무공영주차장(구),중랑구 면목동 107-5,노외 주차장,시간제 주차장,,97,유료,0,2400,0,2400,0,2400,무료,무료,50000,100,5,100,5,0,37.52830275,126.8714971
852,172378,면목5동공영주차장(구),중랑구 면목동 162-22,노외 주차장,시간제 주차장,02-432-4174,67,유료,0,2400,0,2400,0,2400,무료,무료,50000,100,5,100,5,0,37.52834449,126.8711641
853,172382,봉화산역(남) 공영주차장(시),중랑구 신내동 647-0,노외 주차장,시간제 주차장,02-1688-1054,88,유료,900,2200,900,2200,900,2200,무료,무료,42000,80,5,80,5,0,37.5282321,126.8719927
854,172384,동원시장공영주차장(구),중랑구 면목동 74-33,노외 주차장,시간제 주차장,,26,유료,0,2400,0,2400,0,2400,무료,무료,50000,100,5,100,5,0,37.52837284,126.870974
855,172385,상봉2동공영주차장(구),중랑구 상봉동 110-38,노외 주차장,시간제 주차장,02-1577-3325,83,유료,0,2400,0,2400,0,2400,무료,무료,50000,100,5,100,5,0,37.52829404,126.8715599
856,172386,중화1동공영주차장(구),중랑구 중화동 29-2,노외 주차장,시간제 주차장,02-438-7489,130,유료,0,2400,0,2400,0,2400,무료,무료,50000,100,5,100,5,,37.52816229,126.8716074
857,172459,시네마빌딩공영주차장(구),성북구 돈암동 538-59,노외 주차장,시간제 주차장,070-8644-8323,100,유료,0,2400,0,2400,0,2400,무료,무료,86000,150,5,150,5,10000,37.52836272,126.8710401
858,172478,벤처빌딩(구),성북구 장위동 65-154,노외 주차장,시간제 주차장,,56,유료,0,2400,0,2400,0,2400,무료,무료,80000,150,5,150,5,10000,37.52822829,126.8711108
859,172480,마을공원(구),성북구 장위동 77-79,노외 주차장,시간제 주차장,,98,유료,0,2400,0,2400,0,2400,무료,무료,96000,150,5,150,5,10000,37.52826426,126.8717645
860,172530,대지시장길 공영주차장(구),강북구 미아동 703-8,노외 주차장,시간제 주차장,02-944-3035,47,유료,0,2400,0,2400,0,2400,무료,무료,100000,200,5,200,5,10000,37.52835818,126.8710724
861,172540,동방고개(구),성북구 장위동 230-110,노외 주차장,시간제 주차장,,66,유료,0,2400,0,2400,0,2400,무료,무료,80000,150,5,150,5,10000,37.52837693,126.8709399
862,172550,송중동 공영주차장(구),강북구 미아동 48-1,노외 주차장,시간제 주차장,02-944-3038,53,유료,0,2400,0,2400,0,2400,무료,무료,100000,200,5,200,5,10000,37.52836726,126.8710057
863,172562,시범 공영주차장(구),강북구 수유동 190-11,노외 주차장,시간제 주차장,02-944-3029,45,유료,800,2200,800,2200,900,1800,무료,무료,,250,5,250,5,15000,37.52828888,126.8715908
864,172563,오패산공영주차장(구),강북구 미아동 133-100,노외 주차장,시간제 주차장,02-944-3041,76,유료,0,2400,0,2400,0,2400,무료,무료,60000,150,5,150,5,10000,37.52824981,126.8718599
865,172564,냉천길 공영주차장(구),강북구 미아동 756-1,노외 주차장,시간제 주차장,02-944-3040,103,유료,0,2400,0,2400,0,2400,무료,무료,100000,200,5,200,5,10000,37.52818701,126.8714434
866,172580,인수동 공영주차장(구),강북구 수유동 126-0,노외 주차장,시간제 주차장,02-944-3045,89,유료,0,2400,0,2400,0,2400,무료,무료,100000,200,5,200,5,10000,37.52822077,126.8711675
867,172582,쌍문2동 2공영주차장(구),도봉구 쌍문동 81-102,노외 주차장,거주자 우선 주차장,02-2091-4215,18,유료,0,0,0,0,0,0,무료,무료,0,0,0,0,0,0,37.56862553,127.0060115
868,172592,도봉2동 법조타운 공영주차장(구),도봉구 도봉동 624-105,노외 주차장,시간제 + 거주자 주차장,02-901-5100,155,유료,900,1800,900,1800,900,1800,무료,무료,0,100,5,100,5,0,37.50246528,126.9111455
869,172594,교통광장 공영주차장(구),강북구 우이동 265-0,노외 주차장,시간제 주차장,02-944-3027,56,유료,0,2400,0,2400,0,2400,무료,무료,100000,200,5,200,5,10000,37.51357817,126.92347
870,172602,창2동4공영주차장(구),도봉구 창동 582-22,노외 주차장,시간제 + 거주자 주차장,02-2091-4215,82,유료,900,1800,900,1800,900,1800,무료,무료,,100,5,100,5,,37.58574745,127.014984
871,172605,우이동 공영주차장(무인)(구),강북구 우이동 105-2,노외 주차장,시간제 주차장,02-944-3044,82,무료,0,0,0,0,0,0,유료,유료,60000,0,0,0,0,0,37.60821867,127.0094212
872,172632,동막골 (구),노원구 상계동 31-0,노외 주차장,시간제 주차장,02-939-7708,38,유료,900,1800,1000,1400,0,0,무료,유료,100000,150,5,150,5,8100,37.57213784,127.0225991
873,172643,수색동공영주차장(구),은평구 수색동 78-2,노외 주차장,시간제 주차장,,111,유료,0,2400,0,2400,0,2400,무료,무료,70000,100,5,100,5,,37.5721271,127.0226665
874,172650,창1동 1공영주차장(구),도봉구 창동 657-37,노외 주차장,시간제 + 거주자 주차장,02-2091-4215,42,유료,900,1800,900,1800,900,1800,무료,무료,0,100,5,100,5,0,37.57060019,127.0176276
875,172663,창3동 1공영주차장(구),도봉구 창동 504-21,노외 주차장,시간제 + 거주자 주차장,02-2091-4215,80,유료,900,1800,900,1800,900,1800,무료,무료,0,100,5,100,5,0,37.57034406,127.0170586
876,172683,새장골공영주차장(구),은평구 불광동 480-352,노외 주차장,시간제 주차장,02-355-5947,40,유료,0,2400,0,2400,0,2400,무료,무료,70000,100,5,100,5,,37.57146299,127.0193178
877,172695,건영백화점앞(구),노원구 중계동 507-0,노외 주차장,시간제 주차장,02-949-7705,137,유료,1000,2000,1000,1800,1100,1800,무료,무료,150000,250,5,250,5,16500,37.5713947,127.0191843
878,172696,등나무근린공원(구),노원구 중계동 508-1,노외 주차장,시간제 주차장,02-949-7706,151,유료,1030,2100,1030,2200,0,0,무료,유료,150000,250,5,250,5,16500,37.57063505,127.0176964
879,172703,응암3동 공동주차장(구),은평구 응암동 580-4,노외 주차장,시간제 주차장,02-350-5188,160,유료,0,2400,0,2400,0,2400,무료,무료,70000,100,5,100,5,,37.57211636,127.0227369
880,172707,역말 공영주차장(구),은평구 역촌동 12-42,노외 주차장,거주자 우선 주차장,02-350-5183,47,유료,0,0,0,0,0,0,무료,무료,0,0,0,0,0,0,37.57012955,127.0164019
881,172755,충현동 제1거주자우선주차장(구),서대문구 충정로2가 78-13,노외 주차장,시간제 + 거주자 주차장,02-360-8542~3,63,유료,1000,1900,1000,1900,1000,1900,무료,무료,,50,5,50,5,0,37.57011017,127.0163365
882,172777,갈현1동공영주차장(구),은평구 갈현동 9-112,노외 주차장,시간제 주차장,02-357-5947,61,유료,0,2400,0,2400,0,2400,무료,무료,70000,100,5,100,5,0,37.5719916,127.0206237
883,172844,마포유수지(시),마포구 마포동 36-1,노외 주차장,시간제 + 버스전용 주차장,02-2290-6093,503,유료,0,2400,0,2400,0,2400,무료,무료,162000,220,5,220,5,0,37.57169804,127.0197728
884,172881,상암1 공영주차장(구),마포구 상암동 1621-0,노외 주차장,시간제 주차장,02-373-5401,214,유료,0,2400,0,2400,0,2400,무료,무료,100000,200,5,,,0,37.57216171,127.0224105
885,172904,목동공영주차장(구),양천구 목동 915-0,노외 주차장,시간제 주차장,02-2644-1384,894,유료,700,2200,800,1900,800,1900,무료,무료,70000,150,5,150,5,10000,37.57067078,127.0177646
886,172907,망원1-1 공영주차장(구),마포구 망원동 418-39,노외 주차장,시간제 + 거주자 주차장,02-300-5041,68,유료,900,1700,0,0,0,0,무료,무료,,1000,60,500,30,0,37.57142888,127.0192478
887,172912,염리 공영주차장(구),마포구 염리동 174-3,노외 주차장,시간제 주차장,02-300-5052,135,유료,0,2400,0,2400,0,2400,무료,무료,170000,250,5,250,5,0,37.57015026,127.0164684
888,172916,목2동 월촌(구),양천구 목동 525-0,노외 주차장,시간제 주차장,02-2061-4369,79,유료,0,2400,0,2400,0,2400,무료,무료,50000,50,5,50,5,,37.57077685,127.0179757
889,172923,성산2-1 공영주차장(구),마포구 성산동 199-0,노외 주차장,시간제 + 거주자 주차장,02-300-5041,59,유료,900,1700,0,0,0,0,무료,무료,0,1000,60,500,30,0,37.57167001,127.019713
890,172927,한두공영주차장(구),양천구 목동 610-5,노외 주차장,시간제 주차장,02-2652-2637,39,유료,0,2400,0,2400,0,2400,무료,무료,50000,50,5,50,5,0,37.57023639,127.0167509
891,172934,우리공영주차장(구),양천구 목동 907-8,노외 주차장,시간제 주차장,070-7119-2792,39,유료,900,1900,900,1900,0,0,무료,유료,100000,150,5,150,5,,37.57019149,127.0166074
892,172935,웃우물 공영주차장(시),양천구 신정동 943-25,노외 주차장,시간제 주차장,02-2290-6311,79,유료,0,2400,0,2400,0,2400,무료,무료,140000,220,5,220,5,0,37.57026174,127.0168239
893,172936,광장주차장(구),양천구 목동 907-19,노외 주차장,시간제 주차장,070-7119-2792,42,유료,900,1900,900,1900,0,0,무료,유료,100000,150,5,150,5,,37.57017023,127.0165343
894,172937,목동체비지 공영주차장(시),양천구 목동 908-26,노외 주차장,시간제 주차장,,56,유료,800,2100,800,2100,800,2100,무료,무료,90000,130,5,130,5,,37.57031598,127.0169854
895,172941,달마을주차장(구),양천구 목동 532-18,노외 주차장,시간제 주차장,010-5318-724,30,유료,0,2400,0,2400,0,2400,무료,무료,50000,50,5,50,5,,37.57210442,127.0228103
896,172943,망원2-1 공영주차장(구),마포구 망원동 428-5,노외 주차장,시간제 + 거주자 주차장,,62,유료,900,1700,0,0,0,0,무료,무료,,1000,60,500,30,0,37.57209467,127.0210653
897,172947,한서 공영주차장(구),마포구 염리동 24-170,노외 주차장,시간제 + 거주자 주차장,02-300-5041,111,유료,900,1700,0,0,0,0,무료,무료,,1000,60,500,30,0,37.57216394,127.0214355
898,172952,목3동 해운주차장(구),양천구 목동 711-6,노외 주차장,시간제 주차장,,64,유료,0,2400,0,2400,0,2400,무료,무료,50000,50,5,50,5,,37.57216859,127.0223392
899,172957,등촌 2-1 공영주차장(구),강서구 등촌동 531-5,노외 주차장,시간제 주차장,02-2645-1578,90,유료,0,0,0,0,0,0,유료,유료,50000,50,5,50,5,2000,37.57037032,127.0171333
900,172962,화곡7-1 공영주차장(구),강서구 화곡동 370-63,노외 주차장,시간제 주차장,02-2699-8671,86,유료,1000,1900,0,0,0,0,유료,유료,50000,50,5,50,5,8000,37.57074755,127.0179317
901,172970,방화역(서) 공영주차장(시),강서구 방화동 829-1,노외 주차장,시간제 주차장,,68,유료,800,2100,800,2100,800,2100,무료,무료,91000,170,5,170,5,0,37.57215893,127.0213678
902,172971,방화역(동) 공영주차장(시),강서구 방화동 830-4,노외 주차장,시간제 주차장,,67,유료,800,2100,800,2100,800,2100,무료,무료,91000,170,5,170,5,0,37.57217485,127.0222579
903,172979,개화산역 공영주차장(시),강서구 방화동 845-0,노외 주차장,시간제 주차장,02-2290-6064,321,유료,0,2400,0,2400,0,2400,무료,무료,91000,170,5,170,5,0,37.57197551,127.0205551
904,172993,화곡5-1 공영주차장(구),강서구 화곡동 1030-33,노외 주차장,시간제 주차장,02-2604-8688,27,유료,0,0,0,0,0,0,유료,유료,50000,50,5,50,5,2000,37.57216873,127.0215082
905,173001,공항동(송정역)(시),강서구 공항동 42-8,노외 주차장,거주자 우선 주차장,,11,유료,0,0,0,0,0,0,무료,무료,0,0,0,0,0,0,37.57210801,127.0211315
906,173005,가양3동 공영주차장(시),강서구 가양동 1488-12,노외 주차장,시간제 주차장,,56,유료,900,1900,900,1500,0,0,무료,유료,140000,200,5,200,5,0,37.57195823,127.0204842
907,173009,화곡2-1 공영주차장(구),강서구 화곡동 167-10,노외 주차장,시간제 주차장,02-2607-1419,59,유료,0,0,0,0,0,0,유료,유료,50000,50,5,50,5,2000,37.57172406,127.0198308
908,173013,화곡6-1 공영주차장(구),강서구 화곡동 1103-6,노외 주차장,시간제 주차장,02-2607-9113,298,유료,0,0,0,0,0,0,유료,유료,70000,100,10,100,10,5000,37.57074267,127.0179095
909,173014,화곡5-2 공영주차장(구),강서구 화곡동 1056-2,노외 주차장,시간제 주차장,02-2604-8688,25,유료,0,0,0,0,0,0,유료,유료,50000,50,5,50,5,2000,37.57207997,127.0209962
910,173018,화곡본-2 공영주차장(구),강서구 화곡동 46-127,노외 주차장,시간제 주차장,02-2607-1570,100,유료,0,0,0,0,0,0,유료,유료,50000,600,60,50,5,2000,37.57175492,127.0198927
911,173019,화곡본-1 공영주차장(구),강서구 화곡동 56-127,노외 주차장,시간제 주차장,02-2600-4250,97,유료,0,0,0,0,0,0,유료,유료,50000,50,5,50,5,2000,37.57267895,126.9967579
912,173020,화곡8-2 공영주차장(구),강서구 화곡동 410-4,노외 주차장,시간제 주차장,02-2607-1571,110,유료,0,0,0,0,0,0,유료,유료,50000,50,5,50,5,2000,37.5730121,126.9967768
913,173021,화곡 8-1 공영주차장(구),강서구 화곡동 410-60,노외 주차장,시간제 주차장,02-2608-1572,53,유료,0,0,0,0,0,0,유료,유료,50000,50,5,50,5,2000,37.57290137,126.9967881
914,173028,화곡5-3 공영주차장(구),강서구 화곡동 1060-18,노외 주차장,시간제 주차장,02-2604-8688,16,유료,0,0,0,0,0,0,유료,유료,50000,50,5,50,5,2000,37.57248168,126.9966381
915,173047,영보빌딩 공영주차장(시),강서구 가양동 1480-10,노외 주차장,시간제 주차장,,79,유료,800,2100,800,2100,800,2100,무료,무료,140000,260,5,260,5,0,37.57278931,126.996793
916,173073,구로5동마을공동주차장(구),구로구 구로동 549-73,노외 주차장,시간제 주차장,02-839-4875,81,유료,900,1800,0,0,0,0,유료,유료,65000,100,5,100,5,0,37.56960045,126.9949789
917,173077,구로3동마을주차장(구),구로구 구로동 797-1,노외 주차장,시간제 주차장,,20,유료,1000,1800,0,0,0,0,유료,유료,50000,50,5,50,5,0,37.56903928,126.995547
918,173091,효봉공영주차장(구),금천구 시흥동 3-129,노외 주차장,시간제 주차장,,69,유료,0,2400,0,2400,0,2400,무료,무료,,65,5,65,5,,37.56921876,126.9955234
919,173093,구로리공원지하주차장(구),구로구 구로동 139-82,노외 주차장,시간제 주차장,,203,유료,0,2400,0,2400,0,2400,무료,무료,105000,150,5,150,5,0,37.56908092,126.9950481
920,173104,고척1동마을공동주차장(구),구로구 고척동 52-54,노외 주차장,시간제 주차장,,88,유료,0,2400,0,2400,0,2400,무료,무료,65000,100,5,100,5,0,37.56953573,126.995482
921,173123,독산1동공영주차장(구),금천구 독산동 1006-94,노외 주차장,시간제 + 거주자 주차장,,66,유료,830,1900,830,1900,830,1900,무료,무료,0,65,5,65,5,0,37.5695689,126.994979
922,173129,독산3동 공영주차장(구),금천구 독산동 898-24,노외 주차장,시간제 주차장,,50,유료,800,1900,800,1900,800,1900,무료,무료,,65,5,65,5,,37.56917369,126.9950363
923,173139,구로2동 마을공동주차장(구),구로구 구로동 317-187,노외 주차장,시간제 주차장,02-837-9650,88,유료,0,2400,0,2400,0,2400,무료,무료,65000,100,5,100,5,0,37.56910086,126.9955402
924,173141,시흥1동 공영주차장(구),금천구 시흥동 555-3,노외 주차장,시간제 주차장,,82,유료,900,1800,900,1800,900,1800,무료,무료,50000,65,5,,,0,37.56898489,126.9950609
925,173150,신길환승(5호선)(구),영등포구 영등포동1가 35-0,노외 주차장,시간제 주차장,02-2677-1401,88,유료,0,2400,0,2400,0,2400,무료,무료,70000,100,5,100,5,0,37.56901767,126.9950578
926,173152,영등포본동제1공영(구),영등포구 영등포동 592-10,노외 주차장,시간제 주차장,02-2677-1401,194,유료,0,2400,0,2400,0,2400,무료,무료,70000,100,5,100,5,0,37.56914518,126.9950416
927,173153,시흥3동 공영주차장(구),금천구 시흥동 942-6,노외 주차장,시간제 + 거주자 주차장,,44,유료,830,1900,830,1900,830,1900,무료,무료,0,65,5,65,5,0,37.56934736,126.9950118
928,173160,가산동공영주차장(구),금천구 가산동 148-28,노외 주차장,시간제 + 거주자 주차장,02-809-0061,130,유료,830,1900,830,1900,830,1900,무료,무료,,65,5,65,5,0,37.56938589,126.9954957
929,173168,상인회주차장(구),금천구 시흥동 886-13,노외 주차장,시간제 주차장,02-808-0811,22,유료,900,1800,900,1800,900,1800,무료,무료,0,1000,30,0,0,0,37.56944573,126.9954916
930,173169,견인보관소 노외(구),금천구 가산동 614-34,노외 주차장,시간제 주차장,02-854-5273,55,유료,0,2400,0,2400,0,2400,무료,무료,100000,300,10,0,0,9000,37.5691333,126.9955392
931,173184,문래근린공원 공영(구),영등포구 문래동3가 60-2,노외 주차장,시간제 주차장,02-2677-1401,41,유료,0,2400,0,2400,0,2400,무료,무료,100000,250,5,250,5,,37.56947483,126.9954868
932,173185,문래동공영(구),영등포구 문래동5가 3-0,노외 주차장,시간제 주차장,02-2677-1401,52,유료,0,2400,0,2400,0,2400,무료,무료,98000,150,5,150,5,0,37.56937739,126.9950066
933,173186,영등포동제1공영(전통시장)(구),영등포구 영등포동2가 230-0,노외 주차장,시간제 주차장,02-2671-1787,34,유료,600,1900,0,0,600,1900,유료,무료,140000,150,5,150,5,0,37.56931467,126.9950139
934,173193,당산1동공영(구),영등포구 당산동3가 6-1,노외 주차장,시간제 주차장,02-2635-2388,91,유료,0,2400,0,2400,0,2400,무료,무료,70000,100,5,100,5,0,37.56900853,126.9955527
935,173206,유수지복개(양평)주차장(구),영등포구 양평동3가 57-3,노외 주차장,시간제 주차장,02-2676-3651,371,유료,0,2400,0,0,0,2400,유료,무료,120000,250,5,250,5,,37.56907039,126.995544
936,173208,당산2동(구),영등포구 당산동 121-105,노외 주차장,시간제 주차장,02-2671-2049,31,유료,0,2400,0,2400,0,2400,무료,무료,140000,150,5,150,5,0,37.56911422,126.9950458
937,173218,영등포동제2공영(구),영등포구 영등포동7가 29-122,노외 주차장,시간제 주차장,02-2634-1308,28,유료,0,2400,0,2400,0,2400,무료,무료,,500,10,500,10,30000,37.569596,126.9954735
938,173235,신길4동 공영주차장(구),영등포구 신길동 236-10,노외 주차장,시간제 주차장,02-2677-1401,22,유료,0,2359,0,2359,0,2359,무료,무료,65000,50,5,50,5,0,37.56954051,126.9949831
939,173238,대림3동 공영주차장(구),영등포구 대림동 745-1,노외 주차장,시간제 주차장,02-2677-1401,105,유료,0,2359,0,2359,0,2359,무료,무료,65000,50,5,50,5,,37.56905059,126.9950538
940,173245,대림2동공영(구),영등포구 대림동 1072-25,노외 주차장,시간제 주차장,02-2677-1401,151,유료,0,2400,0,2400,0,2400,무료,무료,65000,50,5,50,5,0,37.56940856,126.9950029
941,173246,도림초교공영(구),영등포구 신길동 285-1,노외 주차장,시간제 주차장,02-2677-1401,145,유료,0,2400,0,2400,0,2400,무료,무료,65000,50,5,50,5,0,37.56951194,126.9949868
942,173250,대림1동공영(구),영등포구 대림동 834-1,노외 주차장,시간제 주차장,02-2677-1401,155,유료,0,2400,0,2400,0,2400,무료,무료,70000,100,5,100,5,0,37.56941418,126.9954925
943,173261,흑석빗물펌프장공영주차장(구),동작구 흑석동 105-0,노외 주차장,시간제 주차장,,45,유료,0,2400,0,2400,0,2400,무료,무료,120000,190,5,190,5,35000,37.56950488,126.995483
944,173262,도림동 공영주차장(구),영등포구 도림동 226-13,노외 주차장,시간제 주차장,02-2677-1401,26,유료,0,2359,0,2359,0,2259,무료,무료,65000,50,5,50,5,0,37.56916043,126.9955317
945,173277,대림어린이공원 공영(구),영등포구 대림동 870-0,노외 주차장,시간제 주차장,02-2677-1401,198,유료,0,2400,0,2400,0,2400,무료,무료,70000,100,5,100,5,0,37.5695652,126.9954784
946,173278,공유) 성대주차장(구),동작구 상도동 259-27,노외 주차장,시간제 + 거주자 주차장,02-820-9818,28,유료,0,2359,0,2359,0,2359,무료,무료,0,1200,60,600,30,0,37.57235875,126.9849457
947,173285,구릉주차장(구),동작구 신대방동 351-14,노외 주차장,시간제 주차장,,22,유료,800,2300,800,2300,0,0,무료,유료,90000,150,5,150,5,,37.57230376,126.984555
948,173286,공유) 은행나무골(구),동작구 사당동 297-1,노외 주차장,시간제 + 거주자 주차장,02-820-9818,7,유료,0,2359,0,2359,0,2359,무료,무료,0,1200,60,600,30,0,37.57232736,126.9847199
949,173289,서광주차장(구),동작구 신대방동 607-45,노외 주차장,시간제 주차장,,60,유료,0,2400,0,2400,0,2400,무료,무료,100000,150,5,150,5,35000,37.5723083,126.9845854
950,173291,대방생태공영주차장(구),동작구 대방동 395-1,노외 주차장,시간제 주차장,,39,유료,0,2400,0,2400,0,2400,무료,무료,100000,150,5,150,5,35000,37.57232231,126.9846856
951,173299,신길4동1마을공원 공영(구),영등포구 신길동 232-20,노외 주차장,시간제 주차장,02-2677-1401,130,유료,0,2400,0,2400,0,2400,무료,무료,65000,50,5,50,5,0,37.5723543,126.9849139
952,173329,원신공영주차장(구),관악구 신림동 366-0,노외 주차장,시간제 + 거주자 주차장,02-2081-2670,174,유료,0,2400,0,2400,0,2400,무료,무료,0,50,5,50,5,0,37.57233182,126.9847518
953,173333,조원동 제1공영주차장(구),관악구 신림동 571-6,노외 주차장,시간제 + 거주자 주차장,02-2081-2675,108,유료,0,2400,0,2400,0,2400,무료,무료,0,250,5,250,5,0,37.57229875,126.9845238
954,173353,보라매제1공영주차장(구),관악구 봉천동 110-4,노외 주차장,시간제 + 거주자 주차장,02-2081-2675,133,유료,0,2400,0,2400,0,2400,무료,무료,0,50,5,50,5,0,37.57234976,126.9848806
955,173359,대치2문화센터 공영주차장(구),강남구 대치동 980-9,노외 주차장,시간제 주차장,02-2176-0914,159,유료,0,2400,0,1200,0,1200,무료,무료,180000,300,5,300,5,,37.57231272,126.9846183
956,173362,행운동제1공영주차장(舊 봉천6동 까치공영주차장)(구),관악구 봉천동 1677-10,노외 주차장,시간제 + 거주자 주차장,02-2081-2675,79,유료,0,2400,0,2400,0,2400,무료,무료,,150,5,150,5,0,37.57236773,126.9850051
957,173389,구룡산제2호(구),강남구 개포동 126-2,노외 주차장,시간제 주차장,02-572-0648,132,유료,900,1900,0,0,0,0,유료,유료,120000,200,5,200,5,,37.57234522,126.9848488
958,173405,양재주차빌딩(구),서초구 양재동 90-2,노외 주차장,시간제 주차장,02-577-2225,98,유료,0,2400,0,2400,0,2400,무료,무료,120000,300,10,300,10,0,37.57234068,126.984817
959,173424,일원역 공영주차장(시),강남구 일원동 716-2,노외 주차장,시간제 주차장,,67,유료,900,1900,900,1500,0,0,무료,유료,70000,170,5,170,5,,37.57236339,126.9849763
960,173437,탄천 공영주차장(구),강남구 대치동 78-25,노외 주차장,시간제 주차장,02-2176-0901,833,유료,0,2400,0,2400,0,2400,무료,무료,70000,100,5,100,5,,37.57231777,126.9846535
961,173440,논현로32길15 공영주차장(구),강남구 도곡동 516-2,노외 주차장,시간제 주차장,02-2176-0907,16,유료,0,2400,0,2400,0,2400,무료,무료,180000,300,5,300,5,,37.57233636,126.9847853
962,173447,도곡로 421 공영주차장(구),강남구 대치동 939-21,노외 주차장,시간제 주차장,02-552-8723,27,유료,0,2400,0,2400,0,2400,무료,무료,280000,400,5,400,5,,37.57149131,127.0192543
963,173452,사당노외 공영주차장(시),서초구 방배동 507-1,노외 주차장,시간제 주차장,02-3405-4078,183,유료,0,2400,0,2400,0,2400,무료,무료,182000,400,5,400,5,,37.57150686,127.0192838
964,173468,개포동공원 공영주차장(구),강남구 개포동 183-2,노외 주차장,시간제 주차장,02-2176-0916,149,유료,0,2400,0,2400,0,2400,무료,무료,120000,200,5,200,5,,37.57147056,127.019215
965,173472,대청역 공영주차장(구),강남구 개포동 13-2,노외 주차장,시간제 주차장,02-2176-0941,168,유료,0,2400,0,2400,0,2400,무료,무료,70000,100,5,100,5,,37.57150169,127.019274
966,173474,구룡산제1호(구),강남구 개포동 567-23,노외 주차장,시간제 주차장,02-577-0592,92,유료,900,1900,0,0,0,0,유료,유료,120000,200,5,200,5,,37.57148612,127.0192445
967,173485,이수 공영주차장(구),서초구 방배동 761-3,노외 주차장,시간제 + 거주자 주차장,02-2155-7289,162,유료,0,2359,0,2359,0,2359,무료,무료,120000,150,5,150,5,,37.57147582,127.0192248
968,173488,시민의숲 동측 공영주차장[양재시민의숲역 4호점](구),서초구 양재동 237-0,노외 주차장,시간제 주차장,02-2155-7284,148,유료,0,2400,0,2400,0,2400,무료,무료,140000,250,5,250,5,0,37.57148094,127.0192347
969,173498,구룡공원 공영주차장(구),서초구 양재동 399-0,노외 주차장,시간제 주차장,02-2155-7294,132,유료,0,2400,0,2400,0,2400,무료,무료,120000,150,5,150,5,0,37.57149657,127.0192642
970,173499,도곡로 327 공영주차장(구),강남구 역삼동 765-22,노외 주차장,시간제 주차장,02-2176-0907,17,유료,0,2400,0,2400,0,2400,무료,무료,280000,400,5,400,5,,37.57207583,127.020702
971,173521,반포동 방음언덕형 공영주차장(구),서초구 반포동 730-0,노외 주차장,시간제 + 거주자 주차장,02-2155-7287,94,유료,0,2400,0,2400,0,2400,무료,무료,120000,300,10,300,10,0,37.57207033,127.0206794
972,173522,중앙로공영주차빌딩(구),서초구 방배동 977-17,노외 주차장,시간제 주차장,070-7841-5524,50,유료,0,2400,0,2400,0,2400,무료,무료,120000,300,10,300,10,0,37.57207872,127.0207129
973,173528,언남문화체육센터 공영주차장(구),서초구 양재동 310-0,노외 주차장,시간제 주차장,02-2155-7290,190,유료,0,2400,0,2400,0,2400,무료,무료,120000,300,10,300,10,20000,37.57207315,127.0206907
974,173534,강남치매지원센터 공영주차장(구),강남구 삼성동 113-26,노외 주차장,시간제 주차장,02-552-7849,115,유료,0,2400,0,2400,0,2400,무료,무료,280000,400,5,400,5,,37.57208421,127.0207355
975,173553,수서역북 공영주차장(시),강남구 수서동 735-0,노외 주차장,시간제 주차장,02-3405-4076,568,유료,0,2400,0,2400,0,2400,무료,무료,168000,320,5,320,5,,37.57208153,127.0207243
976,173573,서초역 공영주차장(구),서초구 서초동 1542-12,노외 주차장,시간제 주차장,02-2155-7294,23,유료,0,2400,0,2400,0,2400,무료,무료,0,250,5,250,5,0,37.57987744,126.9686371
977,173578,난곡동제1공영주차장(舊신림3동 공영주차장)(구),관악구 신림동 626-82,노외 주차장,시간제 + 거주자 주차장,02-2081-2670,119,유료,0,2400,0,2400,0,2400,무료,무료,,50,5,50,5,,37.57984909,126.9686409
978,173582,언구비 공영주차장(구),서초구 반포동 741-3,노외 주차장,시간제 + 거주자 주차장,02-2155-7287,51,유료,0,2400,0,2400,0,2400,무료,무료,120000,300,10,300,10,0,37.57990592,126.9686334
979,173590,구룡공영주차빌딩(구),서초구 양재동 301-6,노외 주차장,시간제 주차장,02-573-2224,107,유료,0,2400,0,2400,0,2400,무료,무료,120000,300,10,300,10,0,37.57986802,126.9686384
980,173591,천호유수지 주차장(구),강동구 천호동 329-0,노외 주차장,시간제 주차장,02-473-3124,168,유료,0,2400,0,2400,0,2400,무료,무료,90000,150,5,150,5,0,37.57985852,126.9686396
981,173646,신천유수지 공영주차장(시),송파구 신천동 14-0,노외 주차장,시간제 주차장,02-414-6417,192,유료,0,2400,0,2400,0,2400,무료,무료,140000,260,5,260,5,,37.57989642,126.9686345
982,173665,무궁화공영주차장(구),서초구 서초동 1666-17,노외 주차장,시간제 + 거주자 주차장,080-330-3600,69,유료,0,2400,0,2400,0,2400,무료,무료,180000,500,10,500,10,20000,37.57988699,126.9686359
983,173673,문정근린공원(구),송파구 문정동 38-3,노외 주차장,시간제 주차장,02-431-0166,290,유료,0,2400,0,2400,0,2400,무료,무료,120000,150,5,150,5,,37.58027332,127.0097603
984,173685,교대역동측주차장(구),서초구 서초동 1673-7,노외 주차장,시간제 주차장,080-330-3600,32,유료,900,2300,900,2300,900,2300,무료,무료,250000,800,10,800,10,30000,37.58036623,127.009363
985,173686,천호1동 주차장(구),강동구 천호동 87-26,노외 주차장,시간제 주차장,02-487-0073,189,유료,0,2400,0,2400,0,2400,무료,무료,90000,150,5,150,5,,37.58039978,127.0092317
986,173696,반포둥근마을 공영주차장(구),서초구 반포동 49-8,노외 주차장,시간제 + 거주자 주차장,02-2155-7287,179,유료,0,2400,0,2400,0,2400,무료,무료,120000,300,10,300,10,,37.58043453,127.009102
987,173698,동산마을 공영주차장(구),서초구 양재동 370-5,노외 주차장,시간제 + 거주자 주차장,02-2155-7294,121,유료,0,2400,0,2400,0,2400,무료,무료,180000,500,10,500,10,0,37.58025229,127.009896
988,173701,서래마을공영주차장(구),서초구 반포동 90-7,노외 주차장,시간제 주차장,02-2155-7287,78,유료,0,2400,0,2400,0,2400,무료,무료,120000,150,5,150,5,0,37.58030329,127.0096269
989,173740,천호3동 주차장(구),강동구 천호동 167-195,노외 주차장,시간제 주차장,02-472-0066,187,유료,0,2400,0,2400,0,2400,무료,무료,80000,150,5,150,5,,37.58033446,127.0094949
990,173749,방이동 공영주차장(구),송파구 방이동 52-1,노외 주차장,시간제 주차장,02-2043-0544,131,유료,0,2400,0,2400,0,2400,무료,무료,105000,150,5,150,5,0,37.58024483,127.0101731
991,173750,명일동 주차장(구),강동구 명일동 312-250,노외 주차장,시간제 주차장,02-442-6124,241,유료,0,2400,0,2400,0,2400,무료,무료,100000,250,5,250,5,,37.58024201,127.0100353
992,173752,복정역 공영주차장(시),송파구 장지동 600-2,노외 주차장,시간제 주차장,02-3405-4075,362,유료,0,2400,0,2400,0,2400,무료,무료,91000,170,5,170,5,,37.57531915,126.9787303
993,173754,아시아공원 공영주차장(구),송파구 잠실동 84-0,노외 주차장,시간제 주차장,02-415-7734,115,유료,0,2400,0,2400,0,2400,무료,무료,240000,250,5,250,5,,37.57527737,126.9787548
994,173759,온조대왕 문화체육관옆(구),강동구 고덕동 300-0,노외 주차장,시간제 주차장,02-428-2020,27,유료,900,1800,900,1800,0,0,무료,유료,0,150,5,150,5,0,37.57542571,126.9786694
995,173776,가락 1공영주차장(구),송파구 가락동 98-1,노외 주차장,시간제 주차장,02-430-1580,48,유료,0,2400,0,2400,0,2400,무료,무료,,250,5,250,5,,37.57546727,126.9786463
996,173810,일원1동(기계식)(구),강남구 일원동 684-8,노외 주차장,시간제 주차장,02-2176-0945,68,유료,600,2359,0,0,0,0,유료,유료,70000,100,5,100,5,,37.57525565,126.9787674
997,173821,마천동 2공영주차장(구),송파구 마천동 364-5,노외 주차장,시간제 주차장,02-407-4947,116,유료,0,2400,0,2400,0,2400,무료,무료,60000,50,5,50,5,,37.57538307,126.9786926
998,173828,남산한옥마을 공영주차장(시),중구 필동2가 83-1,노외 주차장,시간제 + 버스전용 주차장,02-2275-6122,17,유료,900,2000,900,2000,900,2000,무료,무료,0,250,5,250,5,0,37.57521215,126.9787923
999,173831,도봉산 공영주차장(시),도봉구 도봉동 282-26,노외 주차장,시간제 주차장,070-7119-0059,135,유료,800,2200,800,2200,800,2200,무료,무료,126000,170,5,170,5,0,37.575298,126.978742
1000,173840,암사1동 공영주차장(시),강동구 암사동 473-3,노외 주차장,시간제 주차장,02-2290-6410,99,유료,0,0,0,0,0,0,유료,유료,90000,130,5,130,5,,37.57523394,126.9787793
1001,173860,개운산(구),성북구 종암동 54-182,노외 주차장,시간제 주차장,,11,유료,900,1900,0,0,0,0,유료,유료,66000,900,30,300,10,10000,37.57544599,126.9786582
1002,173864,필동 공영주차장(구),중구 필동3가 62-12,노외 주차장,시간제 주차장,02-2280-8368,47,유료,0,2400,0,0,0,0,유료,유료,140000,150,5,150,5,0,37.57540383,126.9786815
1003,173867,천호역 공영주차장(시),강동구 천호동 455-0,노외 주차장,시간제 주차장,02-2290-6201,1432,유료,0,2400,0,2400,0,2400,무료,무료,140000,260,5,260,5,0,37.57536163,126.9787049
1004,173870,삼전동공영주차장(구),송파구 삼전동 175-8,노외 주차장,시간제 주차장,02-422-1055,198,유료,0,2400,0,2400,0,2400,무료,무료,60000,50,5,50,5,0,37.57534073,126.9787157
1005,173874,안말 주차장(구),강동구 성내동 512-0,노외 주차장,시간제 주차장,02-482-3194,172,유료,0,0,0,0,0,0,유료,유료,90000,150,5,150,5,,37.5312409,127.129894
1006,173877,송파동 공영주차장(구),송파구 송파동 128-0,노외 주차장,시간제 주차장,02-424-2372,85,유료,0,2400,0,2400,0,2400,무료,무료,60000,50,5,50,5,,37.5695603,126.9838496
1007,173880,석촌고분 공영주차장(구),송파구 석촌동 248-0,노외 주차장,시간제 주차장,02-3431-1763,63,유료,900,1800,900,1500,900,1800,무료,무료,,50,5,50,5,,37.56956367,126.9831674
1008,173885,가락 2공영주차장(구),송파구 가락동 80-2,노외 주차장,시간제 주차장,02-401-1580,84,유료,0,2400,0,2400,0,2400,무료,무료,,250,5,250,5,,37.56955933,126.9833049
1009,173886,거여동 공영주차장(구),송파구 거여동 33-16,노외 주차장,시간제 주차장,02-402-1055,137,유료,0,2400,0,2400,0,2400,무료,무료,60000,50,5,50,5,0,37.56955216,126.9837142
1010,173890,풍납2 공영주차장(구),송파구 풍납동 175-0,노외 주차장,시간제 주차장,02-486-5336,81,유료,0,2400,0,2400,0,2400,무료,무료,60000,50,5,50,5,0,37.56954962,126.9836479
1011,173891,풍납1공영주차장(구),송파구 풍납동 154-0,노외 주차장,시간제 주차장,,56,유료,0,2400,0,2400,0,2400,무료,무료,60000,50,5,50,5,0,37.56954998,126.9835796
1012,1759454,공유) 대방동주민센터(8~22구간)(구),동작구 대방동 466-67,노상 주차장,시간제 + 거주자 주차장,1661-5806,1,유료,0,1159,0,1159,0,1159,무료,무료,0,1200,60,600,30,0,37.56956199,126.983236
1013,1759511,공유) 동작도서관(06~10구간)(구),동작구 노량진동 329-3,노상 주차장,시간제 + 거주자 주차장,1661-5806,1,유료,900,1800,0,0,0,0,무료,무료,0,600,30,600,30,0,37.56956539,126.9839177
1014,1759512,공유) 동작도서관(01~05구간)(구),동작구 노량진동 329-3,노상 주차장,시간제 + 거주자 주차장,1661-5806,1,유료,900,1800,0,0,0,0,무료,무료,0,600,30,600,30,0,37.56955461,126.9834427
1015,1759514,공유) 동작도서관(16~19구간)(구),동작구 노량진동 329-3,노상 주차장,시간제 + 거주자 주차장,1661-5806,1,유료,900,1800,0,0,0,0,무료,무료,0,600,30,600,30,0,37.56955581,126.9837815
1016,1759517,공유) 동작도서관(22~26구간)(구),동작구 노량진동 329-3,노상 주차장,시간제 + 거주자 주차장,1661-5806,1,유료,900,1800,0,0,0,0,무료,무료,0,600,30,600,30,0,37.56955668,126.9833738
1017,1759628,공유) 등용로(구),동작구 대방동 23-2,노상 주차장,시간제 + 거주자 주차장,1661-5806,1,유료,900,1800,0,0,0,0,무료,무료,0,1200,60,600,30,0,37.56950891,126.9831892
1018,1759666,공유) 서울공고(93~94구간)(구),동작구 대방동 466-10,노상 주차장,시간제 + 거주자 주차장,1661-5806,1,유료,900,1800,0,0,0,0,무료,무료,0,1200,60,600,30,0,37.56955255,126.9835109
1019,1759668,공유) 서울공고(95~99구간)(구),동작구 대방동 466-10,노상 주차장,시간제 + 거주자 주차장,1661-5806,1,유료,900,1800,0,0,0,0,무료,무료,0,1200,60,600,30,0,37.57763687,126.9893291
1020,1759950,공유) 장승배기로D(구),동작구 상도동 181-10,노상 주차장,시간제 + 거주자 주차장,1661-5806,1,유료,900,1800,0,0,0,0,무료,무료,0,1200,60,600,30,0,37.57774739,126.9893215
1021,1760134,공유) 사당동 남일교회(1~19 구간)(구),동작구 사당동 127-32,노상 주차장,시간제 + 거주자 주차장,1661-5806,1,유료,0,1159,0,1159,59,1159,무료,무료,0,1200,60,600,30,0,37.57844214,126.989317
1022,1760198,공유) 서울공고(100~104구간)(구),동작구 대방동 466-10,노상 주차장,시간제 + 거주자 주차장,1661-5806,1,유료,900,1800,0,0,0,0,무료,무료,0,1200,60,600,30,0,37.57831279,126.9893457
1023,1760203,공유) 서울공고(110~114구간)(구),동작구 대방동 466-10,노상 주차장,시간제 + 거주자 주차장,1661-5806,1,유료,900,1800,0,0,0,0,무료,무료,0,1200,60,600,30,0,37.57780195,126.9893269
1024,1760211,공유) 서울공고(105~109구간)(구),동작구 대방동 466-10,노상 주차장,시간제 + 거주자 주차장,1661-5806,1,유료,900,1800,0,0,0,0,무료,무료,0,1200,60,600,30,0,37.57798976,126.9893384
1025,1760325,공유) 사당3동 다112(구),동작구 사당동 169-14,노상 주차장,시간제 + 거주자 주차장,1661-5806,1,유료,0,1159,0,1159,0,1159,무료,무료,0,1200,60,600,30,0,37.57815842,126.9893496
1026,1760338,공유) 동작도서관(67~70구간)(구),동작구 노량진동 329-3,노상 주차장,시간제 + 거주자 주차장,1661-5806,1,유료,900,1800,0,0,0,0,무료,무료,0,600,30,600,30,0,37.57769267,126.9893231
1027,1760341,공유) 동작도서관(71~76구간)(구),동작구 노량진동 329-3,노상 주차장,시간제 + 거주자 주차장,1661-5806,1,유료,900,1800,0,0,0,0,무료,무료,0,600,30,600,30,0,37.57813399,126.9893467
1028,1760903,공유) 상도동 134번지 일대(102~123구간)(구),동작구 상도동 439-0,노상 주차장,시간제 + 거주자 주차장,1661-5806,1,유료,0,1159,0,1159,0,1159,무료,무료,0,1200,60,600,30,0,37.57803804,126.9893414
1029,1760924,공유) 상도래미안(60~70구간)(구),동작구 상도동 451-0,노상 주차장,시간제 + 거주자 주차장,1661-5806,1,유료,0,1159,0,1159,0,1159,무료,무료,0,1200,60,600,30,0,37.57810955,126.9893452
1030,1761566,공유) 장승배기로C(구),동작구 상도동 184-9,노상 주차장,시간제 + 거주자 주차장,1661-5806,1,유료,900,1800,0,0,0,0,무료,무료,0,1200,60,600,30,0,37.57836684,126.9893319
1031,1761575,공유) 장승배기로B(구),동작구 상도동 184-9,노상 주차장,시간제 + 거주자 주차장,1661-5806,1,유료,900,1800,0,0,0,0,무료,무료,0,1200,60,600,30,0,37.57806188,126.9893414
1032,1761692,공유) 장승배기로A(구),동작구 상도동 201-38,노상 주차장,시간제 + 거주자 주차장,1661-5806,1,유료,900,1800,0,0,0,0,무료,무료,0,1200,60,600,30,0,37.57808631,126.9893444
1033,1910157,테헤란로78길(구),강남구 대치동 1011-6 포스코 센터 옆길,노상 주차장,시간제 주차장,,1,유료,900,1900,0,0,0,0,유료,유료,,400,5,800,5,30000,37.57849518,126.9893065
1034,1910167,공유) 22-29(구),강서구 방화동 816-4 담벼락쪽,노상 주차장,시간제 주차장,,1,유료,900,1800,0,0,0,0,유료,유료,0,600,30,600,30,0,37.5782594,126.9893581
1035,1910185,영동대로86길(구),강남구 대치동 1012-22 삼성역 2번출구 아랫길,노상 주차장,시간제 주차장,,1,유료,900,1900,0,0,0,0,유료,유료,,400,5,800,5,30000,37.5780136,126.9893407
1036,1911853,적선동 버스전용 주차장(시),종로구 적선동 140-0,노상 주차장,버스전용 주차장,02-2264-4895,1,유료,900,1900,900,1900,900,1900,무료,무료,0,680,5,680,5,0,37.57457238,127.0163165
1037,1912049,마장동 공영주차장(시),성동구 마장동 459-6,노외 주차장,시간제 주차장,02-2290-6449,10,유료,0,2400,0,2400,0,2400,무료,무료,80000,120,5,120,5,0,37.5745967,127.0162994
1038,1912211,남산소파길 공영주차장(시),중구 예장동 8-172,노상 주차장,시간제 주차장,,1,유료,900,2100,900,2100,900,2100,무료,무료,0,250,5,250,5,0,37.57165604,126.9741431
1039,1912303,공유) 대림역 4번출구 (구),구로구 구로동 119-13,노상 주차장,거주자 우선 주차장,,1,유료,0,0,0,0,0,0,무료,무료,0,0,0,0,0,0,37.57142086,126.9741155
1040,1912305,공유) 구로5동 주민센터(구),구로구 구로동 61-2,노상 주차장,거주자 우선 주차장,,1,유료,0,0,0,0,0,0,무료,무료,0,0,0,0,0,0,37.57158993,126.9731404
1041,1912322,공유) 구로중앙로28길(구),구로구 구로동 528-5,노상 주차장,시간제 주차장,,1,유료,0,2400,0,2400,0,2400,무료,무료,,600,10,600,10,,37.57158871,126.973504
1042,1912338,고척리본타운주차장(구),구로구 고척동 156,노외 주차장,시간제 주차장,,66,유료,0,2400,0,2400,0,2400,무료,무료,112000,150,5,150,5,,37.57165697,126.9742804
1043,1912365,공유) 능동로24길 IoT 공유주차장(구),광진구 능동 18-60,노상 주차장,시간제 + 거주자 주차장,,1,유료,0,2400,0,2400,0,2400,무료,무료,0,1200,10,0,0,0,37.57158699,126.9728679
1044,1912395,대흥공영주차장(구),마포구 대흥동 73-27,노외 주차장,시간제 주차장,02-300-5046,20,유료,0,2400,0,2400,0,2400,무료,무료,0,250,5,0,0,0,37.57158909,126.9735726
1045,1912396,망원나들목공영주차장A동(구),마포구 망원동 461-3,노외 주차장,시간제 주차장,02-300-5046,62,유료,0,2400,0,2400,0,2400,무료,무료,0,200,5,0,0,0,37.57158787,126.9729356
1046,1912974,신길역사(1번출구) 거주자우선주차장(구),영등포구 신길동 54-2 ,노상 주차장,거주자 우선 주차장,,1,유료,0,0,0,0,0,0,무료,무료,0,0,0,0,0,0,37.57147607,126.974116
1047,1912995,살피재 공유주차장(구),동작구 상도동 485-6 ,노상 주차장,거주자 우선 주차장,,1,유료,0,0,0,0,0,0,무료,무료,0,0,0,0,0,0,37.57159097,126.9738424
1048,1913000,살피재 주차장(구),동작구 상도동 485-6 ,노상 주차장,거주자 우선 주차장,,1,유료,0,0,0,0,0,0,무료,무료,0,0,0,0,0,0,37.57165567,126.9740745
1049,1913053,은평한문화공영주차장(구),은평구 진관동 125-12,노외 주차장,시간제 주차장,02-350-5189,150,유료,0,0,0,0,0,0,유료,유료,0,500,5,0,0,0,37.57136605,126.9741163
1050,1913069,공유) 창신동 49번~53번(창삼 제1공영주차장)(구),종로구 창신동 23-348,노외 주차장,시간제 + 거주자 주차장,02-2148-3335,5,유료,900,1800,900,1800,900,1800,무료,무료,,600,30,100,5,,37.57158924,126.9730718
1051,1913071,공유) 삼청동 주민센터(구),종로구 삼청동 111-1,노외 주차장,시간제 + 거주자 주차장,02-2148-3335,9,유료,0,2359,0,2359,0,2359,무료,무료,,600,30,100,10,,37.57165696,126.9742122
1052,1913078,공유) 19-02(구),성동구 송정동 66-28,노상 주차장,시간제 + 거주자 주차장,02-2204-7970,1,유료,830,1900,830,1900,830,1900,무료,무료,,900,30,900,30,10000,37.57159174,126.9739111
1053,1913091,공유) 14-02(구),성동구 옥수동 321-4,노상 주차장,시간제 + 거주자 주차장,02-2204-7970,1,유료,830,1900,830,1900,830,1900,무료,무료,,900,30,900,30,10000,37.57158877,126.9730044
1054,1913159,공유) 19-01(구),성동구 송정동 73-474,노상 주차장,시간제 + 거주자 주차장,02-2204-7970,1,유료,830,1900,830,1900,830,1900,무료,무료,,900,30,900,30,10000,37.58748251,126.983046
1055,1913199,공유) 03-15(구),성동구 홍익동 101-2,노상 주차장,시간제 + 거주자 주차장,02-2204-7970,1,유료,830,1900,830,1900,830,1900,무료,무료,,900,30,900,30,10000,37.58750345,126.9831085
1056,1913209,공유) 03-20(구),성동구 도선동 12-1,노상 주차장,시간제 + 거주자 주차장,02-2204-7970,1,유료,830,1900,830,1900,830,1900,무료,무료,,900,30,900,30,10000,37.58746129,126.982984
1057,1913271,공유) 18-05(구),성동구 성수동2가 289-201,노상 주차장,시간제 + 거주자 주차장,02-2204-7970,1,유료,1830,1900,830,1900,830,1900,무료,무료,,900,30,900,30,10000,37.58744012,126.9829214
1058,1913286,공유)  17-29(구),성동구 성수동2가 527-0,노상 주차장,시간제 + 거주자 주차장,02-2204-7970,1,유료,0,0,0,0,0,0,무료,무료,0,900,30,900,30,10000,37.58736134,126.9826749
1059,1913385,남산예장 관광버스전용 주차장(시),중구 예장동 4-1,노외 주차장,버스전용 주차장,02-2290-7227,0,유료,600,2400,600,2400,600,2400,무료,무료,0,500,5,500,5,0,37.58761235,126.9834233
1060,1913393,장안1동 공영주차장(시),동대문구 장안동 392-3,노외 주차장,시간제 주차장,02-3405-4598,74,유료,0,2400,0,2400,0,2400,무료,무료,90000,130,5,130,5,0,37.58734003,126.9826111
1061,1913399,공유) 성북구 복사골 주차장(구),성북구 성북동 230-1,노외 주차장,시간제 + 거주자 주차장,02-1661-5806,10,유료,0,2359,0,2359,0,2359,무료,무료,0,1200,60,600,30,0,37.58731865,126.9825476
1062,1913400,공유) 성북구 도담도담 주차장(구),성북구 성북동 232-13,노외 주차장,시간제 + 거주자 주차장,02-1661-5806,7,유료,0,2359,0,2359,0,2359,무료,무료,,1200,60,600,30,,37.58758851,126.9833598
1063,1913401,공유) 성북구 심우장 주차장(구),성북구 성북동 241-5,노외 주차장,시간제 + 거주자 주차장,02-1661-5806,11,유료,0,2359,0,2359,0,2359,무료,무료,0,1200,60,600,30,0,37.58740467,126.9828031
1064,1913415,면목유수지 공영주차장(시),중랑구 면목동 168-2,노외 주차장,시간제 주차장,,567,유료,0,2400,0,2400,0,2400,무료,무료,0,100,5,100,5,0,37.58752476,126.9831718
1065,1913533,공유) 중화2동 21구간(구),중랑구 중화동 73-8,노상 주차장,시간제 + 거주자 주차장,02-1661-5806,1,유료,900,1800,0,0,0,0,무료,무료,0,600,60,300,30,0,37.58756717,126.9832976
1066,1913534,공유) 화랑마을 공영(구),중랑구 묵동 122-9178,노외 주차장,시간제 + 거주자 주차장,02-1661-5806,4,유료,900,1800,0,0,0,0,무료,무료,,600,60,300,30,,37.58738249,126.9827384
1067,1913538,공유) 용마산로524 공영(구),중랑구 망우동 466-9009,노외 주차장,시간제 + 거주자 주차장,02-1661-5806,4,유료,900,1800,0,0,0,0,무료,무료,,600,60,300,30,,37.58727578,126.9824207
1068,1913605,훈련원공원 앞 관광버스 전용 주차장(시),중구 을지로5가 40-2,노상 주차장,버스전용 주차장,,1,무료,0,0,0,0,0,0,유료,유료,0,0,0,0,0,0,37.587546,126.9832348
1069,1913613,DDP 패션몰 앞 관광버스 주차허용 구간(시),중구 신당동 204-92 ,노상 주차장,버스전용 주차장,,1,무료,0,0,0,0,0,0,유료,유료,0,0,0,0,0,0,37.58714709,126.9821156
1070,1913615,성촌공원 남측 관광버스 주차허용 구간(시),용산구 이촌동 173-1,노상 주차장,버스전용 주차장,,1,무료,0,0,0,0,0,0,유료,유료,,,,,,,37.58729721,126.982484
1071,1913619,성암로 관광버스 주차허용 구간(시),마포구 상암동 1695-0,노상 주차장,버스전용 주차장,,1,무료,0,0,0,0,0,0,유료,유료,0,0,0,0,0,0,37.58712789,126.982051
1072,1913626,이태원 입구 관광버스 승하차 허용 구간(시),용산구 이태원동 56-4,노상 주차장,버스전용 주차장,,1,무료,0,0,0,0,0,0,유료,유료,,,,,,,37.56831662,126.9893367
1073,1913645,신세계면세점 명동점 앞 관광버스 승하차 허용 구간(시),중구 충무로1가 52-47 (신세계면세점 명동점 옆),노상 주차장,버스전용 주차장,,1,무료,0,0,0,0,0,0,유료,유료,,,,,,,37.568294,126.988629
1074,1913866,옥수유수지(평면) 공영주차장(구),성동구 옥수동 77-3,노외 주차장,시간제 주차장,02-2204-7970,47,유료,0,2400,0,2400,0,2400,무료,무료,100000,150,5,150,5,0,37.56829666,126.9882176
1075,1913868,공유) 19-21(구),성동구 송정동 73-568,노외 주차장,시간제 주차장,02-2204-7970,9,유료,830,1900,830,1900,830,1900,무료,무료,,900,30,900,30,10000,37.56831363,126.9892663
1076,1914055,공유) 동작도서관(11~15구간)(구),동작구 노량진동 329-3,노상 주차장,시간제 + 거주자 주차장,1661-5806,1,유료,900,1800,0,0,0,0,무료,무료,0,600,30,600,30,0,37.56830587,126.989127
1077,1914185,소금나루도서관 공영주차장(구),마포구 염리동 61-4,노외 주차장,시간제 주차장,02-300-5046,118,유료,0,2400,0,2400,0,2400,무료,무료,0,200,5,0,0,0,37.56829903,126.9880723
1078,1914209,응봉동(평면) 공영주차장(구),성동구 응봉동 210-3,노외 주차장,시간제 주차장,02-2204-7970,65,유료,0,2400,0,2400,0,2400,무료,무료,70000,100,5,100,5,0,37.5682943,126.9884302
1079,1914210,뚝섬유수지(평면) 공영주차장(구),성동구 성수동1가 685-63,노외 주차장,시간제 주차장,02-2204-7970,352,유료,0,2400,0,2400,0,2400,무료,무료,100000,150,5,150,5,0,37.56829785,126.9881457
1080,1914241,공유) 04-03(구),성동구 마장동 450-65,노상 주차장,시간제 + 거주자 주차장,02-2204-7970,1,유료,830,1900,830,1900,830,1900,무료,무료,,900,30,900,30,10000,37.56829931,126.9890589
1081,1914246,공유) 05-04(구),성동구 행당동 157-1,노상 주차장,시간제 + 거주자 주차장,02-2204-7970,1,유료,830,1900,830,1900,830,1900,무료,무료,,900,30,900,30,10000,37.56829211,126.9885707
1082,1914305,공유) 05-10(구),성동구 사근동 190-2,노외 주차장,시간제 + 거주자 주차장,02-2204-7970,25,유료,830,1900,830,1900,830,1900,무료,무료,,900,30,900,30,10000,37.568303,126.988003
1083,1914321,공유) 08-03(구),성동구 응봉동 265-165,노상 주차장,시간제 + 거주자 주차장,02-2204-7970,1,유료,830,1900,830,1900,830,1900,무료,무료,0,900,30,900,30,10000,37.56829312,126.9885006
1084,1914324,공유) 10-01(구),성동구 금호동2가 9-1,노상 주차장,시간제 + 거주자 주차장,02-2204-7970,1,유료,830,1900,830,1900,830,1900,무료,무료,,900,30,900,30,10000,37.57723855,127.0186526
1085,1914361,공유) 15-21(구),성동구 성수동1가 463-0 ,노상 주차장,시간제 + 거주자 주차장,02-2204-7970,1,유료,830,1900,830,1900,830,1900,무료,무료,,900,30,900,30,10000,37.57724429,127.0186616
1086,1914425,공유) 19-20(구),성동구 송정동 97-30,노상 주차장,시간제 + 거주자 주차장,02-2204-7970,1,유료,830,1900,830,1900,830,1900,무료,무료,,900,30,900,30,10000,37.57723288,127.0186436
1087,1914444,공유) 19-03(구),성동구 송정동 73-839 ,노상 주차장,시간제 + 거주자 주차장,02-2204-7970,1,유료,830,1900,830,1900,830,1900,무료,무료,,900,30,900,30,10000,37.57728049,127.0186835
1088,1914484,공유) 17-33(구),성동구 성수동2가 234-1 ,노상 주차장,시간제 + 거주자 주차장,02-2204-7970,1,유료,830,1900,830,1900,830,1900,무료,무료,0,900,30,900,30,10000,37.57725858,127.0186748
1089,1914486,공유) 17-27(구),성동구 성수동2가 623-0,노상 주차장,시간제 + 거주자 주차장,02-2204-7970,1,유료,830,1900,830,1900,830,1900,무료,무료,,900,30,900,30,10000,37.57518425,127.0209533
1090,1914509,공유) 17-18(구),성동구 성수동2가 269-236 ,노상 주차장,시간제 + 거주자 주차장,02-2204-7970,1,유료,830,1900,830,1900,830,1900,무료,무료,0,900,30,900,30,10000,37.57519318,127.0209508
1091,1914704,거주자상생주차장(구),송파구 거여동 41-4 ,노상 주차장,거주자 우선 주차장,02-2147-3190,1,유료,0,0,0,0,0,0,무료,무료,0,0,0,0,0,0,37.57520211,127.0209485
1092,1914705,거여동 거주자상생주차장(구),송파구 거여동 41-4,노외 주차장,거주자 우선 주차장,02-2147-3190,174,유료,0,0,0,0,0,0,무료,무료,0,0,0,0,0,0,37.57521088,127.0209461
1093,1914910,갈산 거주자우선주차장(구),양천구 신정동 1325-4,노외 주차장,거주자 우선 주차장,,10,유료,0,0,0,0,0,0,무료,무료,0,0,0,0,0,0,37.57517533,127.0209557
1094,1915064,경창시장 고객주차장(구),양천구 신월동 446-3,노외 주차장,시간제 주차장,,32,유료,0,0,0,0,0,0,유료,유료,0,150,5,0,0,0,37.57100587,127.0081362
1095,1915065,깨비시장 고객주차장(구),양천구 목동 614-3,노외 주차장,시간제 주차장,,54,유료,0,2400,0,2400,0,2400,무료,무료,0,150,5,0,0,0,37.57098024,127.0070703
1096,1915134,효자로 관광버스 주차허용 구간(시),종로구 궁정동 15-0 (청운효자동 주민센터 ~ 무궁화동산 앞),노상 주차장,버스전용 주차장,02-2133-2357,1,무료,0,0,0,0,0,0,유료,유료,0,0,0,0,0,0,37.57028267,127.0068169
1097,1915162,둘리뮤지엄공영주차장(구),도봉구 쌍문동 79-0,노외 주차장,시간제 + 거주자 주차장,02-901-5100,25,유료,0,2400,0,2400,0,2400,무료,무료,0,100,5,0,0,0,37.57024381,127.006688
1098,1915194,여의도공원 공영주차장(시),영등포구 여의도동 2-11,노상 주차장,시간제 주차장,02-2274-2009,1,유료,900,1900,900,1500,0,0,무료,유료,0,300,5,300,5,0,37.57100088,127.007928
1099,1915353,공유) 진양상가1구간 1-02면 (장애인전용)(구),중구 충무로4가 120-3,노상 주차장,시간제 + 거주자 주차장,02-3396-6264,1,유료,900,1900,900,1500,0,0,무료,무료,0,300,30,100,10,0,37.57100845,127.0082487
1100,2872698,공유주차장(구),양천구 신정동 88-16 ,노상 주차장,거주자 우선 주차장,,1,유료,0,0,0,0,0,0,무료,무료,0,0,0,0,0,0,37.57029206,127.0068162
1101,2991019,어울림소공원 공영주차장(구),강북구 미아동 4-1,노외 주차장,시간제 주차장,02-944-3025,45,유료,0,2400,0,2400,0,2400,무료,무료,100000,200,5,200,5,10000,37.57099075,127.0074868
1102,2992242,민속의 집 주차장(구),강동구 고덕동 215-0,노외 주차장,시간제 주차장,070-7547-3512,26,유료,0,2400,0,2400,0,2400,무료,무료,85000,150,5,150,5,0,37.57077782,127.0067818
1103,3001565,휘경유수지(구),동대문구 휘경동 7-18,노외 주차장,시간제 주차장,,55,유료,900,1900,900,1500,0,0,무료,유료,,500,10,,,,37.57078723,127.0067811
1104,3033624,성내전통시장 주차장(구),강동구 성내동 224-37,노외 주차장,시간제 주차장,070-7547-3512,28,유료,0,2400,0,2400,0,2400,무료,무료,85000,150,5,150,5,,37.57100372,127.0080525
1105,3088540,고분다리전통시장 주차장(구),강동구 천호동 280-9,노외 주차장,시간제 주차장,070-7547-3512,26,유료,0,2400,0,2400,0,2400,무료,무료,,150,5,150,5,85000,37.57075894,127.0067831
1106,3108604,천호3동제2 주차장(구),강동구 천호동 174-1,노외 주차장,시간제 주차장,02-482-1717,183,유료,0,2400,0,2400,0,2400,무료,무료,80000,150,5,150,5,,37.57100197,127.0079758
1107,3129378,정릉천복개 공영주차장(구),동대문구 제기동 271-50,노외 주차장,시간제 주차장,,143,유료,900,1900,900,1500,0,2400,무료,무료,,500,10,,,,37.57070208,127.0067873
1108,3199580,초안산 창골주차장(구),도봉구 창동 677-0,노외 주차장,시간제 + 거주자 주차장,,71,유료,0,0,0,0,0,0,무료,무료,,100,5,,,,37.57023444,127.0066884
1109,3204439,서소문올리브타워옆 공영주차장(구),중구 서소문동 137-0,노외 주차장,시간제 주차장,,16,유료,900,2000,900,1600,0,0,무료,유료,0,500,5,500,5,0,37.56989645,127.0071459
1110,3204441,다동 IOT 공유주차장(구),중구 다동 181-1,노외 주차장,시간제 + 거주자 주차장,,13,유료,0,2400,0,2400,0,2400,무료,무료,0,1500,30,1500,30,0,37.57024496,127.0068195
1111,3204448,성동공고 공영주차장(구),중구 흥인동 1-1,노외 주차장,시간제 주차장,,175,유료,0,2400,0,2400,0,2400,무료,무료,0,200,5,200,5,0,37.57067383,127.0067893
1112,3204473,중림종합복지센터 부설주차장(구_중림(제5))(시),중구 중림동 155-1,노외 주차장,시간제 주차장,02-2280-8446,95,유료,0,2400,0,2400,0,2400,무료,무료,140000,250,5,250,5,0,37.57020612,127.0066895
1113,3204476,서소문 삼성생명뒤 공영주차장(구),중구 태평로2가 150-0,노외 주차장,시간제 주차장,,52,유료,800,2200,900,1800,0,0,무료,유료,350000,400,5,400,5,20000,37.57099008,127.007463
1114,3204489,남산파출소공영주차장(시),중구 회현동1가 1-16,노외 주차장,시간제 주차장,,13,유료,900,2100,900,2100,900,2100,무료,무료,0,330,5,330,5,0,37.56989024,127.0070641
1115,3204496,중구종합복지센터 공영주차장(구),중구 신당동 160-2,노외 주차장,시간제 주차장,,84,유료,800,2000,1000,1800,1000,1800,무료,무료,0,250,5,250,5,0,37.57003637,127.006834
1116,3204497,성동 고등학교 공영주차장(구),중구 신당동 161-0,노외 주차장,시간제 주차장,,134,유료,0,2400,0,2400,0,2400,무료,무료,140000,150,5,150,5,0,37.57100757,127.0082129
1117,74588,가오천 노상공영(구),강북구 수유동 181-40,노상 주차장,시간제 + 거주자 주차장,,1,유료,900,1900,900,1500,0,0,무료,무료,100000,200,5,200,5,10000,37.56989374,127.0071048
1118,75432,아카데미 노상공영(구),강북구 수유동 535-76,노상 주차장,시간제 + 거주자 주차장,,1,유료,900,1900,900,1500,900,1800,무료,무료,100000,200,5,200,5,10000,37.57020736,127.0068222
1119,781508,화곡3-1 공영주차장(구),강서구 화곡동 1045-0,노외 주차장,시간제 주차장,02-2603-1573,99,유료,1000,1900,0,0,0,0,유료,유료,50000,50,5,50,5,2000,37.57021551,127.0066891
1120,781509,화곡4-1 공영주차장(구),강서구 화곡동 809-26,노외 주차장,시간제 주차장,02-2645-1574,138,유료,0,0,0,0,0,0,유료,유료,50000,50,5,50,5,2000,37.57019674,127.0066899
1121,781511,화곡1-1 공영주차장(구),강서구 화곡동 424-94,노외 주차장,시간제 주차장,02-2699-3993,98,유료,1000,1900,0,0,0,0,유료,유료,50000,50,5,50,5,2000,37.57098098,127.0070942
1122,781512,곰달래 문화복지센터 공영주차장(구),강서구 화곡동 890-0,노외 주차장,시간제 주차장,02-2690-2818,248,유료,0,0,0,0,0,0,유료,유료,80000,100,5,100,5,5000,37.57073027,127.0067853
1123,782904,홍은 1동 제4 공영 주차장(구),서대문구 홍은동 11-23,노외 주차장,시간제 + 거주자 주차장,,105,유료,1000,1900,1000,1900,1000,1900,무료,무료,,50,5,50,5,,37.57047208,127.0068033
1124,788447,창천중교 공영주차장(구),마포구 노고산동 33-1,노외 주차장,시간제 주차장,02-300-5052,280,유료,0,2400,0,2400,0,2400,무료,무료,80000,200,5,200,5,0,37.57100705,127.0081838
1125,790441,도화 공영주차장(구),마포구 도화동 557-0,노외 주차장,시간제 주차장,02-300-5052,63,유료,0,2400,0,2400,0,2400,무료,무료,170000,250,5,250,5,0,37.57026392,127.0068184
1126,79957,빨래골 노상공영(구),강북구 수유동 49-27,노상 주차장,시간제 + 거주자 주차장,02-944-3025,1,유료,900,1900,900,1500,0,0,무료,무료,100000,200,5,200,5,10000,37.57022497,127.0066888
1127,804444,면목2동공영주차장(구),중랑구 면목동 146-1,노외 주차장,시간제 + 거주자 주차장,080-490-3894,199,유료,0,2400,0,2400,0,2400,무료,무료,0,100,5,100,5,0,37.57080611,127.0067797
1128,881056,목동노외 공영주차장(시),양천구 목동 905-32,노외 주차장,시간제 주차장,02-2664-1386,48,유료,900,1900,900,1500,0,0,무료,유료,70000,150,5,150,5,9000,37.5701686,127.006691
1129,881983,중곡3동 마을공원 주차장(구),광진구 중곡동 195-1,노외 주차장,시간제 주차장,02-2049-4596,162,유료,0,2400,0,2400,0,2400,무료,무료,0,75,5,0,0,0,37.57002685,127.0068347
1130,892053,도화공영주차장(구),동작구 상도동 244-183,노외 주차장,시간제 주차장,,58,유료,0,2400,0,2400,0,2400,무료,무료,100000,150,5,150,5,35000,37.57100142,127.0079518
1131,903979,부군당길공영주차장(구),동대문구 전농동 273-1,노외 주차장,시간제 + 거주자 주차장,02-2247-9664~6,63,유료,900,1900,900,1900,900,1900,무료,무료,,1000,60,0,0,10000,37.57100061,127.0079162
1132,911542,구산동 마을공원 지하공동주차장(구),은평구 구산동 340-1,노외 주차장,시간제 주차장,02-1588-5783,77,유료,0,2400,0,2400,0,2400,무료,무료,,100,5,,,,37.57100165,127.0079636
1133,968455,구세군길 공영주차장(무인)(구),강북구 미아동 791-1360,노외 주차장,시간제 주차장,02-944-3036,87,유료,0,2400,0,2400,0,2400,무료,무료,60000,150,5,150,5,10000,37.57023556,127.0068203
1134,968483,가오리 공영주차장(구),강북구 수유동 349-3,노외 주차장,시간제 주차장,02-944-3046,120,유료,0,2400,0,2400,0,2400,무료,무료,60000,150,5,150,5,10000,37.57100401,127.0080644
1135,968494,삼양시장길 공영주차장(무인)(구),강북구 미아동 791-1429,노외 주차장,시간제 주차장,02- 02-944-3025,43,무료,0,0,0,0,0,0,유료,유료,60000,0,0,0,0,0,37.56989205,127.0070915
1136,968503,삼양마을공원지하 공영주차장(구),강북구 미아동 748-2,노외 주차장,시간제 주차장,02-944-3047,95,유료,0,2400,0,2400,0,2400,무료,무료,100000,200,5,200,5,10000,37.57098843,127.0073924
1137,968514,색동공원 공영주차장(구),강북구 수유동 49-7,노외 주차장,시간제 주차장,02-985-3492,80,유료,0,2400,0,2400,0,2400,무료,무료,100000,200,5,200,5,10000,37.57068331,127.0067887
1138,980509,비봉주차장(구),종로구 구기동 139-9,노외 주차장,시간제 주차장,02-391-4272,40,유료,800,1800,800,1800,800,1800,무료,무료,100000,150,5,150,5,,37.57079674,127.0067804
1139,984617,신도림역환승주차장(구),구로구 구로동 1-4,노외 주차장,시간제 주차장,,65,유료,0,2400,0,2400,0,2400,무료,무료,75000,100,5,100,5,0,37.57098243,127.0071611
1140,984688,구로아트밸리 지하주차장(구),구로구 구로동 102-0,노외 주차장,시간제 주차장,,245,유료,0,2400,0,2400,0,2400,무료,무료,112000,150,5,150,5,0,37.57021675,127.0068216
